SPZO Ene2020-010000Z 11006KT 9999 SCT046 BKN080 13/08 Q1028 NOSIG RMK BIRD HAZARD RWY 28 PP000=
SPZO Ene2020-010030Z 10004KT 9999 SCT050 BKN100 13/08 Q1029 NOSIG RMK BIRD HAZARD RWY 28=
SPZO Ene2020-010100Z 11006KT 9999 SCT050 BKN100 13/08 Q1029 NOSIG RMK BIRD HAZARD RWY 28 PP000=
SPZO Ene2020-010130Z 12003KT 9999 SCT050 BKN100 14/08 Q1030 NOSIG RMK BIRD HAZARD RWY 28=
SPZO Ene2020-010200Z 18011KT 9999 -RA FEW030 SCT050 BKN100 13/05 Q1031 NOSIG RMK BIRD HAZARD RWY 28 PPTRZ=
SPZO Ene2020-010230Z 10006KT 9999 -RA FEW030 SCT050 BKN100 10/06 Q1033 NOSIG RMK BIRD HAZARD RWY 28=
SPZO Ene2020-010300Z 10006KT 9999 -RA SCT050 BKN100 09/06 Q1033 NOSIG RMK BIRD HAZARD RWY 28 PP052=
SPZO Ene2020-010400Z 11005KT 9999 RA SCT050 BKN100 09/07 Q1034 RMK BIRD HAZARD RWY 28 PP042=
SPZO Ene2020-010500Z 11005KT 9999 RA FEW030 SCT050 BKN100 08/07 Q1033 RMK BIRD HAZARD RWY 28 PP008=
SPZO Ene2020-010600Z 26002KT 9999 -RA SCT050 BKN100 07/05 Q1032 RMK BIRD HAZARD RWY 28 PP042=
SPZO Ene2020-010700Z 22002KT 9999 -DZ FEW030 SCT060 BKN100 08/04 Q1032 RMK BIRD HAZARD RWY 28 PP004=
SPZO Ene2020-010800Z 00000KT 9999 FEW030 SCT060 BKN100 07/04 Q1031 RMK BIRD HAZARD RWY 28 PP000=
SPZO Ene2020-010900Z 11002KT 9999 -DZ FEW030 SCT060 BKN100 08/05 Q1030 RMK BIRD HAZARD RWY 28 PPTRZ=
SPZO Ene2020-011000Z 00000KT 9999 FEW030 BKN100 08/04 Q1030 NOSIG RMK BIRD HAZARD RWY 28 PP000=
SPZO Ene2020-011030Z 00000KT 9999 FEW020 BKN080 08/05 Q1031 NOSIG RMK BR QUAD E BIRD HAZARD RWY 28=
SPZO Ene2020-011100Z 12003KT 9999 FEW020 SCT046 08/05 Q1031 NOSIG RMK BR QUAD E BIRD HAZARD RWY 28 PP000=
SPZO Ene2020-011130Z VRB01KT 9999 FEW020 SCT046 09/05 Q1031 NOSIG RMK BIRD HAZARD RWY 28=
SPZO Ene2020-011200Z VRB01KT 9999 FEW020 SCT046 09/06 Q1032 NOSIG RMK TN7.3 BIRD HAZARD RWY 28 PP000=
SPZO Ene2020-011230Z VRB01KT 9999 FEW020 SCT046 10/05 Q1032 NOSIG RMK BIRD HAZARD RWY 28=
SPZO Ene2020-011300Z VRB01KT 9999 SCT040 BKN080 10/05 Q1032 NOSIG RMK BIRD HAZARD RWY 28 PP000=
SPZO Ene2020-011330Z 11005KT 090V190 9999 SCT040 BKN080 12/07 Q1032 NOSIG RMK BIRD HAZARD RWY 28=
SPZO Ene2020-011400Z 11006KT 090V190 9999 SCT040 BKN080 13/07 Q1032 NOSIG RMK BIRD HAZARD RWY 28 PP000=
SPZO Ene2020-011430Z 11005KT 090V190 9999 SCT040 BKN080 12/06 Q1032 NOSIG RMK BIRD HAZARD RWY 28=
SPZO Ene2020-011500Z VRB03KT 9999 SCT040 BKN080 14/05 Q1032 NOSIG RMK BIRD HAZARD RWY 28 PP000=
SPZO Ene2020-011530Z 12002KT 9999 SCT043 BKN080 15/06 Q1031 NOSIG RMK BIRD HAZARD RWY 28=
SPZO Ene2020-011600Z VRB01KT 9999 SCT046 BKN080 15/06 Q1031 NOSIG RMK BIRD HAZARD RWY 28 PP000=
SPZO Ene2020-011630Z VRB01KT 9999 SCT046 BKN080 17/05 Q1030 NOSIG RMK BIRD HAZARD RWY 28=
SPZO Ene2020-011700Z VRB04KT 9999 SCT046 BKN080 17/06 Q1029 NOSIG RMK BIRD HAZARD RWY 28 PP000=
SPZO Ene2020-011730Z 36005KT 9999 SCT050 BKN100 18/06 Q1028 NOSIG RMK BIRD HAZARD RWY 28=
SPZO Ene2020-011800Z VRB01KT 9999 SCT050 BKN100 19/06 Q1028 NOSIG RMK BIRD HAZARD RWY 28 PP000=
SPZO Ene2020-011830Z 14004KT 9999 VCSH SCT050 BKN100 19/05 Q1026 NOSIG RMK BIRD HAZARD RWY 28=
SPZO Ene2020-011900Z 30003KT 9999 VCSH SCT050 BKN100 20/07 Q1026 NOSIG RMK BIRD HAZARD RWY 28 PP000=
SPZO Ene2020-011930Z VRB02KT 9999 VCSH SCT050 BKN100 21/04 Q1025 NOSIG RMK BIRD HAZARD RWY 28=
SPZO Ene2020-012000Z 02011KT 9999 -DZ VCSH SCT050 BKN100 18/05 Q1025 NOSIG RMK BIRD HAZARD RWY 28 PPTRZ=
SPZO Ene2020-012030Z 36009KT 9999 VCSH SCT050 BKN100 17/05 Q1025 NOSIG RMK BIRD HAZARD RWY 28=
SPZO Ene2020-012100Z 02011KT 9999 VCSH FEW040TCU SCT050 BKN100 17/05 Q1025 NOSIG RMK BIRD HAZARD RWY 28 PP000=
SPZO Ene2020-012130Z 34009KT 9999 VCSH SCT050 BKN100 17/06 Q1025 NOSIG RMK BIRD HAZARD RWY 28=
SPZO Ene2020-012200Z 28013KT 9999 SCT050 BKN100 16/06 Q1025 NOSIG RMK TX21.2 BIRD HAZARD RWY 28 PP000=
SPZO Ene2020-012230Z 28012KT 9999 VCSH SCT050 BKN100 15/07 Q1026 NOSIG RMK BIRD HAZARD RWY 28=
SPZO Ene2020-012300Z 28010KT 9999 SCT050 BKN100 15/07 Q1026 NOSIG RMK BIRD HAZARD RWY 28 PP000=
SPZO Ene2020-012330Z 28011KT 9999 SCT050 BKN100 15/06 Q1027 NOSIG RMK BIRD HAZARD RWY 28=
SPZO Ene2020-020000Z 27009KT 9999 SCT050 BKN080 14/07 Q1028 NOSIG RMK TCU QUAD NE BIRD HAZARD RWY 28 PP000=
SPZO Ene2020-020030Z 09011KT 9999 SCT040 BKN080 14/08 Q1029 NOSIG RMK BIRD HAZARD RWY 28=
SPZO Ene2020-020100Z 10006KT 9999 SCT040 BKN080 13/08 Q1029 NOSIG RMK BIRD HAZARD RWY 28 PP000=
SPZO Ene2020-020130Z 28005KT 9999 -RA SCT040 BKN080 12/08 Q1030 NOSIG RMK BIRD HAZARD RWY 28=
SPZO Ene2020-020200Z 26003KT 9999 -DZ SCT040 OVC080 12/07 Q1031 NOSIG RMK BIRD HAZARD RWY 28 PP004=
SPZO Ene2020-020230Z 00000KT 9999 SCT040 BKN080 12/07 Q1031 NOSIG RMK BIRD HAZARD RWY 28=
SPZO Ene2020-020300Z 10004KT 9999 SCT040 OVC080 12/08 Q1031 NOSIG RMK BIRD HAZARD RWY 28 PP000=
SPZO Ene2020-020400Z 12006KT 9999 -RA SCT040 OVC080 11/08 Q1031 RMK BIRD HAZARD RWY 28 PP002=
SPZO Ene2020-020500Z 09005KT 9999 SCT040 OVC080 10/07 Q1031 RMK BIRD HAZARD RWY 28 PP000=
SPZO Ene2020-020600Z 28004KT 9999 FEW020 SCT040 OVC080 10/07 Q1030 RMK BIRD HAZARD RWY 28 PP002=
SPZO Ene2020-020700Z 27003KT 9999 FEW020 SCT040 OVC080 10/06 Q1029 RMK BIRD HAZARD RWY 28 PP000=
SPZO Ene2020-020800Z 28003KT 9999 FEW020 SCT040 OVC080 10/06 Q1029 RMK BIRD HAZARD RWY 28 PP000=
SPZO Ene2020-020900Z 28005KT 9999 FEW025 SCT040 BKN080 10/06 Q1029 RMK BIRD HAZARD RWY 28 PP000=
SPZO Ene2020-021000Z 28004KT 9999 -RA FEW025 SCT036 BKN080 10/06 Q1030 NOSIG RMK BIRD HAZARD RWY 28 PP002=
SPZO Ene2020-021030Z 28003KT 8000 -RA FEW020 SCT036 OVC080 09/07 Q1030 NOSIG RMK CLNG BLW 1200M BIRD HAZARD RWY 28=
SPZO Ene2020-021100Z 29002KT 9000 -DZ FEW020 SCT036 OVC080 09/06 Q1031 NOSIG RMK CLNG BLW 1200M BIRD HAZARD RWY 28 PP004=
SPZO Ene2020-021130Z 00000KT 8000 -RA FEW020 SCT030 OVC080 09/07 Q1031 NOSIG RMK CLNG BLW 1000M BIRD HAZARD RWY 28=
SPZO Ene2020-021200Z 00000KT 8000 -DZ FEW005 SCT010 OVC080 09/07 Q1032 NOSIG RMK CLNG BLW 1200M BIRD HAZARD RWY 28 PPTRZ=
SPZO Ene2020-021230Z 00000KT 6000 -RA FEW005 SCT020 OVC080 09/07 Q1032 NOSIG RMK CLNG BLW 1200M BIRD HAZARD RWY 28=
SPZO Ene2020-021300Z 00000KT 6000 RA FEW005 SCT020 OVC080 09/07 Q1032 NOSIG RMK CLNG BLW 1200M BIRD HAZARD RWY 28 PP010=
SPZO Ene2020-021330Z 00000KT 6000 RA FEW005 SCT020 OVC080 10/07 Q1033 NOSIG RMK CLNG BLW 1200M BIRD HAZARD RWY 28=
SPZO Ene2020-021400Z 27001KT 6000 RA FEW005 SCT020 OVC080 10/07 Q1033 NOSIG RMK CLNG BLW 1200M BIRD HAZARD RWY 28 PP006=
SPZO Ene2020-021430Z VRB02KT 8000 DZ FEW005 SCT020 OVC080 12/07 Q1033 NOSIG RMK CLNG BLW 1200M BIRD HAZARD RWY 28=
SPZO Ene2020-021500Z VRB01KT 8000 -RA FEW005 SCT020 OVC080 12/06 Q1033 NOSIG RMK CLNG BLW 1200M BIRD HAZARD RWY 28 PP004=
SPZO Ene2020-021530Z 30002KT 9999 DZ FEW010 SCT030 OVC080 13/06 Q1032 NOSIG RMK BIRD HAZARD RWY 28=
SPZO Ene2020-021600Z 30002KT 9999 FEW010 SCT030 OVC080 14/07 Q1032 NOSIG RMK BIRD HAZARD RWY 28 PPTRZ=
SPZO Ene2020-021630Z VRB03KT 9999 FEW020 SCT040 BKN100 14/06 Q1032 NOSIG RMK BIRD HAZARD RWY 28=
SPZO Ene2020-021700Z 10006KT 9999 VCSH FEW020 SCT040 BKN100 14/07 Q1031 NOSIG RMK BIRD HAZARD RWY 28 PP000=
SPZO Ene2020-021730Z 11005KT 060V150 9000 FEW025 SCT040 BKN080 15/09 Q1030 NOSIG RMK -RA QUAD NE BIRD HAZARD RWY 28=
SPZO Ene2020-021800Z 09006KT 010V100 9999 FEW025 SCT036 BKN080 14/07 Q1030 NOSIG RMK -RA QUAD NE BIRD HAZARD RWY 28 PP000=
SPZO Ene2020-021830Z 11005KT 080V170 9999 FEW025 SCT036 BKN080 15/08 Q1029 NOSIG RMK BIRD HAZARD RWY 28=
SPZO Ene2020-021900Z 09005KT 020V130 9999 FEW030 SCT040 BKN080 15/08 Q1029 NOSIG RMK BIRD HAZARD RWY 28 PP000=
SPZO Ene2020-021930Z 30002KT 9999 SCT040 BKN080 16/07 Q1028 NOSIG RMK BIRD HAZARD RWY 28=
SPZO Ene2020-022000Z 33002KT 9999 SCT040 BKN080 18/08 Q1028 NOSIG RMK BIRD HAZARD RWY 28 PP000=
SPZO Ene2020-022030Z 27005KT 180V270 9999 SCT040 BKN080 17/08 Q1027 NOSIG RMK BIRD HAZARD RWY 28=
SPZO Ene2020-022100Z 28006KT 260V340 9999 VCSH FEW040TCU SCT046 BKN080 16/07 Q1027 NOSIG RMK BIRD HAZARD RWY 28 PP000=
SPZO Ene2020-022130Z 27004KT 200V290 9999 FEW040TCU SCT046 BKN080 16/08 Q1027 NOSIG RMK BIRD HAZARD RWY 28=
SPZO Ene2020-022200Z 02006KT 330V060 9999 FEW040TCU SCT046 BKN080 16/05 Q1027 NOSIG RMK TX17.8 BIRD HAZARD RWY 28 PP000=
SPZO Ene2020-022230Z 02008KT 350V080 9999 FEW040TCU SCT046 BKN080 15/05 Q1028 NOSIG RMK BIRD HAZARD RWY 28=
SPZO Ene2020-022300Z 36006KT 290V030 9999 FEW040TCU SCT046 BKN080 15/06 Q1028 NOSIG RMK BIRD HAZARD RWY 28 PP000=
SPZO Ene2020-022330Z 35006KT 280V330 9999 -DZ FEW040TCU SCT050 BKN080 15/06 Q1029 NOSIG RMK BIRD HAZARD RWY 28=
SPZO Ene2020-030000Z 29007KT 9999 -DZ FEW046 SCT050 BKN080 14/07 Q1030 NOSIG RMK BIRD HAZARD RWY 28 PPTRZ=
SPZO Ene2020-030030Z 30006KT 9999 SCT046 BKN080 14/06 Q1031 NOSIG RMK BIRD HAZARD RWY 28=
SPZO Ene2020-030100Z 31005KT 9999 SCT046 BKN080 14/06 Q1031 NOSIG RMK BIRD HAZARD RWY 28 PP000=
SPZO Ene2020-030130Z 12007KT 9999 SCT046 BKN080 13/07 Q1032 NOSIG RMK BIRD HAZARD RWY 28=
SPZO Ene2020-030200Z 09005KT 9999 SCT046 BKN080 13/06 Q1032 NOSIG RMK BIRD HAZARD RWY 28 PP000=
SPZO Ene2020-030230Z 04003KT 9999 SCT046 BKN080 13/06 Q1033 NOSIG RMK BIRD HAZARD RWY 28=
SPZO Ene2020-030300Z 08003KT 9999 SCT040 BKN080 12/06 Q1033 NOSIG RMK BIRD HAZARD RWY 28 PP000=
SPZO Ene2020-030400Z 09004KT 9999 SCT040 BKN080 12/07 Q1033 RMK BIRD HAZARD RWY 28 PP000=
SPZO Ene2020-030500Z 00000KT 9999 SCT040 BKN080 11/07 Q1033 RMK BIRD HAZARD RWY 28 PP000=
SPZO Ene2020-030600Z 26001KT 9999 -RA SCT040 BKN080 11/07 Q1032 RMK BIRD HAZARD RWY 28 PP002=
SPZO Ene2020-030700Z 10002KT 9999 SCT040 BKN080 10/07 Q1032 RMK BIRD HAZARD RWY 28 PP002=
SPZO Ene2020-030800Z 29002KT 9999 SCT040 BKN080 09/07 Q1032 RMK BIRD HAZARD RWY 28 PP000=
SPZO Ene2020-030900Z 29003KT 9999 FEW030 SCT040 BKN080 09/07 Q1032 RMK BIRD HAZARD RWY 28 PP000=
SPZO Ene2020-031000Z 28004KT 9999 FEW020 SCT036 BKN080 10/07 Q1033 RMK BIRD HAZARD RWY 28 PP000=
SPZO Ene2020-031030Z 00000KT 9999 SCT040 BKN080 10/07 Q1033 NOSIG RMK BIRD HAZARD RWY 28=
SPZO Ene2020-031100Z 00000KT 9999 SCT040 BKN080 10/07 Q1034 NOSIG RMK BIRD HAZARD RWY 28 PP000=
SPZO Ene2020-031130Z 27002KT 9999 SCT040 BKN080 11/07 Q1034 NOSIG RMK BIRD HAZARD RWY 28=
SPZO Ene2020-031200Z 27001KT 9999 SCT040 BKN080 11/07 Q1034 NOSIG RMK TN08.8 BIRD HAZARD RWY 28 PP000=
SPZO Ene2020-031230Z 24001KT 9999 SCT036 BKN080 12/07 Q1035 NOSIG RMK BIRD HAZARD RWY 28=
SPZO Ene2020-031300Z 25001KT 9999 SCT036 BKN080 12/06 Q1035 NOSIG RMK BIRD HAZARD RWY 28 PP000=
SPZO Ene2020-031330Z 07002KT 9999 SCT036 BKN080 13/07 Q1035 NOSIG RMK BIRD HAZARD RWY 28=
SPZO Ene2020-031400Z 36002KT 9999 SCT036 BKN080 14/07 Q1035 NOSIG RMK BIRD HAZARD RWY 28 PP000=
SPZO Ene2020-031430Z 17001KT 9999 SCT040 BKN080 15/06 Q1035 NOSIG RMK BIRD HAZARD RWY 28=
SPZO Ene2020-031500Z 35001KT 9999 SCT040 BKN080 17/07 Q1035 NOSIG RMK BIRD HAZARD RWY 28 PP000=
SPZO Ene2020-031530Z 29003KT 240V350 9999 SCT040 BKN080 17/05 Q1034 NOSIG RMK BIRD HAZARD RWY 28=
SPZO Ene2020-031600Z 10003KT 9999 SCT040 BKN080 18/08 Q1034 NOSIG RMK BIRD HAZARD RWY 28 PP000=
SPZO Ene2020-031630Z 33004KT 270V020 9999 SCT043 BKN080 17/06 Q1033 NOSIG RMK BIRD HAZARD RWY 28=
SPZO Ene2020-031700Z 25003KT 150V270 9999 SCT043 BKN080 18/05 Q1032 NOSIG RMK BIRD HAZARD RWY 28 PP000=
SPZO Ene2020-031730Z 33006KT 9999 SCT050 SCT100 18/06 Q1031 NOSIG RMK BIRD HAZARD RWY 28=
SPZO Ene2020-031800Z 36008KT 9999 SCT050 18/06 Q1031 NOSIG RMK BIRD HAZARD RWY 28 PP000=
SPZO Ene2020-031830Z 36008KT 9999 SCT050 SCT100 18/06 Q1030 NOSIG RMK BIRD HAZARD RWY 28=
SPZO Ene2020-031900Z 01011KT 9999 SCT050 SCT100 17/07 Q1030 NOSIG RMK BIRD HAZARD RWY 28 PP000=
SPZO Ene2020-031930Z 34008KT 9999 -DZ SCT050 SCT100 17/06 Q1029 NOSIG RMK BIRD HAZARD RWY 28=
SPZO Ene2020-032000Z 35006KT 9999 SCT046 BKN100 18/06 Q1029 REDZ NOSIG RMK BIRD HAZARD RWY 28 PP002=
SPZO Ene2020-032030Z 35008KT 9999 DZ FEW030 SCT046 BKN100 16/08 Q1029 NOSIG RMK BIRD HAZARD RWY 28=
SPZO Ene2020-032100Z 03004KT 9999 -DZ SCT046 BKN100 15/08 Q1029 NOSIG RMK BIRD HAZARD RWY 28 PPTRZ=
SPZO Ene2020-032130Z VRB01KT 9999 -DZ SCT046 BKN100 15/09 Q1030 NOSIG RMK BIRD HAZARD RWY 28=
SPZO Ene2020-032200Z 11011KT 9999 SCT046 BKN100 14/08 Q1030 NOSIG RMK TX20.2 BIRD HAZARD RWY 28 PP000=
SPZO Ene2020-032230Z 10006KT 9999 -DZ SCT050 BKN100 13/09 Q1031 NOSIG RMK BIRD HAZARD RWY 28=
SPZO Ene2020-032300Z 09004KT 9999 SCT050 BKN100 13/09 Q1031 REDZ NOSIG RMK BIRD HAZARD RWY 28 PP002=
SPZO Ene2020-032330Z 11005KT 9999 SCT050 BKN100 13/09 Q1032 NOSIG RMK BIRD HAZARD RWY 28=
SPZO Ene2020-040000Z 12005KT 9999 SCT050 BKN100 12/08 Q1032 NOSIG RMK BIRD HAZARD RWY 28 PP000=
SPZO Ene2020-040030Z 10004KT 9999 SCT050 BKN100 12/08 Q1032 NOSIG RMK BIRD HAZARD RWY 28=
SPZO Ene2020-040100Z 09004KT 9999 SCT050 BKN100 12/08 Q1032 NOSIG RMK BIRD HAZARD RWY 28 PP000=
SPZO Ene2020-040130Z 00000KT 9999 SCT050 BKN100 12/08 Q1033 NOSIG RMK BIRD HAZARD RWY 28=
SPZO Ene2020-040200Z 11001KT 9999 RA SCT040 BKN100 12/09 Q1034 NOSIG RMK BIRD HAZARD RWY 28 PP004=
SPZO Ene2020-040300Z 29003KT 9999 RA SCT040 BKN100 10/08 Q1035 NOSIG RMK BIRD HAZARD RWY 28 PP036=
SPZO Ene2020-040400Z 29003KT 9999 RA SCT040 BKN100 10/08 Q1036 NOSIG RMK BIRD HAZARD RWY 28 PP026=
SPZO Ene2020-040500Z 27002KT 9999 RA SCT040 BKN100 10/07 Q1036 NOSIG RMK BIRD HAZARD RWY 28 PP022=
SPZO Ene2020-040600Z 28002KT 9999 RA SCT020 BKN060 09/07 Q1035 RMK BIRD HAZARD RWY 28 PP022=
SPZO Ene2020-040700Z 29002KT 9999 RA SCT020 BKN060 09/07 Q1034 RMK BIRD HAZARD RWY 28 PP030=
SPZO Ene2020-040800Z 00000KT 9999 RA SCT020 BKN100 09/06 Q1034 RMK BIRD HAZARD RWY 28 PP020=
SPZO Ene2020-040900Z 00000KT 9999 RA SCT020 SCT030 BKN100 09/06 Q1033 RMK CLMG BLW 1200M BIRD HAZARD RWY 28 PP008=
SPZO Ene2020-041000Z 00000KT 9999 -RA FEW020 SCT030 BKN100 08/06 Q1033 NOSIG RMK CLNG BLW 1200M BIRD HAZARD RWY 28 PP008=
SPZO Ene2020-041030Z 00000KT 9999 DZ FEW020 SCT030 BKN100 08/06 Q1034 NOSIG RMK CLNG BLW 1200M BIRD HAZARD RWY 28=
SPZO Ene2020-041100Z 11002KT 9999 DZ FEW020 SCT036 BKN100 08/06 Q1034 NOSIG RMK CLNG BLW 1200M BIRD HAZARD RWY 28 PPTRZ=
SPZO Ene2020-041130Z 10003KT 9999 FEW020 SCT046 BKN100 09/07 Q1034 NOSIG RMK BIRD HAZARD RWY 28=
SPZO Ene2020-041200Z 08002KT 9999 FEW020 SCT040 BKN100 09/07 Q1035 NOSIG RMK TN8.2 BIRD HAZARD RWY 28 PP000=
SPZO Ene2020-041230Z 11002KT 9999 FEW020 SCT040 BKN080 10/07 Q1035 NOSIG RMK BIRD HAZARD RWY 28=
SPZO Ene2020-041300Z 00000KT 9999 FEW020 SCT040 BKN080 10/07 Q1035 NOSIG RMK BIRD HAZARD RWY 28 PP000=
SPZO Ene2020-041330Z 00000KT 9999 FEW020 SCT050 BKN080 11/06 Q1035 NOSIG RMK BIRD HAZARD RWY 28=
SPZO Ene2020-041400Z 00000KT 9999 FEW020 SCT050 BKN080 11/06 Q1035 NOSIG RMK BIRD HAZARD RWY 28 PP000=
SPZO Ene2020-041430Z 16002KT 9999 FEW020 SCT050 BKN080 11/06 Q1035 NOSIG RMK BIRD HAZARD RWY 28=
SPZO Ene2020-041500Z 00000KT 9999 FEW020 SCT050 BKN080 12/06 Q1035 NOSIG RMK BIRD HAZARD RWY 28 PP000=
SPZO Ene2020-041530Z 35002KT 9999 FEW020 SCT050 BKN080 12/04 Q1034 NOSIG RMK BIRD HAZARD RWY 28=
SPZO Ene2020-041600Z 06002KT 9999 FEW020 SCT046 BKN080 14/06 Q1034 NOSIG RMK BIRD HAZARD RWY 28 PP000=
SPZO Ene2020-041630Z 28002KT 9999 SCT046 BKN080 15/06 Q1033 NOSIG RMK BIRD HAZARD RWY 28=
SPZO Ene2020-041700Z 24003KT 9999 SCT040 BKN080 16/06 Q1032 NOSIG RMK BIRD HAZARD RWY 28 PP000=
SPZO Ene2020-041730Z 08006KT 9999 SCT040 BKN100 16/06 Q1031 NOSIG RMK BIRD HAZARD RWY 28=
SPZO Ene2020-041800Z VRB03KT 9999 SCT040 BKN100 16/06 Q1031 NOSIG RMK TCU QUAD N BIRD HAZARD RWY 28 PP000=
SPZO Ene2020-041830Z VRB02KT 9999 SCT040 BKN100 18/06 Q1030 NOSIG RMK BIRD HAZARD RWY 28=
SPZO Ene2020-041900Z VRB02KT 9999 SCT043 BKN100 17/05 Q1029 NOSIG RMK BIRD HAZARD RWY 28 PP000=
SPZO Ene2020-041930Z 30008KT 9999 SCT043 BKN100 18/07 Q1029 NOSIG RMK BIRD HAZARD RWY 28=
SPZO Ene2020-042000Z VRB01KT 9999 SCT043 FEW050TCU BKN100 16/08 Q1029 NOSIG RMK BIRD HAZARD RWY 28 PP000=
SPZO Ene2020-042030Z 11008KT 9999 FEW040TCU BKN100 15/09 Q1028 NOSIG RMK BIRD HAZARD RWY 28=
SPZO Ene2020-042100Z 11003KT 9999 FEW050 BKN120 15/09 Q1028 NOSIG RMK TCU QUAD SW BIRD HAZARD RWY 28 PP000=
SPZO Ene2020-042130Z 09002KT 9999 SCT046 BKN100 16/07 Q1028 NOSIG RMK BIRD HAZARD RWY 28=
SPZO Ene2020-042200Z 11004KT 9999 SCT046 BKN100 16/07 Q1027 NOSIG RMK TX18.3 BIRD HAZARD RWY 28 PP000=
SPZO Ene2020-042230Z 11004KT 9999 SCT050 BKN100 15/08 Q1028 NOSIG RMK BIRD HAZARD RWY 28=
SPZO Ene2020-042300Z 10004KT 9999 FEW050 BKN100 15/08 Q1028 NOSIG RMK BIRD HAZARD RWY 28 PP000=
SPZO Ene2020-042330Z 11003KT 9999 SCT050 BKN100 15/09 Q1028 NOSIG RMK HZ QUAD NE BIRD HAZARD RWY 28=
SPZO Ene2020-050000Z 10006KT 9999 SCT050 BKN100 14/08 Q1029 NOSIG RMK HZ QUAD NE BIRD HAZARD RWY 28 PP000=
SPZO Ene2020-050030Z 11002KT 9999 SCT050 BKN100 14/08 Q1029 NOSIG RMK BIRD HAZARD RWY 28=
SPZO Ene2020-050100Z 10002KT 9999 SCT050 BKN100 14/09 Q1030 NOSIG RMK BIRD HAZARD RWY 28 PP000=
SPZO Ene2020-050130Z 16006G22KT 9000 -RA SCT043 BKN080 12/05 Q1031 NOSIG RMK CB DSNT QUAD SE BIRD HAZARD RWY 28=
SPZO Ene2020-050200Z 12005KT 7000 -RA SCT040 BKN080 10/06 Q1032 NOSIG RMK CB QUAD S BIRD HAZARD RWY 28 PP040=
SPZO Ene2020-050230Z 34004KT 270V010 8000 -TSRA SCT040 FEW060CB BKN080 10/07 Q1033 NOSIG RMK TS S MOV N BIRD HAZARD RWY 28=
SPZO Ene2020-050300Z 27005KT 8000 -TSRA SCT040 FEW060CB BKN080 09/07 Q1033 NOSIG RMK BIRD HAZARD RWY 28 PP032=
SPZO Ene2020-050400Z 27004KT 8000 -RA SCT040 BKN080 09/07 Q1033 RMK PP048=
SPZO Ene2020-050500Z 27004KT 6000 RA SCT040 OVC080 09/07 Q1033 RMK PP056=
SPZO Ene2020-050600Z 29007KT 6000 RA SCT036 OVC080 08/05 Q1032 RMK PP046=
SPZO Ene2020-050700Z 29004KT 6000 RA SCT036 OVC080 07/05 Q1032 RMK PP030=
SPZO Ene2020-050800Z 29002KT 5000 -RA BR SCT010 SCT036 OVC080 07/04 Q1031 RMK PP018=
SPZO Ene2020-050900Z 19002KT 5000 -RA BR SCT010 SCT036 OVC080 07/04 Q1031 RMK CLNG BLW 1200M BIRD HAZARD RWY 28 PP006=
SPZO Ene2020-051000Z 11002KT 5000 -RA BR SCT010 SCT036 OVC080 07/04 Q1032 NOSIG RMK CLNG BLW 1200M BIRD HAZARD RWY 28 PP008=
SPZO Ene2020-051030Z 08001KT 5000 -RA BR SCT010 SCT036 OVC080 07/04 Q1032 NOSIG RMK CLNG BLW 1200M BIRD HAZARD RWY 28=
SPZO Ene2020-051100Z 09002KT 8000 -DZ FEW020 SCT036 OVC080 07/04 Q1032 NOSIG RMK CLNG BLW 1200M BIRD HAZARD RWY 28 PP002=
SPZO Ene2020-051130Z 00000KT 9000 -DZ SCT015 OVC080 07/04 Q1033 NOSIG RMK BR BIRD HAZARD RWY 28=
SPZO Ene2020-051200Z 10001KT 9000 -DZ SCT015 OVC080 08/05 Q1033 NOSIG RMK TN6.8 BR BIRD HAZARD RWY 28 PP002=
SPZO Ene2020-051230Z 00000KT 9000 -DZ FEW010 SCT020 OVC080 08/05 Q1033 NOSIG RMK BR BIRD HAZARD RWY 28=
SPZO Ene2020-051300Z VRB01KT 9000 -RA SCT010 OVC080 08/05 Q1034 NOSIG RMK BR BIRD HAZARD RWY 28 PP006=
SPZO Ene2020-051330Z VRB01KT 9999 -DZ SCT010 OVC080 10/06 Q1033 NOSIG RMK BIRD HAZARD RWY 28=
SPZO Ene2020-051400Z 20001KT 9999 SCT010 BKN080 11/06 Q1033 NOSIG RMK BIRD HAZARD RWY 28 PP004=
SPZO Ene2020-051430Z 27003KT 9999 SCT015 BKN080 11/05 Q1033 NOSIG RMK BIRD HAZARD RWY 28=
SPZO Ene2020-051500Z VRB02KT 9999 SCT020 BKN080 13/06 Q1032 NOSIG RMK BIRD HAZARD RWY 28 PP000=
SPZO Ene2020-051530Z 34002KT 9999 SCT030 BKN080 14/05 Q1032 NOSIG RMK BIRD HAZARD RWY 28=
SPZO Ene2020-051600Z VRB03KT 9999 SCT036 BKN080 15/08 Q1031 NOSIG RMK BIRD HAZARD RWY 28 PP000=
SPZO Ene2020-051630Z 27001KT 9999 SCT0036 BKN080 15/07 Q1030 NOSIG RMK BIRD HAZARD RWY 28=
SPZO Ene2020-051700Z 28008KT 9999 SCT040 BKN100 14/06 Q1030 NOSIG RMK BIRD HAZARD RWY 28 PP000=
SPZO Ene2020-051730Z 29006KT 9999 SCT040 BKN100 15/07 Q1029 NOSIG RMK BIRD HAZARD RWY 28=
SPZO Ene2020-051800Z 30008KT 9999 SCT040 BKN100 16/07 Q1028 NOSIG RMK BIRD HAZARD RWY 28 PP000=
SPZO Ene2020-051830Z 29012KT 9999 SCT040 BKN100 17/07 Q1027 NOSIG RMK BIRD HAZARD RWY 28=
SPZO Ene2020-051900Z 29012KT 9999 SCT050 BKN100 17/08 Q1027 NOSIG RMK BIRD HAZARD RWY 28 PP000=
SPZO Ene2020-051930Z 29015KT 9999 SCT050 BKN100 17/07 Q1027 NOSIG RMK BIRD HAZARD RWY 28=
SPZO Ene2020-052000Z 29016KT 9999 FEW040TCU SCT050 BKN100 17/06 Q1026 NOSIG RMK BIRD HAZARD RWY 28 PP000=
SPZO Ene2020-052030Z 29012KT 9999 FEW040TCU SCT050 BKN100 16/06 Q1026 NOSIG RMK BIRD HAZARD RWY 28=
SPZO Ene2020-052100Z 35005KT 9999 -RA FEW040TCU SCT050 BKN100 16/06 Q1027 NOSIG RMK BIRD HAZARD RWY 28 PP006=
SPZO Ene2020-052130Z 11013KT 4000 TSRA FEW040CB SCT050TCU BKN100 11/08 Q1028 NOSIG RMK BIRD HAZARD RWY 28=
SPZO Ene2020-052200Z 17005KT 4000 TSRA FEW030CB SCT040TCU BKN100 10/08 Q1029 NOSIG RMK TX18.0 BIRD HAZARD RWY 28 PP046=
SPZO Ene2020-052230Z 11008KT 5000 -RA SCT040TCU BKN100 10/08 Q1029 NOSIG RMK BIRD HAZARD RWY 28=
SPZO Ene2020-052300Z VRB01KT 8000 RA SCT040TCU BKN100 10/08 Q1029 NOSIG RMK BIRD HAZARD RWY 28 PP000=
SPZO Ene2020-052330Z 32002KT 8000 DZ FEW020 SCT036 BKN080 10/08 Q1030 NOSIG RMK BIRD HAZARD RWY 28=
SPZO Ene2020-060000Z 09005KT 8000 DZ FEW020 SCT040 BKN080 10/07 Q1030 NOSIG RMK BIRD HAZARD RWY 28 PP028=
SPZO Ene2020-060030Z 09004KT 8000 DZ FEW020 SCT040 BKN080 10/07 Q1030 NOSIG RMK BIRD HAZARD RWY 28=
SPZO Ene2020-060100Z 16002KT 9999 FEW020 SCT040 BKN080 10/07 Q1031 REDZ NOSIG RMK BIRD HAZARD RWY 28 PP014=
SPZO Ene2020-060130Z 11008KT 9999 FEW020 SCT040 BKN100 09/08 Q1031 NOSIG RMK BIRD HAZARD RWY 28=
SPZO Ene2020-060200Z 11006KT 9999 FEW020 SCT040 BKN100 09/07 Q1031 NOSIG RMK BIRD HAZARD RWY 28 PP000=
SPZO Ene2020-060230Z 11003KT 9999 FEW020 SCT060 BKN100 09/07 Q1031 NOSIG RMK BIRD HAZARD RWY 28=
SPZO Ene2020-060300Z 11002KT 9999 FEW020 SCT040 BKN100 09/07 Q1031 NOSIG RMK BIRD HAZARD RWY 28 PP000=
SPZO Ene2020-060400Z 00000KT 9999 FEW020 SCT040 OVC100 09/06 Q1031 RMK BIRD HAZARD RWY 28 PP000=
SPZO Ene2020-060500Z 30002KT 9999 FEW020 SCT040 OVC100 10/07 Q1030 RMK BIRD HAZARD RWY 28 PP000=
SPZO Ene2020-060600Z 08002KT 9999 FEW020 SCT040 BKN100 09/07 Q1029 RMK BIRD HAZARD RWY 28 PP000=
SPZO Ene2020-060700Z 11003KT 9999 FEW020 SCT040 BKN100 09/07 Q1029 RMK BIRD HAZARD RWY 28 PP000=
SPZO Ene2020-060800Z 10001KT 9999 FEW020 SCT060 BKN100 08/06 Q1029 RMK BIRD HAZARD RWY 28 PP000=
SPZO Ene2020-060900Z 09002KT 7000 FEW020 SCT026 BKN080 08/06 Q1029 RMK CLNG BLW 1200M BIRD HAZARD RWY 28 PP000=
SPZO Ene2020-061000Z 00000KT 8000 FEW020 SCT026 BKN080 08/06 Q1029 NOSIG RMK CLNG BLW 1200M BIRD HAZARD RWY 28 PP000=
SPZO Ene2020-061030Z 11003KT 6000 FEW010 SCT026 BKN080 08/06 Q1030 BECMG SCT040 RMK CLNG BLW 1200M BIRD HAZARD RWY 28=
SPZO Ene2020-061100Z 09004KT 6000 FEW010 SCT026 BKN080 08/06 Q1030 NOSIG RMK CLNG BLW 1200M BIRD HAZARD RWY 28 PP000=
SPZO Ene2020-061130Z 11003KT 6000 FEW010 SCT026 BKN080 09/07 Q1030 NOSIG RMK CLNG BLW 1200M BIRD HAZARD RWY 28=
SPZO Ene2020-061200Z VRB01KT 5000 FEW010 SCT026 BKN080 11/07 Q1031 NOSIG RMK CLNG BLW 1200M BIRD HAZARD RWY 28 PP000=
SPZO Ene2020-061230Z 22002KT 7000 FEW010 SCT026 12/07 Q1031 NOSIG RMK BIRD HAZARD RWY 28=
SPZO Ene2020-061300Z VRB01KT 8000 FEW030 SCT040 13/06 Q1031 NOSIG RMK BIRD HAZARD RWY 28 PP000=
SPZO Ene2020-061330Z VRB02KT 9999 FEW030 SCT040 14/06 Q1031 NOSIG RMK BIRD HAZARD RWY 28=
SPZO Ene2020-061400Z VRB02KT 9999 SCT040 14/07 Q1031 NOSIG RMK BIRD HAZARD RWY 28 PP000=
SPZO Ene2020-061430Z VRB04KT 9999 SCT043 15/06 Q1030 NOSIG RMK BIRD HAZARD RWY 28=
SPZO Ene2020-061500Z VRB03KT 9999 SCT046 16/07 Q1030 NOSIG RMK BIRD HAZARD RWY 28 PP000=
SPZO Ene2020-061530Z VRB01KT 9999 SCT050 17/05 Q1029 NOSIG RMK BIRD HAZARD RWY 28=
SPZO Ene2020-061600Z VRB02KT 9999 SCT050 BKN080 17/05 Q1029 NOSIG RMK BIRD HAZARD RWY 28 PP000=
SPZO Ene2020-061630Z VRB02KT 9999 SCT060 BKN080 17/05 Q1028 NOSIG RMK BIRD HAZARD RWY 28=
SPZO Ene2020-061700Z 36004KT 9999 SCT060 BKN080 17/04 Q1028 NOSIG RMK BIRD HAZARD RWY 28 PP000=
SPZO Ene2020-061730Z 11006KT 9999 SCT060 BKN100 19/07 Q1027 NOSIG RMK BIRD HAZARD RWY 28=
SPZO Ene2020-061800Z VRB03KT 9999 SCT060 BKN080 19/05 Q1027 NOSIG RMK BIRD HAZARD RWY 28 PP000=
SPZO Ene2020-061830Z VRB04KT 9999 SCT060 BKN100 20/05 Q1026 NOSIG RMK BIRD HAZARD RWY 28=
SPZO Ene2020-061900Z VRB04KT 9999 SCT060 BKN100 20/05 Q1026 NOSIG RMK BIRD HAZARD RWY 28 PP000=
SPZO Ene2020-061930Z VRB05KT 9999 SCT060 BKN100 21/04 Q1025 NOSIG RMK BIRD HAZARD RWY 28=
SPZO Ene2020-062000Z 28003KT 9999 SCT060 BKN100 21/07 Q1024 NOSIG RMK BIRD HAZARD RWY 28 PP000=
SPZO Ene2020-062030Z 30009KT 9999 SCT060 BKN100 21/05 Q1024 NOSIG RMK BIRD HAZARD RWY 28=
SPZO Ene2020-062100Z 34009KT 9999 SCT060 BKN100 20/04 Q1024 NOSIG RMK BIRD HAZARD RWY 28 PP000=
SPZO Ene2020-062130Z 30008KT 9999 SCT060 BKN100 20/04 Q1024 NOSIG RMK BIRD HAZARD RWY 28=
SPZO Ene2020-062200Z 30008KT 9999 SCT060 21/03 Q1024 NOSIG RMK BIRD HAZARD RWY 28 PP000=
SPZO Ene2020-062230Z 30010KT 9999 SCT060 20/03 Q1024 NOSIG RMK BIRD HAZARD RWY 28=
SPZO Ene2020-062300Z 30011KT 9999 SCT060 19/04 Q1024 NOSIG RMK BIRD HAZARD RWY 28 PP000=
SPZO Ene2020-062330Z 29008KT 9999 FEW046TCU SCT060 17/05 Q1025 NOSIG RMK BIRD HAZARD RWY 28=
SPZO Ene2020-070000Z VRB05KT 9999 FEW046TCU BKN080 17/04 Q1026 NOSIG RMK BIRD HAZARD RWY 28 PP000=
SPZO Ene2020-070007Z 19011G24KT 9999 FEW046TCU BKN080 17/03 Q1027 WS NOSIG RMK BIRD HAZARD RWY 28=
SPZO Ene2020-070030Z 18010G10KT 9999 FEW046TCU BKN080 16/03 Q1027 WS R28 NOSIG RMK BIRD HAZARD RWY 28=
SPZO Ene2020-070100Z 06005KT 9999 SCT046 SCT080 15/04 Q1029 WS R28 NOSIG RMK BIRD HAZARD RWY 28 PP000=
SPZO Ene2020-070130Z 22002KT 9999 SCT050 14/05 Q1029 NOSIG RMK BIRD HAZARD RWY 28=
SPZO Ene2020-070200Z 27003KT 9999 SCT050 12/05 Q1029 NOSIG RMK BIRD HAZARD RWY 28 PP000=
SPZO Ene2020-070230Z 35004KT 9999 SCT050 11/05 Q1020 NOSIG RMK BIRD HAZARD RWY 28=
SPZO Ene2020-070300Z 26005KT 9999 SCT050 11/05 Q1030 NOSIG RMK BIRD HAZARD RWY 28 PP000=
SPZO Ene2020-070400Z 25001KT 9999 SCT050 09/05 Q1030 RMK BIRD HAZARD RWY 28 PP000=
SPZO Ene2020-070500Z 10002KT 9999 FEW050 09/05 Q1029 RMK BIRD HAZARD RWY 28 PP000=
SPZO Ene2020-070600Z 29003KT 9999 FEW050 08/05 Q1029 RMK BIRD HAZARD RWY 28 PP000=
SPZO Ene2020-070700Z 11003KT 9999 FEW050 07/05 Q1029 RMK BIRD HAZARD RWY 28 PP000=
SPZO Ene2020-070800Z 30004KT 9999 FEW050 06/04 Q1029 RMK BIRD HAZARD RWY 28 PP000=
SPZO Ene2020-070900Z 31004KT 9999 FEW020 06/03 Q1029 RMK BIRD HAZARD RWY 28 PP000=
SPZO Ene2020-071000Z 12002KT 9999 FEW020 07/04 Q1030 RMK BIRD HAZARD RWY 28 PP000=
SPZO Ene2020-071030Z 00000KT 9999 FEW020 06/04 Q1031 NOSIG RMK BIRD HAZARD RWY 28=
SPZO Ene2020-071100Z 29002KT 9999 FEW025 05/03 Q1031 NOSIG RMK BR BIRD HAZARD RWY 28 PP000=
SPZO Ene2020-071130Z 28002KT 9999 FEW040 SCT100 08/05 Q1032 NOSIG RMK BR QUAD NE BIRD HAZARD RWY 28=
SPZO Ene2020-071200Z 10002KT 9999 FEW040 SCT080 11/04 Q1032 NOSIG RMK TN05.4 BIRD HAZARD RWY 28 PP000=
SPZO Ene2020-071230Z 10002KT 9999 FEW040 SCT080 12/05 Q1032 NOSIG RMK BIRD HAZARD RWY 28=
SPZO Ene2020-071300Z 11004KT 090V170 9999 FEW043 SCT080 12/06 Q1032 NOSIG RMK BIRD HAZARD RWY 28 PP000=
SPZO Ene2020-071330Z 10002KT 9999 FEW043 SCT080 14/07 Q1032 NOSIG RMK BIRD HAZARD RWY 28=
SPZO Ene2020-071400Z 12003KT 9999 FEW043 SCT080 15/05 Q1031 NOSIG RMK BIRD HAZARD RWY 28 PP000=
SPZO Ene2020-071430Z 17002KT 9999 FEW043 SCT080 17/05 Q1031 NOSIG RMK BIRD HAZARD RWY 28=
SPZO Ene2020-071500Z 09002KT 9999 FEW043 SCT100 17/06 Q1031 NOSIG RMK BIRD HAZARD RWY 28 PP000=
SPZO Ene2020-071530Z 28002KT 9999 FEW043 SCT080 18/03 Q1030 NOSIG RMK BIRD HAZARD RWY 28=
SPZO Ene2020-071600Z 21003KT 9999 FEW043 SCT080 19/05 Q1029 NOSIG RMK BIRD HAZARD RWY 28 PP000=
SPZO Ene2020-071630Z 17002KT 9999 FEW043 SCT080 20/05 Q1029 NOSIG RMK BIRD HAZARD RWY 28=
SPZO Ene2020-071700Z 18003KT 9999 FEW043 SCT080 20/05 Q1028 NOSIG RMK BIRD HAZARD RWY 28 PP000=
SPZO Ene2020-071730Z 23004KT 9999 FEW046 SCT080 20/04 Q1028 NOSIG RMK BIRD HAZARD RWY 28=
SPZO Ene2020-071800Z 25005KT 180V270 9999 FEW046 SCT080 20/04 Q1028 NOSIG RMK BIRD HAZARD RWY 28 PP000=
SPZO Ene2020-071830Z 23004KT 120V250 9999 FEW046 SCT080 21/05 Q1027 NOSIG RMK BIRD HAZARD RWY 28=
SPZO Ene2020-071900Z 18009KT 130V210 9999 FEW046 SCT080 20/04 Q1027 NOSIG RMK BIRD HAZARD RWY 28 PP000=
SPZO Ene2020-071930Z 36004KT 270V010 9999 FEW050 SCT100 21/04 Q1026 NOSIG RMK BIRD HAZARD RWY 28=
SPZO Ene2020-072000Z 29018KT 9999 SCT050 SCT100 20/02 Q1026 NOSIG RMK BIRD HAZARD RWY 28 PP000=
SPZO Ene2020-072030Z 30017KT 9999 SCT050 SCT100 22/02 Q1026 NOSIG RMK BIRD HAZARD RWY 28=
SPZO Ene2020-072100Z 30016KT 270V010 9999 SCT050 SCT100 21/01 Q1025 NOSIG RMK BIRD HAZARD RWY 28 PP000=
SPZO Ene2020-072130Z 30014KT 270V010 9999 FEW050 SCT100 20/M01 Q1025 NOSIG RMK BIRD HAZARD RWY 28=
SPZO Ene2020-072200Z 32012KT 260V360 9999 FEW050 SCT100 20/01 Q1025 NOSIG RMK TX22.0 BIRD HAZARD RWY 28 PP000=
SPZO Ene2020-072230Z 29013KT 280V020 9999 FEW050 SCT100 19/03 Q1026 NOSIG RMK BIRD HAZARD RWY 28=
SPZO Ene2020-072300Z 35010KT 9999 FEW050 SCT100 18/02 Q1026 NOSIG RMK BIRD HAZARD RWY 28 PP000=
SPZO Ene2020-072330Z 30006KT 280V010 9999 SCT050 17/02 Q1027 NOSIG RMK BIRD HAZARD RWY 28=
SPZO Ene2020-080000Z 27005KT 9999 SCT050 16/04 Q1027 NOSIG RMK BIRD HAZARD RWY 28 PP000=
SPZO Ene2020-080030Z 25002KT 9999 SCT050 16/04 Q1027 NOSIG RMK BIRD HAZARD RWY 28=
SPZO Ene2020-080100Z 28006KT 9999 FEW050 12/06 Q1027 NOSIG RMK BIRD HAZARD RWY 28 PP000=
SPZO Ene2020-080130Z 28005KT 9999 FEW050 12/04 Q1028 NOSIG RMK BIRD HAZARD RWY 28=
SPZO Ene2020-080200Z 31002KT 9999 FEW050 11/05 Q1029 NOSIG RMK BIRD HAZARD RWY 28 PP000=
SPZO Ene2020-080230Z 30002KT 9999 SCT050 11/05 Q1029 NOSIG RMK BIRD HAZARD RWY 28=
SPZO Ene2020-080300Z 09004KT 9999 SCT050 10/05 Q1030 NOSIG RMK BIRD HAZARD RWY 28 PP000=
SPZO Ene2020-080400Z 29004KT 9999 SCT050 09/05 Q1030 NOSIG RMK BIRD HAZARD RWY 28 PP000=
SPZO Ene2020-080500Z 20003KT 9999 SCT050 11/06 Q1030 RMK BIRD HAZARD RWY 28 PP000=
SPZO Ene2020-080600Z VRB01KT 9999 SCT043 BKN080 10/06 Q1030 RMK BIRD HAZARD RWY 28 PP000=
SPZO Ene2020-080700Z 08002KT 9999 SCT043 SCT080 09/05 Q1030 RMK BIRD HAZARD RWY 28 PP000=
SPZO Ene2020-080800Z 09002KT 9999 SCT040 BKN080 10/07 Q1030 RMK BIRD HAZARD RWY 28 PP000=
SPZO Ene2020-080900Z 09001KT 9999 SCT040 BKN080 10/06 Q1030 RMK BIRD HAZARD RWY 28 PP000=
SPZO Ene2020-081000Z 30001KT 9999 SCT040 08/06 Q1031 NOSIG RMK BIRD HAZARD RWY 28 PP000=
SPZO Ene2020-081030Z VRB02KT 9999 SCT040 08/06 Q1031 NOSIG RMK BIRD HAZARD RWY 28=
SPZO Ene2020-081100Z 09002KT 9999 SCT040 08/06 Q1032 NOSIG RMK BR BIRD HAZARD RWY 28 PP000=
SPZO Ene2020-081130Z 26002KT 9999 SCT040 BKN080 10/04 Q1032 NOSIG RMK BIRD HAZARD RWY 28=
SPZO Ene2020-081200Z 36001KT 9999 SCT040 BKN080 11/07 Q1032 NOSIG RMK TN07.9 BIRD HAZARD RWY 28 PP000=
SPZO Ene2020-081230Z 00000KT 9999 SCT040 BKN080 12/07 Q1032 NOSIG RMK HZ QUAD NE BIRD HAZARD RWY 28=
SPZO Ene2020-081300Z 28002KT 9999 SCT040 BKN080 14/07 Q1032 NOSIG RMK BIRD HAZARD RWY 28 PP000=
SPZO Ene2020-081330Z 27002KT 9999 SCT043 BKN080 15/07 Q1032 NOSIG RMK BIRD HAZARD RWY 28=
SPZO Ene2020-081400Z 27002KT 9999 SCT043 BKN080 16/06 Q1032 NOSIG RMK BIRD HAZARD RWY 28 PP000=
SPZO Ene2020-081430Z 09004KT 030V130 9999 SCT043 SCT080 18/08 Q1032 NOSIG RMK BIRD HAZARD RWY 28=
SPZO Ene2020-081500Z 31004KT 240V330 9999 FEW043 SCT080 17/06 Q1032 NOSIG RMK BIRD HAZARD RWY 28 PP000=
SPZO Ene2020-081530Z 31003KT 180V270 9999 FEW043 SCT080 19/05 Q1031 NOSIG RMK BIRD HAZARD RWY 28=
SPZO Ene2020-081600Z 14003KT 9999 SCT046 SCT080 20/06 Q1030 NOSIG RMK BIRD HAZARD RWY 28 PP000=
SPZO Ene2020-081630Z 31003KT 9999 SCT046 SCT080 20/05 Q1030 NOSIG RMK BIRD HAZARD RWY 28=
SPZO Ene2020-081700Z 26003KT 9999 SCT046 SCT080 20/05 Q1029 NOSIG RMK BIRD HAZARD RWY 28 PP000=
SPZO Ene2020-081730Z 26005KT 9999 SCT050 21/05 Q1029 NOSIG RMK BIRD HAZARD RWY 28=
SPZO Ene2020-081800Z 26007KT 9999 SCT050 21/04 Q1028 NOSIG RMK BIRD HAZARD RWY 28 PP000=
SPZO Ene2020-081830Z VRB04KT 9999 SCT050 22/02 Q1028 NOSIG RMK BIRD HAZARD RWY 28=
SPZO Ene2020-081900Z 29008KT 9999 SCT050 22/03 Q1027 NOSIG RMK BIRD HAZARD RWY 28 PP000=
SPZO Ene2020-081930Z 25006KT 9999 SCT050 22/02 Q1026 NOSIG RMK BIRD HAZARD RWY 28=
SPZO Ene2020-082000Z 31005KT 9999 SCT050 21/04 Q1026 NOSIG RMK BIRD HAZARD RWY 28 PP000=
SPZO Ene2020-082030Z 28006KT 9999 SCT050 SCT100 21/04 Q1025 NOSIG RMK BIRD HAZARD RWY 28=
SPZO Ene2020-082100Z 29009KT 9999 FEW050 SCT100 22/05 Q1025 NOSIG RMK BIRD HAZARD RWY 28 PP000=
SPZO Ene2020-082130Z 31009KT 9999 FEW050 22/02 Q1025 NOSIG RMK BIRD HAZARD RWY 28=
SPZO Ene2020-082200Z 30011KT 9999 FEW050 21/02 Q1025 NOSIG RMK TX22.5 BIRD HAZARD RWY 28 PP000=
SPZO Ene2020-082230Z 29011KT 9999 FEW050 20/02 Q1025 NOSIG RMK BIRD HAZARD RWY 28=
SPZO Ene2020-082300Z 31009KT 9999 FEW050 19/02 Q1026 NOSIG RMK BIRD HAZARD RWY 28 PP000=
SPZO Ene2020-082330Z 37007KT 9999 NSC 18/06 Q1026 NOSIG RMK BIRD HAZARD RWY 28=
SPZO Ene2020-090000Z 36007KT 9999 NSC 17/07 Q1027 NOSIG RMK BIRD HAZARD RWY 28 PP000=
SPZO Ene2020-090030Z 09004KT 9999 NSC 15/07 Q1027 NOSIG RMK BIRD HAZARD RWY 28=
SPZO Ene2020-090100Z 11005KT 9999 NSC 14/07 Q1028 NOSIG RMK BIRD HAZARD RWY 28 PP000=
SPZO Ene2020-090130Z VRB03KT 9999 NSC 15/07 Q1029 NOSIG RMK BIRD HAZARD RWY 28=
SPZO Ene2020-090200Z VRB02KT 9999 NSC 14/07 Q1029 NOSIG RMK BIRD HAZARD RWY 28 PP000=
SPZO Ene2020-090300Z 11002KT 9999 NSC 13/07 Q1031 NOSIG RMK BIRD HAZARD RWY 28 PP000=
SPZO Ene2020-090400Z 26005KT 9999 SCT080 13/07 Q1031 RMK BIRD HAZARD RWY 28 PP000=
SPZO Ene2020-090500Z 27004KT 9999 SCT080 12/07 Q1031 RMK BIRD HAZARD RWY 28 PP000=
SPZO Ene2020-090600Z 27003KT 9999 SCT050 BKN100 12/06 Q1030 RMK BIRD HAZARD RWY 28 PP000=
SPZO Ene2020-090700Z 27004KT 9999 SCT050 BKN100 12/05 Q1030 RMK BIRD HAZARD RWY 28 PP000=
SPZO Ene2020-090800Z 27003KT 9999 SCT050 BKN100 10/06 Q1029 RMK BIRD HAZARD RWY 28 PP000=
SPZO Ene2020-090900Z 11002KT 9999 SCT050 BKN100 10/06 Q1030 RMK BIRD HAZARD RWY 28 PP000=
SPZO Ene2020-091000Z 29003KT 9999 SCT050 BKN100 10/07 Q1030 NOSIG RMK BIRD HAZARD RWY 28 PP000=
SPZO Ene2020-091030Z 30003KT 9999 SCT040 BKM100 11/07 Q1031 NOSIG RMK BIRD HAZARD RWY 28=
SPZO Ene2020-091100Z 00000KT 9999 SCT040 BKN100 12/06 Q1031 NOSIG RMK BIRD HAZARD RWY 28 PP000=
SPZO Ene2020-091130Z 28001KT 9999 FEW020 SCT038 BKN100 12/07 Q1032 NOSIG RMK BIRD HAZARD RWY 28=
SPZO Ene2020-091200Z 28007KT 9999 FEW020 SCT038 BKN100 12/07 Q1032 NOSIG RMK TN8.9 BIRD HAZARD RWY 28 PP000=
SPZO Ene2020-091230Z 29007KT 9999 FEW020 SCT038 BKN100 12/06 Q1032 NOSIG RMK BIRD HAZARD RWY 28=
SPZO Ene2020-091300Z 28006KT 9999 FEW020 SCT038 BKN100 13/06 Q1033 NOSIG RMK BIRD HAZARD RWY 28 PP000=
SPZO Ene2020-091330Z 21004KT 9999 SCT038 BKN100 15/07 Q1033 NOSIG RMK BIRD HAZARD RWY 28=
SPZO Ene2020-091400Z VRB01KT 9999 SCT038 BKN100 16/05 Q1033 NOSIG RMK BIRD HAZARD RWY 28 PP000=
SPZO Ene2020-091430Z 29005KT 9999 SCT040 SCT100 16/05 Q1032 NOSIG RMK BIRD HAZARD RWY 28=
SPZO Ene2020-091500Z 11004KT 9999 SCT040 17/06 Q1032 NOSIG RMK BIRD HAZARD RWY 28 PP000=
SPZO Ene2020-091530Z 13004KT 9999 SCT046 18/06 Q1031 NOSIG RMK BIRD HAZARD RWY 28=
SPZO Ene2020-091600Z 02002KT 9999 SCT050 19/06 Q1031 NOSIG RMK BIRD HAZARD RWY 28 PP000=
SPZO Ene2020-091630Z VRB01KT 9999 SCT050 SCT100 20/06 Q1030 NOSIG RMK BIRD HAZARD RWY 28=
SPZO Ene2020-091700Z VRB01KT 9999 FEW030TCU SCT050 20/07 Q1030 NOSIG RMK BIRD HAZARD RWY 28 PP000=
SPZO Ene2020-091730Z 29019G29KT 9999 FEW030TCU SCT050 17/06 Q1030 NOSIG RMK BIRD HAZARD RWY 28=
SPZO Ene2020-091800Z 27015KT 9999 FEW030TCU SCT050 BKN100 17/08 Q1029 NOSIG RMK BIRD HAZARD RWY 28 PP000=
SPZO Ene2020-091830Z 36006KT 9999 -TSRA FEW040CB SCT050 BKN100 15/08 Q1029 TEMPO TSRA TL 2000 RMK BIRD HAZARD RWY 28=
SPZO Ene2020-091900Z 16010KT 6000 RA SCT050 BKN100 13/07 Q1030 NOSIG RMK BIRD HAZARD RWY 28 PP012=
SPZO Ene2020-091930Z 32006KT 7000 RA SCT046 BKN100 11/05 Q1031 NOSIG RMK TS QUAD SE BIRD HAZARD RWY 28=
SPZO Ene2020-092000Z 27007KT 9999 DZ SCT050 BKN100 12/07 Q1030 NOSIG RMK VIS 6000 W BIRD HAZARD RWY 28 PP044=
SPZO Ene2020-092030Z 29009KT 9999 VCSH SCT050 BKN100 12/07 Q1030 NOSIG RMK BIRD HAZARD RWY 28=
SPZO Ene2020-092100Z 30003KT 9999 SCT050 BKN100 14/07 Q1030 NOSIG RMK BIRD HAZARD RWY 28 PP000=
SPZO Ene2020-092130Z 34009KT 9999 SCT050 BKN100 14/05 Q1029 NOSIG RMK BIRD HAZARD RWY 28=
SPZO Ene2020-092200Z 33004KT 9999 SCT050 SCT100 15/05 Q1029 NOSIG RMK TX20.6 BIRD HAZARD RWY 28 PP000=
SPZO Ene2020-092230Z 26004KT 9999 FEW050 SCT100 14/05 Q1029 NOSIG RMK BIRD HAZARD RWY 28=
SPZO Ene2020-092300Z 27004KT 9999 FEW100 14/06 Q1029 NOSIG RMK BIRD HAZARD RWY 28 PP000=
SPZO Ene2020-092330Z 25004KT 9999 SCT050 SCT100 13/06 Q1030 NOSIG RMK BIRD HAZARD RWY 28=
SPZO Ene2020-100000Z 29003KT 9999 SCT050 SCT100 12/06 Q1030 NOSIG RMK BIRD HAZARD RWY 28 PP000=
SPZO Ene2020-100030Z 08004KT 030V120 9999 SCT050 SCT100 12/06 Q1030 NOSIG RMK BIRD HAZARD RWY 28=
SPZO Ene2020-100100Z 08002KT 9999 SCT050 SCT100 12/06 Q1031 NOSIG RMK BIRD HAZARD RWY 28 PP000=
SPZO Ene2020-100130Z 08004KT 9999 SCT050 SCT100 11/06 Q1031 NOSIG RMK BIRD HAZARD RWY 28=
SPZO Ene2020-100200Z 31002KT 9999 FEW050 SCT100 10/06 Q1031 NOSIG RMK BIRD HAZARD RWY 28 PP000=
SPZO Ene2020-100230Z 29003KT 9999 FEW050 SCT100 10/06 Q1032 NOSIG RMK BIRD HAZARD RWY 28=
SPZO Ene2020-100300Z 28005KT 9999 FEW050 SCT100 09/06 Q1032 RMK PP000=
SPZO Ene2020-100400Z 26003KT 180V280 9999 SCT050 SCT100 09/06 Q1032 RMK PP000=
SPZO Ene2020-100500Z 29002KT 9999 SCT050 SCT100 09/06 Q1032 RMK PP000=
SPZO Ene2020-100600Z 11004KT 9999 SCT046 SCT100 09/06 Q1031 RMK P000=
SPZO Ene2020-100700Z 08003KT 9999 FEW046 SCT100 08/05 Q1031 RMK PP000=
SPZO Ene2020-100800Z 10003KT 9999 FEW046 SCT100 07/04 Q1030 RMK PP000=
SPZO Ene2020-100900Z 08004KT 9999 FEW046 SCT100 06/04 Q1031 RMK BIRD HAZARD RWY 28 PP000=
SPZO Ene2020-101000Z 36001KT 9999 FEW046 SCT100 06/04 Q1031 NOSIG RMK BIRD HAZARD RWY 28 PP000=
SPZO Ene2020-101030Z 30001KT 9999 FEW046 05/03 Q1032 NOSIG RMK BIRD HAZARD RWY 28=
SPZO Ene2020-101100Z 12002KT 9999 FEW040 06/04 Q1032 NOSIG RMK BR QUAD NE BIRD HAZARD RWY 28 PP000=
SPZO Ene2020-101130Z 08001KT 9999 FEW040 09/05 Q1033 NOSIG RMK HZ QUAD NE BIRD HAZARD RWY 28=
SPZO Ene2020-101200Z 07001KT 9999 FEW040 10/05 Q1033 NOSIG RMK TN05.0 HZ QUAD NE BIRD HAZARD RWY 28 PP000=
SPZO Ene2020-101230Z 09001KT 9999 FEW040 12/06 Q1033 NOSIG RMK BIRD HAZARD RWY 28=
SPZO Ene2020-101300Z 10002KT 9999 FEW040 13/06 Q1033 NOSIG RMK BIRD HAZARD RWY 28 PP000=
SPZO Ene2020-101330Z 16002KT 9999 FEW040 14/05 Q1033 NOSIG RMK BIRD HAZARD RWY 28=
SPZO Ene2020-101400Z 06003KT 9999 SCT043 15/07 Q1033 NOSIG RMK BIRD HAZARD RWY 28 PP000=
SPZO Ene2020-101430Z 01002KT 9999 SCT043 16/06 Q1033 NOSIG RMK BIRD HAZARD RWY 28=
SPZO Ene2020-101500Z 04002KT 9999 SCT043 16/06 Q1033 NOSIG RMK BIRD HAZARD RWY 28 PP000=
SPZO Ene2020-101530Z 11002KT 9999 FEW043 SCT080 18/04 Q1032 NOSIG RMK BIRD HAZARD RWY 28=
SPZO Ene2020-101600Z 28003KT 9999 FEW046 SCT080 19/06 Q1032 NOSIG RMK BIRD HAZARD RWY 28 PP000=
SPZO Ene2020-101630Z 27002KT 9999 SCT046 SCT080 18/04 Q1031 NOSIG RMK BIRD HAZARD RWY 28=
SPZO Ene2020-101700Z 35005KT 270V030 9000 -DZ SCT046 BKN080 17/04 Q1031 NOSIG RMK BIRD HAZARD RWY 28 PPTRZ=
SPZO Ene2020-101730Z 35001KT 9999 SCT050 SCT100 19/03 Q1030 NOSIG RMK BIRD HAZARD RWY 28=
SPZO Ene2020-101800Z 09004KT 9999 SCT050 BKN100 18/05 Q1030 NOSIG RMK BIRD HAZARD RWY 28 PP000=
SPZO Ene2020-101830Z 08004KT 9999 SCT050 BKN100 19/04 Q1029 NOSIG RMK BIRD HAZARD RWY 28=
SPZO Ene2020-101900Z 04005KT 9999 VCSH FEW040TCU SCT050 BKN100 19/02 Q1029 NOSIG RMK BIRD HAZARD RWY 28 PP000=
SPZO Ene2020-101930Z 01007KT 9999 VCSH FEW040 SCT050 BKN100 18/03 Q1029 NOSIG RMK BIRD HAZARD RWY 28=
SPZO Ene2020-102000Z VRB01KT 9999 FEW050 SCT110 19/03 Q1028 NOSIG RMK BIRD HAZARD RWY 28 PP000=
SPZO Ene2020-102030Z VRB04KT 9999 VCSH SCT050 BKN100 20/02 Q1027 NOSIG RMK BIRD HAZARD RWY 28=
SPZO Ene2020-102100Z 36004KT 9999 SCT050 BKN100 19/02 Q1027 NOSIG RMK BIRD HAZARD RWY 28 PP000=
SPZO Ene2020-102130Z 02005KT 9999 FEW050 SCT100 18/04 Q1027 NOSIG RMK BIRD HAZARD RWY 28=
SPZO Ene2020-102200Z 30005KT 9999 FEW050 SCT100 19/06 Q1027 NOSIG RMK TX20.0 BIRD HAZARD RWY 28 PP000=
SPZO Ene2020-102230Z 30011KT 9999 FEW050 SCT100 17/01 Q1027 NOSIG RMK BIRD HAZARD RWY 28=
SPZO Ene2020-102300Z 27007KT 9999 FEW050 SCT100 16/02 Q1027 NOSIG RMK BIRD HAZARD RWY 28 PP000=
SPZO Ene2020-102330Z 27003KT 9999 FEW050 15/02 Q1028 NOSIG RMK BIRD HAZARD RWY 28=
SPZO Ene2020-110000Z 28004KT 9999 FEW050 14/05 Q1028 NOSIG RMK BIRD HAZARD RWY 28 PP000=
SPZO Ene2020-110030Z 29004KT 270V010 9999 FEW050 12/05 Q1029 NOSIG RMK BIRD HAZARD RWY 28=
SPZO Ene2020-110100Z 28005KT 9999 FEW050 12/05 Q1030 NOSIG RMK BIRD HAZARD RWY 28 PP000=
SPZO Ene2020-110130Z VRB03KT 9999 NSC 12/05 Q1030 NOSIG RMK BIRD HAZARD RWY 28=
SPZO Ene2020-110200Z VRB01KT 9999 NSC 11/05 Q1031 NOSIG RMK BIRD HAZARD RWY 28 PP000=
SPZO Ene2020-110230Z VRB01KT 9999 NSC 11/05 Q1032 NOSIG RMK BIRD HAZARD RWY 28=
SPZO Ene2020-110300Z 09002KT 9999 NSC 10/06 Q1032 NOSIG RMK BIRD HAZARD RWY 28 PP000=
SPZO Ene2020-110400Z VRB01KT 9999 NSC 10/06 Q1032 RMK BIRD HAZARD RWY 28 PP000=
SPZO Ene2020-110500Z VRB02KT 9999 NSC 08/05 Q1031 RMK BIRD HAZARD RWY 28 PP000=
SPZO Ene2020-110600Z 11003KT 9999 NSC 08/05 Q1031 RMK BIRD HAZARD RWY 28 PP000=
SPZO Ene2020-110700Z VRB02KT 9999 FEW050 07/04 Q1030 RMK BIRD HAZARD RWY 28 PP000=
SPZO Ene2020-110800Z VRB03KT 9999 FEW050 08/05 Q1030 RMK BIRD HAZARD RWY 28 PP000=
SPZO Ene2020-110900Z VRB01KT 9999 SCT050 09/06 Q1031 RMK BIRD HAZARD RWY 28 PP000=
SPZO Ene2020-111000Z VRB02KT 9999 SCT046 BKN080 08/05 Q1031 NOSIG RMK BIRD HAZARD RWY 28 PP000=
SPZO Ene2020-111030Z VRB01KT 9999 SCT046 BKN080 09/05 Q1031 NOSIG RMK BIRD HAZARD RWY 28=
SPZO Ene2020-111100Z 11001KT 9999 FEW046 BKN080 09/05 Q1032 NOSIG RMK BIRD HAZARD RWY 28 PP000=
SPZO Ene2020-111130Z 08003KT 9999 FEW046 BKN080 08/05 Q1032 NOSIG RMK BIRD HAZARD RWY 28=
SPZO Ene2020-111200Z 00000KT 9999 FEW046 BKN080 08/06 Q1033 NOSIG RMK TN6.7 BIRD HAZARD RWY 28 PP000=
SPZO Ene2020-111230Z 09003KT 9999 FEW046 BKN080 09/06 Q1033 NOSIG RMK BIRD HAZARD RWY 28=
SPZO Ene2020-111300Z 00000KT 9999 FEW046 BKN100 10/06 Q1033 NOSIG RMK BIRD HAZARD RWY 28 PP000=
SPZO Ene2020-111330Z 27003KT 9999 FEW046 BKN100 10/06 Q1034 NOSIG RMK BIRD HAZARD RWY 28=
SPZO Ene2020-111400Z 00000KT 9999 FEW040 BKN100 11/06 Q1034 NOSIG RMK BIRD HAZARD RWY 28 PP000=
SPZO Ene2020-111430Z 11002KT 9999 -DZ FEW040 BKN100 11/06 Q1034 NOSIG RMK BIRD HAZARD RWY 28=
SPZO Ene2020-111500Z 11003KT 9999 VCSH FEW040 OVC100 11/04 Q1034 NOSIG RMK BIRD HAZARD RWY 28 PPTRZ=
SPZO Ene2020-111530Z 18002KT 9999 FEW040 OVC100 12/06 Q1035 NOSIG RMK VIS 8000E BIRD HAZARD RWY 28=
SPZO Ene2020-111600Z 05005KT 9999 VCSH FEW036 OVC100 12/06 Q1034 NOSIG RMK BIRD HAZARD RWY 28 PP000=
SPZO Ene2020-111630Z 15003KT 9999 SCT033 BKN100 14/06 Q1034 NOSIG RMK BIRD HAZARD RWY 28=
SPZO Ene2020-111700Z 11005KT 9999 SCT036 BKN100 14/06 Q1033 NOSIG RMK BIRD HAZARD RWY 28 PP000=
SPZO Ene2020-111730Z 11011KT 9999 VCSH SCT040 BKN100 15/06 Q1033 NOSIG RMK BIRD HAZARD RWY 28=
SPZO Ene2020-111800Z 11010KT 9999 VCSH SCT040 BKN100 15/05 Q1033 NOSIG RMK BIRD HAZARD RWY 28 PP000=
SPZO Ene2020-111830Z 11011KT 9999 VCSH SCT040 BKN100 16/04 Q1032 NOSIG RMK BIRD HAZARD RWY 28=
SPZO Ene2020-111900Z 12011KT 9999 VCSH SCT050 BKN100 17/04 Q1031 NOSIG RMK BIRD HAZARD RWY 28 PP000=
SPZO Ene2020-111930Z 12011KT 9999 VCSH SCT050 BKN100 18/05 Q1030 NOSIG RMK BIRD HAZARD RWY 28=
SPZO Ene2020-112000Z 11013KT 9999 VCSH SCT050 BKN100 17/05 Q1030 NOSIG RMK BIRD HAZARD RWY 28 PP000=
SPZO Ene2020-112030Z 12009KT 9999 VCSH SCT050 BKN100 17/04 Q1029 NOSIG RMK BIRD HAZARD RWY 28=
SPZO Ene2020-112100Z 11006KT 9999 SCT050 SCT100 17/04 Q1029 NOSIG RMK BIRD HAZARD RWY 28 PP000=
SPZO Ene2020-112130Z VRB02KT 9999 FEW050 SCT100 18/02 Q1028 NOSIG RMK BIRD HAZARD RWY 28=
SPZO Ene2020-112200Z 30004KT 9999 FEW050 SCT100 18/04 Q1028 NOSIG RMK TX19.1 BIRD HAZARD RWY 28 PP000=
SPZO Ene2020-112230Z 02006KT 9999 FEW050 SCT100 16/04 Q1028 NOSIG RMK BIRD HAZARD RWY 28=
SPZO Ene2020-112300Z 02005KT 9999 FEW050 16/03 Q1029 NOSIG RMK BIRD HAZARD RWY 28 PP000=
SPZO Ene2020-112330Z 09004KT 9999 FEW050 13/05 Q1029 NOSIG RMK BIRD HAZARD RWY 28=
SPZO Ene2020-120000Z 29004KT 9999 FEW050 12/05 Q1030 NOSIG RMK BIRD HAZARD RWY 28 PP000=
SPZO Ene2020-120030Z 28003KT 9999 FEW050 10/05 Q1031 NOSIG RMK BIRD HAZARD RWY 28=
SPZO Ene2020-120100Z VRB02KT 9999 SCT050 11/05 Q1031 NOSIG RMK BIRD HAZARD RWY 28 PP000=
SPZO Ene2020-120130Z 00000KT 9999 SCT050 10/05 Q1032 NOSIG RMK BIRD HAZARD RWY 28=
SPZO Ene2020-120200Z 13002KT 9999 SCT050 10/05 Q1032 NOSIG RMK BIRD HAZARD RWY 28 PP000=
SPZO Ene2020-120230Z 30003KT 9999 SCT050 09/05 Q1032 NOSIG RMK BIRD HAZARD RWY 28=
SPZO Ene2020-120300Z 11005KT 9999 SCT050 09/05 Q1033 NOSIG RMK BIRD HAZARD RWY 28 PP000=
SPZO Ene2020-120400Z 10001KT 9999 SCT050 09/05 Q1033 NOSIG RMK BIRD HAZARD RWY 28 PP000=
SPZO Ene2020-120500Z 11004KT 9999 SCT050 08/04 Q1033 NOSIG RMK BIRD HAZARD RWY 28 PP000=
SPZO Ene2020-120600Z 08002KT 9999 SCT050 08/04 Q1032 RMK BIRD HAZARD RWY 28 PP000=
SPZO Ene2020-120700Z 11002KT 9999 SCT050 08/05 Q1032 RMK BIRD HAZARD RWY 28 PP000=
SPZO Ene2020-120800Z 09003KT 9999 SCT050 08/05 Q1031 RMK BIRD HAZARD RWY 28 PP000=
SPZO Ene2020-120900Z 00000KT 9999 SCT050 08/05 Q1031 RMK BIRD HAZARD RWY 28 PP000=
SPZO Ene2020-121000Z 00000KT 9999 FEW040 SCT100 07/05 Q1032 NOSIG RMK BIRD HAZARD RWY 28 PP000=
SPZO Ene2020-121030Z 09003KT 9999 FEW050 BKN080 07/04 Q1033 NOSIG RMK BIRD HAZARD RWY 28=
SPZO Ene2020-121100Z 11004KT 9999 FEW050 BKN100 07/05 Q1033 NOSIG RMK BIRD HAZARD RWY 28 PP000=
SPZO Ene2020-121130Z 12002KT 9999 BKN100 08/05 Q1034 NOSIG RMK BIRD HAZARD RWY 28=
SPZO Ene2020-121200Z 12002KT 9999 FEW050 SCT100 11/06 Q1034 NOSIG RMK TN6.5 BIRD HAZARD RWY 28 PP000=
SPZO Ene2020-121230Z VRB02KT 9999 SCT050 BKN100 12/06 Q1034 NOSIG RMK BIRD HAZARD RWY 28=
SPZO Ene2020-121300Z VRB01KT 9999 SCT050 BKN100 12/05 Q1034 NOSIG RMK BIRD HAZARD RWY 28 PP000=
SPZO Ene2020-121330Z VRB02KT 9999 SCT050 BKN100 12/06 Q1034 NOSIG RMK BIRD HAZARD RWY 28=
SPZO Ene2020-121400Z 09005KT 9999 SCT050 BKN100 13/05 Q1035 NOSIG RMK BIRD HAZARD RWY 28 PP000=
SPZO Ene2020-121430Z 11001KT 9999 SCT050 BKN100 15/05 Q1034 NOSIG RMK BIRD HAZARD RWY 28=
SPZO Ene2020-121500Z 06002KT 9999 SCT050 BKN100 16/06 Q1034 NOSIG RMK BIRD HAZARD RWY 28 PP000=
SPZO Ene2020-121530Z 07001KT 9999 FEW050 SCT100 18/04 Q1033 NOSIG RMK BIRD HAZARD RWY 28=
SPZO Ene2020-121600Z VRB01KT 9999 FEW050 SCT100 19/03 Q1033 NOSIG RMK BIRD HAZARD RWY 28 PP000=
SPZO Ene2020-121630Z 29002KT 9999 FEW050 SCT100 18/03 Q1032 NOSIG RMK BIRD HAZARD RWY 28=
SPZO Ene2020-121700Z 23001KT 9999 SCT050 SCT100 19/03 Q1031 NOSIG RMK BIRD HAZARD RWY 28 PP000=
SPZO Ene2020-121730Z 15004KT 9999 SCT046 SCT100 20/03 Q1031 NOSIG RMK BIRD HAZARD RWY 28=
SPZO Ene2020-121800Z 07007KT 010V110 9999 FEW040TCU SCT080 20/04 Q1030 NOSIG RMK BIRD HAZARD RWY 28 PP000=
SPZO Ene2020-121830Z 01005KT 9999 FEW040TCU SCT046 BKN100 20/04 Q1029 NOSIG RMK BIRD HAZARD RWY 28=
SPZO Ene2020-121900Z 09005KT 020V130 9999 FEW040TCU SCT046 BKN100 20/05 Q1029 NOSIG RMK BIRD HAZARD RWY 28 PP000=
SPZO Ene2020-121930Z 11011KT 080V180 9999 FEW040TCU SCT046 BKN100 19/05 Q1028 NOSIG RMK BIRD HAZARD RWY 28=
SPZO Ene2020-122000Z 10010G20KT 040V160 9999 FEW040TCU SCT046 BKN100 20/05 Q1028 NOSIG RMK BIRD HAZARD RWY 28 PP000=
SPZO Ene2020-122030Z 08003KT 9999 FEW040TCU SCT046 BKN100 20/04 Q1028 NOSIG RMK BIRD HAZARD RWY 28=
SPZO Ene2020-122100Z 02010KT 350V070 9999 FEW040TCU SCT050 BKN100 19/03 Q1027 NOSIG RMK BIRD HAZARD RWY 28 PP000=
SPZO Ene2020-122130Z 02008KT 330V090 9999 SCT050 BKN100 20/04 Q1027 NOSIG RMK BIRD HAZARD RWY 28=
SPZO Ene2020-122200Z 06006KT 360V080 9999 FEW040TCU SCT050 BKN100 18/04 Q1028 NOSIG RMK TX21.6 BIRD HAZARD RWY 28 PP000=
SPZO Ene2020-122230Z 04008KT 300V050 9999 FEW040TCU SCT050 BKN100 18/04 Q1028 NOSIG RMK BIRD HAZARD RWY 28=
SPZO Ene2020-122300Z 13005KT 9999 FEW050 BKN100 18/05 Q1029 NOSIG RMK TCU QUAD S BIRD HAZARD RWY 28 PP000=
SPZO Ene2020-122330Z 32001KT 9999 FEW050 16/04 Q1029 NOSIG RMK BIRD HAZARD RWY 28=
SPZO Ene2020-130000Z 13005KT 9999 FEW050 15/04 Q1030 NOSIG RMK BIRD HAZARD RWY 28 PP000=
SPZO Ene2020-130030Z 09003KT 9999 SCT050 14/04 Q1031 NOSIG RMK BIRD HAZARD RWY 28=
SPZO Ene2020-130100Z 10006KT 9999 SCT050 12/05 Q1031 NOSIG RMK BIRD HAZARD RWY 28 PP000=
SPZO Ene2020-130130Z 02001KT 9999 FEW050 13/05 Q1032 NOSIG RMK BIRD HAZARD RWY 28=
SPZO Ene2020-130200Z 21001KT 9999 SCT050 13/05 Q1032 NOSIG RMK BIRD HAZARD RWY 28 PP000=
SPZO Ene2020-130230Z 10003KT 9999 FEW050 10/05 Q1033 NOSIG RMK BIRD HAZARD RWY 28=
SPZO Ene2020-130300Z 12004KT 9999 SCT050 10/05 Q1034 NOSIG RMK BIRD HAZARD RWY 28 PP000=
SPZO Ene2020-130400Z 00000KT 9999 SCT050 SCT100 09/05 Q1033 RMK BIRD HAZARD RWY 28 PP000=
SPZO Ene2020-130500Z 10004KT 9999 SCT050 08/05 Q1032 RMK BIRD HAZARD RWY 28 PP000=
SPZO Ene2020-130600Z 25001KT 9999 SCT050 07/04 Q1032 RMK BIRD HAZARD RWY 28 PP000=
SPZO Ene2020-130700Z 09003KT 9999 FEW050 07/04 Q1031 RMK BIRD HAZARD RWY 28 PP000=
SPZO Ene2020-130800Z 08003KT 9999 FEW050 06/03 Q1031 RMK BIRD HAZARD RWY 28 PP000=
SPZO Ene2020-130900Z 00000KT 9999 SCT040 06/03 Q1032 RMK BIRD HAZARD RWY 28 PP000=
SPZO Ene2020-131000Z 09002KT 9999 SCT040 06/03 Q1032 NOSIG RMK BIRD HAZARD RWY 28 PP000=
SPZO Ene2020-131030Z 33001KT 9999 SCT050 06/04 Q1033 NOSIG RMK BIRD HAZARD RWY 28=
SPZO Ene2020-131100Z VRB01KT 9999 SCT050 06/04 Q1033 NOSIG RMK BIRD HAZARD RWY 28 PP000=
SPZO Ene2020-131130Z 09002KT 9999 FEW046 SCT100 07/04 Q1033 NOSIG RMK BIRD HAZARD RWY 28=
SPZO Ene2020-131200Z 31001KT 9999 FEW050 SCT100 07/04 Q1034 NOSIG RMK BIRD HAZARD RWY 28 PP000=
SPZO Ene2020-131230Z 11003KT 9999 FEW043 SCT100 10/05 Q1034 NOSIG RMK HZ QUAD NE BIRD HAZARD RWY 28=
SPZO Ene2020-131300Z 09003KT 030V120 9999 FEW043 SCT100 10/06 Q1034 NOSIG RMK HZ QUAD NE BIRD HAZARD RWY 28 PP000=
SPZO Ene2020-131330Z 07002KT 9999 FEW043 SCT100 12/05 Q1033 NOSIG RMK BIRD HAZARD RWY 28=
SPZO Ene2020-131400Z 09002KT 9999 FEW043 SCT100 13/05 Q1033 NOSIG RMK BIRD HAZARD RWY 28 PP000=
SPZO Ene2020-131430Z 07002KT 9999 FEW043 SCT100 15/07 Q1033 NOSIG RMK BIRD HAZARD RWY 28=
SPZO Ene2020-131500Z 09003KT 9999 SCT043 16/07 Q1033 NOSIG RMK BIRD HAZARD RWY 28 PP000=
SPZO Ene2020-131530Z 08004KT 330V050 9999 SCT043 17/06 Q1032 NOSIG RMK BIRD HAZARD RWY 28=
SPZO Ene2020-131600Z 04002KT 9999 FEW046 SCT080 18/08 Q1031 NOSIG RMK BIRD HAZARD RWY 28 PP000=
SPZO Ene2020-131630Z 06003KT 9999 FEW046 SCT080 19/06 Q1031 NOSIG RMK BIRD HAZARD RWY 28=
SPZO Ene2020-131700Z 02003KT 9999 SCT046 SCT100 20/03 Q1030 NOSIG RMK BIRD HAZARD RWY 28 PP000=
SPZO Ene2020-131730Z VRB03KT 9999 SCT050 SCT100 21/03 Q1029 NOSIG RMK BIRD HAZARD RWY 28=
SPZO Ene2020-131800Z VRB04KT 9999 SCT050 SCT100 20/03 Q1029 NOSIG RMK BIRD HAZARD RWY 28 PP000=
SPZO Ene2020-131830Z 04013KT 9999 SCT050 BKN100 17/05 Q1029 NOSIG RMK BIRD HAZARD RWY 28=
SPZO Ene2020-131900Z 02014KT 9999 SCT050 BKN100 18/03 Q1028 NOSIG RMK BIRD HAZARD RWY 28 PP000=
SPZO Ene2020-131930Z 03008KT 9999 SCT050 BKN100 18/04 Q1028 NOSIG RMK BIRD HAZARD RWY 28=
SPZO Ene2020-132000Z 02015KT 9999 FEW050 BKN100 18/03 Q1027 NOSIG RMK BIRD HAZARD RWY 28 PP000=
SPZO Ene2020-132030Z 02011KT 9999 FEW050 BKN100 18/03 Q1027 NOSIG RMK BIRD HAZARD RWY 28=
SPZO Ene2020-132100Z 01011KT 9999 SCT050 SCT100 18/04 Q1027 NOSIG RMK BIRD HAZARD RWY 28 PP000=
SPZO Ene2020-132130Z 01008KT 9999 FEW050 BKN100 18/05 Q1027 NOSIG RMK BIRD HAZARD RWY 28=
SPZO Ene2020-132200Z 02011KT 9999 FEW050 SCT100 18/05 Q1027 NOSIG RMK TX21.1 BIRD HAZARD RWY 28 PP000=
SPZO Ene2020-132230Z 01009KT 9999 FEW050 SCT100 17/05 Q1027 NOSIG RMK BIRD HAZARD RWY 28=
SPZO Ene2020-132300Z 01008KT 9999 FEW050 SCT100 16/05 Q1028 NOSIG RMK BIRD HAZARD RWY 28 PP000=
SPZO Ene2020-132330Z 10006KT 9999 FEW050 SCT100 16/06 Q1028 NOSIG RMK BIRD HAZARD RWY 28=
SPZO Ene2020-140000Z 12006KT 9999 SCT100 16/06 Q1029 NOSIG RMK BIRD HAZARD RWY 28 PP000=
SPZO Ene2020-140030Z 10007KT 9999 SCT100 14/06 Q1029 NOSIG RMK BIRD HAZARD RWY 28=
SPZO Ene2020-140100Z 09008KT 9999 SCT100 13/05 Q1030 NOSIG RMK BIRD HAZARD RWY 28 PP000=
SPZO Ene2020-140130Z 18005KT 9999 SCT060 BKN100 14/05 Q1030 NOSIG RMK BIRD HAZARD RWY 28=
SPZO Ene2020-140200Z 11005KT 9999 SCT060 BKN100 13/06 Q1030 NOSIG RMK BIRD HAZARD RWY 28 PP000=
SPZO Ene2020-140300Z 13003KT 9999 SCT060 BKN100 14/06 Q1032 NOSIG RMK BIRD HAZARD RWY 28 PP000=
SPZO Ene2020-140400Z 00000KT 9999 SCT050 BKN100 13/05 Q1031 RMK BIRD HAZARD RWY 28 PP000=
SPZO Ene2020-140500Z 01001KT 9999 SCT050 BKN100 11/06 Q1031 RMK BIRD HAZARD RWY 28 PP000=
SPZO Ene2020-140600Z 00000KT 9999 SCT050 BKN100 10/06 Q1030 RMK BIRD HAZARD RWY 28 PP000=
SPZO Ene2020-140700Z 00000KT 9999 SCT050 BKN100 09/06 Q1030 RMK BIRD HAZARD RWY 28 PP000=
SPZO Ene2020-140800Z 00000KT 9999 SCT050 BKN100 09/06 Q1030 RMK BIRD HAZARD RWY 28 PP000=
SPZO Ene2020-140900Z 10004KT 9999 SCT050 BKN100 08/05 Q1030 RMK BIRD HAZARD RWY 28 PP000=
SPZO Ene2020-141000Z 29002KT 9999 SCT050 BKN100 08/05 Q1030 RMK BIRD HAZARD RWY 28 PP000=
SPZO Ene2020-141030Z 09005KT 9999 SCT030 08/05 Q1031 NOSIG RMK BIRD HAZARD RWY 28=
SPZO Ene2020-141100Z 11004KT 9999 SCT040 08/05 Q1031 NOSIG RMK BIRD HAZARD RWY 28 PP000=
SPZO Ene2020-141130Z 00000KT 9999 FEW050 OVC080 09/05 Q1032 NOSIG RMK BIRD HAZARD RWY 28=
SPZO Ene2020-141200Z 30001KT 9999 FEW050 BKN080 10/06 Q1032 NOSIG RMK TN7.1 BIRD HAZARD RWY 28 PP000=
SPZO Ene2020-141230Z 11002KT 9999 FEW050 BKN080 12/07 Q1032 NOSIG RMK BIRD HAZARD RWY 28=
SPZO Ene2020-141300Z 10002KT 9999 FEW050 BKN080 12/06 Q1032 NOSIG RMK BIRD HAZARD RWY 28 PP000=
SPZO Ene2020-141330Z 11003KT 9999 FEW040 BKN080 13/05 Q1032 NOSIG RMK BIRD HAZARD RWY 28=
SPZO Ene2020-141400Z 11001KT 9999 FEW040 BKN080 14/06 Q1032 NOSIG RMK BIRD HAZARD RWY 28 PP000=
SPZO Ene2020-141430Z 10005KT 9999 FEW040 BKN100 16/06 Q1032 NOSIG RMK BIRD HAZARD RWY 28=
SPZO Ene2020-141500Z 35003KT 9999 SCT050 SCT100 17/05 Q1031 NOSIG RMK BIRD HAZARD RWY 28 PP000=
SPZO Ene2020-141530Z 13006KT 9999 SCT050 SCT100 18/05 Q1031 NOSIG RMK BIRD HAZARD RWY 28=
SPZO Ene2020-141600Z 05004KT 9999 SCT050 BKN100 19/04 Q1030 NOSIG RMK BIRD HAZARD RWY 28 PP000=
SPZO Ene2020-141630Z 29011KT 9999 SCT050 BKN100 18/07 Q1030 NOSIG RMK BIRD HAZARD RWY 28=
SPZO Ene2020-141700Z 25004KT 9999 SCT050 BKN100 18/06 Q1029 NOSIG RMK BIRD HAZARD RWY 28 PP000=
SPZO Ene2020-141730Z 27015KT 9999 FEW046TCU BKN100 17/07 Q1029 NOSIG RMK BIRD HAZARD RWY 28=
SPZO Ene2020-141800Z 08005KT 9999 FEW046TCU BKN100 17/05 Q1028 NOSIG RMK BIRD HAZARD RWY 28 PP000=
SPZO Ene2020-141830Z 28016KT 9999 VCSH FEW046TCU BKN100 18/08 Q1028 NOSIG RMK BIRD HAZARD RWY 28=
SPZO Ene2020-141900Z 29012KT 9999 VCSH FEW046TCU BKN100 17/07 Q1028 NOSIG RMK BIRD HAZARD RWY 28 PP000=
SPZO Ene2020-141930Z 29012KT 9999 SCT046 BKN100 20/07 Q1027 NOSIG RMK BIRD HAZARD RWY 28=
SPZO Ene2020-142000Z 32010KT 9999 SCT050 BKN100 18/05 Q1026 NOSIG RMK BIRD HAZARD RWY 28 PP000=
SPZO Ene2020-142030Z 33009KT 9999 SCT046 BKN100 18/04 Q1026 NOSIG RMK BIRD HAZARD RWY 28=
SPZO Ene2020-142100Z 32006KT 9999 SCT046 BKN100 18/05 Q1026 NOSIG RMK TCU QUAD N BIRD HAZARD RWY 28 PP000=
SPZO Ene2020-142130Z 28006KT 9999 SCT046 FEW050TCU BKN100 16/07 Q1026 NOSIG RMK BIRD HAZARD RWY 28=
SPZO Ene2020-142200Z 28010KT 9999 SCT046 FEW050TCU BKN100 16/06 Q1026 NOSIG RMK TX22.7 BIRD HAZARD RWY 28 PP000=
SPZO Ene2020-142230Z 28009KT 9999 SCT046 BKN100 16/06 Q1027 NOSIG RMK BIRD HAZARD RWY 28=
SPZO Ene2020-142300Z 36006KT 9999 SCT046 BKN100 16/05 Q1026 NOSIG RMK BIRD HAZARD RWY 28 PP000=
SPZO Ene2020-142330Z 02008KT 350V080 9999 SCT046 BKN100 16/04 Q1027 WS R28 NOSIG RMK BIRD HAZARD RWY 28=
SPZO Ene2020-150000Z 36006KT 090V040 9999 SCT046 BKN100 15/05 Q1028 NOSIG RMK BIRD HAZARD RWY 28 PP000=
SPZO Ene2020-150030Z 28008KT 9999 SCT046 SCT100 14/06 Q1028 NOSIG RMK BIRD HAZARD RWY 28=
SPZO Ene2020-150100Z 01003KT 330V060 9999 SCT046 SCT100 14/05 Q1029 NOSIG RMK BIRD HAZARD RWY 28 PP000=
SPZO Ene2020-150130Z 29004KT 250V360 9999 SCT046 SCT100 14/05 Q1029 NOSIG RMK BIRD HAZARD RWY 28=
SPZO Ene2020-150200Z 27007KT 9999 SCT046 SCT100 14/07 Q1029 NOSIG RMK BIRD HAZARD RWY 28 PP000=
SPZO Ene2020-150230Z 00000KT 9999 SCT046 SCT100 14/06 Q1030 NOSIG RMK BIRD HAZARD RWY 28=
SPZO Ene2020-150300Z 03003KT 350V090 9999 SCT046 SCT100 14/05 Q1030 NOSIG RMK BIRD HAZARD RWY 28 PP000=
SPZO Ene2020-150400Z 11003KT 9999 SCT046 SCT080 13/06 Q1030 RMK PP000=
SPZO Ene2020-150500Z 11005KT 9999 SCT046 SCT080 12/06 Q1030 RMK PP000=
SPZO Ene2020-150600Z 02002KT 9999 SCT046 SCT100 12/06 Q1030 RMK PP000=
SPZO Ene2020-150700Z 10004KT 9999 SCT046 SCT080 11/06 Q1029 RMK PP000=
SPZO Ene2020-150800Z 10002KT 9999 SCT046 SCT080 11/06 Q1029 RMK PP000=
SPZO Ene2020-150900Z 09003KT 9999 SCT046 SCT080 10/07 Q1029 RMK BIRD HAZARD RWY 28 PP000=
SPZO Ene2020-151000Z 00000KT 9999 SCT046 BKN080 11/06 Q1029 NOSIG RMK BIRD HAZARD RWY 28 PP000=
SPZO Ene2020-151030Z 10003KT 9999 SCT043 BKN080 11/07 Q1030 NOSIG RMK BIRD HAZARD RWY 28=
SPZO Ene2020-151100Z 09002KT 9999 SCT043 BKN080 11/06 Q1030 NOSIG RMK BIRD HAZARD RWY 28 PP000=
SPZO Ene2020-151130Z 00000KT 9999 SCT040 BKN080 12/07 Q1031 NOSIG RMK BIRD HAZARD RWY 28=
SPZO Ene2020-151200Z 27005KT 9999 SCT040 BKN080 12/07 Q1031 NOSIG RMK TN10.2 BIRD HAZARD RWY 28 PP000=
SPZO Ene2020-151230Z 28009KT 9999 VCSH SCT036 BKN080 11/06 Q1032 NOSIG RMK BIRD HAZARD RWY 28=
SPZO Ene2020-151300Z 28008KT 9999 SCT036 BKN080 13/07 Q1032 NOSIG RMK BIRD HAZARD RWY 28 PP000=
SPZO Ene2020-151330Z 27007KT 9999 SCT040 BKN080 14/06 Q1032 NOSIG RMK BIRD HAZARD RWY 28=
SPZO Ene2020-151400Z 30010KT 9999 SCT040 BKN080 14/05 Q1032 NOSIG RMK BIRD HAZARD RWY 28 PP000=
SPZO Ene2020-151430Z 29011KT 9999 FEW040 BKN080 15/05 Q1032 NOSIG RMK BIRD HAZARD RWY 28=
SPZO Ene2020-151500Z 30015KT 9999 FEW040 BKN080 15/05 Q1032 NOSIG RMK BIRD HAZARD RWY 28 PP000=
SPZO Ene2020-151530Z 29013KT 9999 VCSH FEW040TCU BKN080 16/06 Q1031 NOSIG RMK BIRD HAZARD RWY 28=
SPZO Ene2020-151600Z 29015KT 9999 SCT040 BKN080 14/06 Q1031 NOSIG RMK BIRD HAZARD RWY 28 PP000=
SPZO Ene2020-151630Z 28011KT 9999 VCSH SCT046 BKN080 16/05 Q1030 NOSIG RMK TCU QUAD SE BIRD HAZARD RWY 28=
SPZO Ene2020-151700Z 29011KT 9999 VCSH FEW040TCU BKN080 18/06 Q1030 NOSIG RMK BIRD HAZARD RWY 28 PP000=
SPZO Ene2020-151730Z 26008KT 190V280 9999 VCSH BKN046 SCT080 17/06 Q1029 NOSIG RMK BIRD HAZARD RWY 28=
SPZO Ene2020-151800Z 16003KT 9999 BKN046 SCT080 18/05 Q1029 NOSIG RMK TCU QUAD S/N BIRD HAZARD RWY 28 PP000=
SPZO Ene2020-151830Z VRB03KT 9999 BKN046 SCT080 18/05 Q1028 NOSIG RMK SH QUAD SW BIRD HAZARD RWY 28=
SPZO Ene2020-151900Z 02013KT 330V090 9999 BKN043 BKN080 18/05 Q1028 NOSIG RMK TCU QUAD SW/N BIRD HAZARD RWY 28 PP000=
SPZO Ene2020-151930Z 29012KT 260V360 9999 SCT043 OVC080 15/07 Q1029 NOSIG RMK TCU QUAD S BIRD HAZARD RWY 28=
SPZO Ene2020-152000Z 02010G21KT 300V090 9999 SCT043 OVC080 15/06 Q1029 NOSIG RMK TCU QUAD S BIRD HAZARD RWY 28 PP000=
SPZO Ene2020-152030Z VRB07KT 9999 -DZ VCSH SCT043 OVC080 13/06 Q1029 NOSIG RMK BIRD HAZARD RWY 28=
SPZO Ene2020-152100Z VRB05KT 9999 -DZ VCSH SCT043 OVC080 12/07 Q1029 NOSIG RMK VIS 9000 QUAD E BIRD HAZARD RWY 28 PPTRZ=
SPZO Ene2020-152130Z 19003KT 120V250 9999 SCT043 OVC080 12/06 Q1029 NOSIG RMK BIRD HAZARD RWY 28=
SPZO Ene2020-152200Z 10007KT 9999 SCT043 OVC080 12/07 Q1029 NOSIG RMK TX19.8 BIRD HAZARD RWY 28 PP000=
SPZO Ene2020-152230Z 10006KT 9999 SCT043 BKN080 12/06 Q1030 NOSIG RMK BIRD HAZARD RWY 28=
SPZO Ene2020-152300Z 10005KT 9999 SCT043 BKN080 12/06 Q1030 NOSIG RMK TCU QUAD N BIRD HAZARD RWY 28 PP000=
SPZO Ene2020-152330Z 09005KT 9999 VCSH FEW030 SCT040 BKN100 11/06 Q1031 NOSIG RMK VIS 7000W BIRD HAZARD RWY 28=
SPZO Ene2020-160000Z 10005KT 9999 SCT050 BKN100 11/06 Q1031 NOSIG RMK BIRD HAZARD RWY 28 PP000=
SPZO Ene2020-160030Z 10005KT 9999 FEW040 BKN100 11/06 Q1032 NOSIG RMK BIRD HAZARD RWY 28=
SPZO Ene2020-160100Z 11005KT 9999 FEW040 BKN100 11/06 Q1032 NOSIG RMK BIRD HAZARD RWY 28 PP000=
SPZO Ene2020-160130Z 09003KT 9999 FEW040 BKN100 11/06 Q1033 NOSIG RMK BIRD HAZARD RWY 28=
SPZO Ene2020-160200Z 00000KT 9999 FEW040 BKN100 11/06 Q1033 NOSIG RMK BIRD HAZARD RWY 28 PP000=
SPZO Ene2020-160230Z 10001KT 9999 FEW050 BKN100 11/06 Q1034 NOSIG RMK BIRD HAZARD RWY 28=
SPZO Ene2020-160300Z 00000KT 9999 FEW050 SCT100 11/07 Q1034 NOSIG RMK BIRD HAZARD RWY 28 PP000=
SPZO Ene2020-160400Z 08005KT 9999 FEW030 SCT100 10/07 Q1034 RMK BIRD HAZARD RWY 28 PP000=
SPZO Ene2020-160500Z 00000KT 9999 SCT040 BKN100 11/06 Q1033 RMK BIRD HAZARD RWY 28 PP000=
SPZO Ene2020-160600Z 10003KT 9999 SCT040 BKN100 11/07 Q1033 RMK BIRD HAZARD RWY 28 PP000=
SPZO Ene2020-160700Z 11002KT 9999 SCT040 BKN100 11/07 Q1032 RMK BIRD HAZARD RWY 28 PP000=
SPZO Ene2020-160800Z 00000KT 9999 FEW040 BKN100 11/07 Q1032 RMK BIRD HAZARD RWY 28 PP000=
SPZO Ene2020-160900Z 12004KT 9999 SCT040 BKN100 09/06 Q1032 RMK BIRD HAZARD RWY 28 PP000=
SPZO Ene2020-161000Z 12004KT 9999 SCT040 BKN100 08/05 Q1032 NOSIG RMK BIRD HAZARD RWY 28 PP000=
SPZO Ene2020-161030Z 11004KT 9999 FEW030 SCT100 07/05 Q1033 NOSIG RMK BR QUAD E BIRD HAZARD RWY 28=
SPZO Ene2020-161100Z 14002KT 9999 FEW030 BKN080 08/05 Q1033 NOSIG RMK BIRD HAZARD RWY 28 PP000=
SPZO Ene2020-161130Z 00000KT 9999 FEW020 SCT040 BKN080 09/06 Q1034 NOSIG RMK BIRD HAZARD RWY 28=
SPZO Ene2020-161200Z 00000KT 9999 FEW020 SCT040 BKN080 11/06 Q1034 NOSIG RMK TN07.2 BIRD HAZARD RWY 28 PP000=
SPZO Ene2020-161230Z 00000KT 9999 FEW020 SCT040 BKN080 11/06 Q1034 NOSIG RMK BIRD HAZARD RWY 28=
SPZO Ene2020-161300Z VRB02KT 9999 FEW020 SCT036 BKN070 12/06 Q1034 NOSIG RMK BIRD HAZARD RWY 28 PP000=
SPZO Ene2020-161330Z 08003KT 020V100 9999 FEW020 SCT036 BKN070 13/06 Q1035 NOSIG RMK BIRD HAZARD RWY 28=
SPZO Ene2020-161400Z VRB01KT 9999 SCT036 BKN070 14/06 Q1035 NOSIG RMK BIRD HAZARD RWY 28 PP000=
SPZO Ene2020-161430Z 10006KT 9999 VCSH SCT036 BKN070 14/06 Q1035 NOSIG RMK BIRD HAZARD RWY 28=
SPZO Ene2020-161500Z 08004KT 9999 VCSH SCT040 BKN070 14/07 Q1035 NOSIG RMK TCU QUAD NW BIRD HAZARD RWY 28 PP000=
SPZO Ene2020-161530Z 29013KT 9999 VCSH SCT040 BKN070 15/06 Q1034 NOSIG RMK BIRD HAZARD RWY 28=
SPZO Ene2020-161600Z 29010KT 9999 VCSH SCT043 BKN080 15/06 Q1034 NOSIG RMK BIRD HAZARD RWY 28 PP000=
SPZO Ene2020-161630Z 30006KT 270V360 9999 VCSH SCT043 BKN080 16/06 Q1033 NOSIG RMK BIRD HAZARD RWY 28=
SPZO Ene2020-161700Z VRB02KT 9999 VCSH SCT043 BKN080 16/07 Q1033 NOSIG RMK BIRD HAZARD RWY 28 PP000=
SPZO Ene2020-161730Z 30004KT 9999 SCT050 SCT100 17/05 Q1032 NOSIG RMK BIRD HAZARD RWY 28=
SPZO Ene2020-161830Z 17008KT 9999 VCSH FEW040TCU SCT050 BKN100 18/05 Q1031 NOSIG RMK BIRD HAZARD RWY 28=
SPZO Ene2020-161900Z 28004KT 9999 -DZ SCT050 BKN080 16/06 Q1031 NOSIG RMK BIRD HAZARD RWY 28 PPTRZ=
SPZO Ene2020-161930Z 28011KT 9999 -DZ SCT050 BKN100 16/07 Q1031 NOSIG RMK BIRD HAZARD RWY 28=
SPZO Ene2020-162000Z VRB04KT 9999 SCT050 BKN100 19/06 Q1030 NOSIG RMK BIRD HAZARD RWY 28 PP000=
SPZO Ene2020-162030Z 19005KT 9999 VCSH SCT050 BKN100 18/04 Q1030 NOSIG RMK BIRD HAZARD RWY 28=
SPZO Ene2020-162100Z 04003KT 9999 VCSH SCT050 BKN100 17/04 Q1030 NOSIG RMK BIRD HAZARD RWY 28 PP000=
SPZO Ene2020-162130Z 25004KT 9999 VCSH SCT050 SCT100 16/06 Q1030 NOSIG RMK BIRD HAZARD RWY 28=
SPZO Ene2020-162200Z 15007KT 9999 SCT046 BKN100 16/05 Q1030 NOSIG RMK TX18.8 BIRD HAZARD RWY 28 PP000=
SPZO Ene2020-162230Z 11007KT 9999 SCT046 SCT100 15/05 Q1031 NOSIG RMK BIRD HAZARD RWY 28=
SPZO Ene2020-162300Z 07007KT 9999 SCT046 SCT100 15/04 Q1031 NOSIG RMK BIRD HAZARD RWY 28 PP000=
SPZO Ene2020-162330Z 12003KT 9999 SCT043 SCT080 14/03 Q1032 NOSIG RMK BIRD HAZARD RWY 28=
SPZO Ene2020-170000Z VRB01KT 9999 FEW043 SCT080 13/03 Q1032 NOSIG RMK BIRD HAZARD RWY 28 PP000=
SPZO Ene2020-170030Z 24004KT 9999 FEW050 SCT100 13/04 Q1033 NOSIG RMK BIRD HAZARD RWY 28=
SPZO Ene2020-170100Z 27006KT 9999 FEW050 SCT100 12/04 Q1033 NOSIG RMK BIRD HAZARD RWY 28 PP000=
SPZO Ene2020-170130Z 00000KT 9999 FEW050 SCT100 11/04 Q1034 NOSIG RMK BIRD HAZARD RWY 28=
SPZO Ene2020-170200Z 27001KT 9999 SCT050 10/04 Q1034 NOSIG RMK BIRD HAZARD RWY 28 PP000=
SPZO Ene2020-170230Z 00000KT 9999 SCT050 10/04 Q1035 NOSIG RMK BIRD HAZARD RWY 28=
SPZO Ene2020-170300Z 08002KT 9999 SCT046 SCT080 09/04 Q1035 NOSIG RMK BIRD HAZARD RWY 28 PP000=
SPZO Ene2020-170400Z 27004KT 9999 SCT046 BKN080 10/05 Q1036 RMK PP000=
SPZO Ene2020-170500Z VRB02KT 9999 SCT046 BKN080 10/05 Q1035 RMK PP000=
SPZO Ene2020-170600Z 00000KT 9999 SCT046 SCT100 09/05 Q1035 RMK PP000=
SPZO Ene2020-170700Z 00000KT 9999 SCT046 SCT100 08/05 Q1034 RMK PP000=
SPZO Ene2020-170800Z 15003KT 9999 SCT046 SCT100 08/04 Q1034 RMK PP000=
SPZO Ene2020-170900Z VRB01KT 9999 SCT046 SCT100 06/03 Q1034 RMK PP000=
SPZO Ene2020-171000Z 10003KT 9999 FEW046 SCT100 06/04 Q1034 NOSIG RMK BIRD HAZARD RWY 28 PP000=
SPZO Ene2020-171030Z 00000KT 9999 FEW046 SCT100 05/03 Q1035 NOSIG RMK BIRD HAZARD RWY 28=
SPZO Ene2020-171100Z 30002KT 9999 FEW046 SCT100 05/02 Q1035 NOSIG RMK BR QUAD E BIRD HAZARD RWY 28 PP000=
SPZO Ene2020-171130Z 11002KT 9999 FEW046 SCT120 08/05 Q1035 NOSIG RMK BIRD HAZARD RWY 28=
SPZO Ene2020-171200Z 28001KT 9999 FEW046 SCT120 10/04 Q1036 NOSIG RMK TN4.4 BIRD HAZARD RWY 28 PP000=
SPZO Ene2020-171230Z VRB01KT 9999 FEW046 SCT120 13/05 Q1035 NOSIG RMK BIRD HAZARD RWY 28=
SPZO Ene2020-171300Z 32001KT 9999 FEW046 SCT120 13/05 Q1036 NOSIG RMK BIRD HAZARD RWY 28 PP000=
SPZO Ene2020-171330Z 09002KT 9999 FEW040 SCT120 13/05 Q1036 NOSIG RMK BIRD HAZARD RWY 28=
SPZO Ene2020-171400Z VRB01KT 9999 FEW050 SCT120 16/05 Q1036 NOSIG RMK BIRD HAZARD RWY 28 PP000=
SPZO Ene2020-171430Z 24004KT 9999 SCT050 16/03 Q1035 NOSIG RMK BIRD HAZARD RWY 28=
SPZO Ene2020-171500Z 11003KT 9999 SCT050 16/02 Q1035 NOSIG RMK BIRD HAZARD RWY 28 PP000=
SPZO Ene2020-171530Z VRB02KT 9999 BKN050 16/03 Q1035 NOSIG RMK BIRD HAZARD RWY 28=
SPZO Ene2020-171600Z 15003KT 110V220 9999 BKN060 16/02 Q1035 NOSIG RMK BIRD HAZARD RWY 28 PP000=
SPZO Ene2020-171630Z 03013KT 9999 BKN050 16/03 Q1035 NOSIG RMK BIRD HAZARD RWY 28=
SPZO Ene2020-171700Z 34006KT 9999 BKN060 18/04 Q1034 NOSIG RMK BIRD HAZARD RWY 28 PP000=
SPZO Ene2020-171730Z 01010KT 300V040 9999 SCT046 SCT080 18/02 Q1034 NOSIG RMK BIRD HAZARD RWY 28=
SPZO Ene2020-171800Z 01009KT 330V080 9999 SCT046 SCT080 20/05 Q1033 NOSIG RMK BIRD HAZARD RWY 28 PP000=
SPZO Ene2020-171830Z 01009KT 330V070 9999 FEW040TCU SCT046 BKN080 20/02 Q1032 NOSIG RMK BIRD HAZARD RWY 28=
SPZO Ene2020-171900Z 10009KT 9999 VCSH FEW040TCU SCT046 BKN080 21/04 Q1032 NOSIG RMK BIRD HAZARD RWY 28 PP000=
SPZO Ene2020-171930Z 09011KT 010V100 9999 FEW040TCU SCT046 BKN080 18/04 Q1032 NOSIG RMK BIRD HAZARD RWY 28=
SPZO Ene2020-172000Z 07007KT 050V090 9999 FEW040TCU SCT046 BKN100 20/04 Q1031 NOSIG RMK BIRD HAZARD RWY 28 PP000=
SPZO Ene2020-172030Z 07011KT 020V120 9999 FEW040TCU SCT046 BKN100 17/04 Q1031 NOSIG RMK BIRD HAZARD RWY 28=
SPZO Ene2020-172100Z 10008KT 070V160 9999 FEW040TCU SCT046 BKN100 18/04 Q1031 NOSIG RMK BIRD HAZARD RWY 28 PP000=
SPZO Ene2020-172130Z 10009KT 050V140 9999 FEW040TCU SCT046 BKN100 17/02 Q1031 NOSIG RMK BIRD HAZARD RWY 28=
SPZO Ene2020-172200Z 07007KT 010V120 9999 FEW040TCU SCT046 BKN100 17/03 Q1031 NOSIG RMK TN20.8 BIRD HAZARD RWY 28 PP000=
SPZO Ene2020-172230Z 10009G19KT 030V140 9999 FEW050 BKN100 15/01 Q1031 NOSIG RMK TCU QUAD S BIRD HAZARD RWY 28=
SPZO Ene2020-172300Z 08012KT 010V120 9999 FEW050 BKN100 15/02 Q1032 NOSIG RMK BIRD HAZARD RWY 28 PP000=
SPZO Ene2020-172330Z 14006KT 100V200 9999 SCT046 BKN100 15/03 Q1032 NOSIG RMK BIRD HAZARD RWY 28=
SPZO Ene2020-180000Z 10006KT 080V160 9999 SCT046 SCT080 14/03 Q1033 NOSIG RMK BIRD HAZARD RWY 28 PP000=
SPZO Ene2020-180030Z 09003KT 360V150 9999 SCT046 BKN080 14/04 Q1033 NOSIG RMK BIRD HAZARD RWY 28=
SPZO Ene2020-180100Z 10003KT 020V180 9999 SCT046 BKN080 14/04 Q1034 NOSIG RMK BIRD HAZARD RWY 28 PP000=
SPZO Ene2020-180130Z VRB02KT 9999 SCT046 BKN080 12/06 Q1034 NOSIG RMK BIRD HAZARD RWY 28=
SPZO Ene2020-180200Z VRB02KT 9999 SCT046 BKN080 13/05 Q1035 NOSIG RMK BIRD HAZARD RWY 28 PP000=
SPZO Ene2020-180230Z 10003KT 010V130 9999 SCT046 BKN080 12/05 Q1035 NOSIG RMK BIRD HAZARD RWY 28=
SPZO Ene2020-180300Z 30003KT 260V030 9999 SCT046 BKN080 12/05 Q1035 NOSIG RMK BIRD HAZARD RWY 28 PP000=
SPZO Ene2020-180400Z 21002KT 9999 SCT050 SCT100 12/04 Q1035 RMK PP000=
SPZO Ene2020-180500Z 09003KT 9999 SCT050 SCT100 10/05 Q1035 RMK PP000=
SPZO Ene2020-180600Z 10003KT 9999 SCT050 SCT100 10/06 Q1034 RMK PP000=
SPZO Ene2020-180700Z 09004KT 9999 SCT043 SCT080 10/06 Q1034 RMK PP000=
SPZO Ene2020-180800Z 10004KT 9999 SCT043 SCT080 10/06 Q1033 RMK PP000=
SPZO Ene2020-180900Z 11003KT 9999 SCT043 BKN080 10/05 Q1033 RMK PP000=
SPZO Ene2020-181000Z 00000KT 9999 SCT043 BKN080 10/05 Q1033 NOSIG RMK BIRD HAZARD RWY 28 PP000=
SPZO Ene2020-181030Z 09003KT 9999 SCT036 BKN080 09/05 Q1034 NOSIG RMK BIRD HAZARD RWY 28=
SPZO Ene2020-181100Z 00000KT 9999 SCT040 BKN080 10/05 Q1034 NOSIG RMK BIRD HAZARD RWY 28 PP000=
SPZO Ene2020-181130Z 09002KT 9999 SCT043 BKN080 11/06 Q1034 NOSIG RMK BIRD HAZARD RWY 28=
SPZO Ene2020-181200Z 08002KT 9999 SCT043 BKN080 11/05 Q1035 NOSIG RMK TN09.1 BIRD HAZARD RWY 28 PP000=
SPZO Ene2020-181230Z 07002KT 9999 SCT043 BKN080 12/05 Q1035 NOSIG RMK BIRD HAZARD RWY 28=
SPZO Ene2020-181300Z 06002KT 9999 SCT043 BKN080 12/05 Q1035 NOSIG RMK BIRD HAZARD RWY 28 PP000=
SPZO Ene2020-181330Z VRB02KT 9999 SCT043 BKN080 12/05 Q1035 NOSIG RMK BIRD HAZARD RWY 28=
SPZO Ene2020-181400Z VRB02KT 9999 SCT043 BKN080 14/06 Q1035 NOSIG RMK BIRD HAZARD RWY 28 PP000=
SPZO Ene2020-181430Z 19003KT 9999 SCT043 BKN080 15/06 Q1035 NOSIG RMK BIRD HAZARD RWY 28=
SPZO Ene2020-181500Z 35006KT 290V050 9999 SCT043 BKN080 15/05 Q1035 NOSIG RMK BIRD HAZARD RWY 28 PP000=
SPZO Ene2020-181530Z 02009KT 350V090 9999 SCT043 BKN100 16/04 Q1035 NOSIG RMK BIRD HAZARD RWY 28=
SPZO Ene2020-181600Z 02007KT 320V080 9999 SCT046 BKN100 17/04 Q1035 NOSIG RMK BIRD HAZARD RWY 28 PP000=
SPZO Ene2020-181630Z 02012KT 360V090 9999 FEW040TCU SCT046 BKN100 17/04 Q1034 NOSIG RMK BIRD HAZARD RWY 28=
SPZO Ene2020-181700Z 02010KT 330V080 9999 FEW040TCU SCT046 BKN100 18/05 Q1034 NOSIG RMK BIRD HAZARD RWY 28 PP000=
SPZO Ene2020-181730Z 02011KT 9999 BKN046 17/04 Q1034 NOSIG RMK BIRD HAZARD RWY 28=
SPZO Ene2020-181800Z 03011KT 9999 BKN046 18/05 Q1033 NOSIG RMK BIRD HAZARD RWY 28 PP000=
SPZO Ene2020-181830Z 36009KT 9999 BKN046 18/05 Q1033 NOSIG RMK BIRD HAZARD RWY 28=
SPZO Ene2020-181900Z 02013KT 9999 SCT046 18/05 Q1033 NOSIG RMK BIRD HAZARD RWY 28 PP000=
SPZO Ene2020-181930Z VRB01KT 9999 SCT046 18/05 Q1031 NOSIG RMK BIRD HAZARD RWY 28=
SPZO Ene2020-182000Z 09010KT 9999 SCT046 18/04 Q1031 NOSIG RMK BIRD HAZARD RWY 28 PP000=
SPZO Ene2020-182030Z 10008KT 9999 SCT046 16/04 Q1031 NOSIG RMK BIRD HAZARD RWY 28=
SPZO Ene2020-182100Z 01008KT 9999 SCT046 17/04 Q1030 NOSIG RMK BIRD HAZARD RWY 28 PP000=
SPZO Ene2020-182130Z 08004KT 9999 FEW046 17/03 Q1030 NOSIG RMK BIRD HAZARD RWY 28=
SPZO Ene2020-182200Z 05004KT 9999 FEW046 17/05 Q1030 NOSIG RMK TX18.8 BIRD HAZARD RWY 28 PP000=
SPZO Ene2020-182230Z 03006KT 9999 FEW046 16/04 Q1030 NOSIG RMK BIRD HAZARD RWY 28=
SPZO Ene2020-182300Z 03007KT 9999 FEW046 15/03 Q1030 NOSIG RMK BIRD HAZARD RWY 28 PP000=
SPZO Ene2020-182330Z 04007KT 9999 FEW050 15/03 Q1031 NOSIG RMK BIRD HAZARD RWY 28=
SPZO Ene2020-190000Z 01008KT 9999 FEW050 14/03 Q1031 NOSIG RMK BIRD HAZARD RWY 28 PP000=
SPZO Ene2020-190030Z 02006KT 9999 FEW050 14/02 Q1032 NOSIG RMK BIRD HAZARD RWY 28=
SPZO Ene2020-190100Z 02005KT 9999 FEW050 14/02 Q1033 NOSIG RMK BIRD HAZARD RWY 28 PP000=
SPZO Ene2020-190130Z 00000KT 9999 FEW050 13/03 Q1034 NOSIG RMK BIRD HAZARD RWY 28=
SPZO Ene2020-190200Z VRB01KT 9999 FEW050 12/04 Q1034 NOSIG RMK BIRD HAZARD RWY 28 PP000=
SPZO Ene2020-190300Z 29005KT 9999 NSC 10/04 Q1035 NOSIG RMK BIRD HAZARD RWY 28 PP000=
SPZO Ene2020-190400Z 31001KT 9999 NSC 09/04 Q1035 NOSIG RMK BIRD HAZARD RWY 28 PP000=
SPZO Ene2020-190500Z 00000KT 9999 NSC 09/04 Q1035 RMK BIRD HAZARD RWY 28 PP000=
SPZO Ene2020-190600Z 00000KT 9999 NSC 08/04 Q1034 RMK BIRD HAZARD RWY 28 PP000=
SPZO Ene2020-190700Z 09003KT 9999 NSC 08/04 Q1034 RMK BIRD HAZARD RWY 28 PP000=
SPZO Ene2020-190800Z 00000KT 9999 NSC 07/03 Q1033 RMK BIRD HAZARD RWY 28 PP000=
SPZO Ene2020-190900Z 00000KT 9999 NSC 06/05 Q1033 RMK BIRD HAZARD RWY 28 PP000=
SPZO Ene2020-191000Z 00000KT 9999 NSC 06/03 Q1034 NOSIG RMK BIRD HAZARD RWY 28 PP000=
SPZO Ene2020-191030Z 10004KT 9999 FEW050 06/03 Q1034 NOSIG RMK BIRD HAZARD RWY 28=
SPZO Ene2020-191100Z 10003KT 9999 FEW050 06/03 Q1034 NOSIG RMK BIRD HAZARD RWY 28 PP000=
SPZO Ene2020-191130Z 00000KT 9999 SCT120 09/04 Q1035 NOSIG RMK BIRD HAZARD RWY 28=
SPZO Ene2020-191200Z 11002KT 9999 FEW040 BKN120 10/05 Q1035 NOSIG RMK TN5.6 BIRD HAZARD RWY 28 PP000=
SPZO Ene2020-191230Z 06001KT 9999 FEW040 SCT120 12/04 Q1035 NOSIG RMK BIRD HAZARD RWY 28=
SPZO Ene2020-191300Z 04003KT 9999 FEW040 SCT120 12/04 Q1036 NOSIG RMK BIRD HAZARD RWY 28 PP000=
SPZO Ene2020-191330Z 12005KT 9999 SCT046 12/04 Q1036 NOSIG RMK BIRD HAZARD RWY 28=
SPZO Ene2020-191400Z 17005KT 9999 SCT046 13/04 Q1036 NOSIG RMK BIRD HAZARD RWY 28 PP000=
SPZO Ene2020-191430Z 12004KT 9999 SCT046 15/04 Q1036 NOSIG RMK BIRD HAZARD RWY 28=
SPZO Ene2020-191500Z 13004KT 9999 SCT046 16/04 Q1036 NOSIG RMK BIRD HAZARD RWY 28 PP000=
SPZO Ene2020-191530Z 11005KT 9999 BKN050 17/04 Q1037 NOSIG RMK BIRD HAZARD RWY 28=
SPZO Ene2020-191600Z 17002KT 9999 BKN050 16/03 Q1035 NOSIG RMK BIRD HAZARD RWY 28 PP000=
SPZO Ene2020-191630Z 10007KT 9999 BKN050 17/05 Q1034 NOSIG RMK BIRD HAZARD RWY 28=
SPZO Ene2020-191700Z 18004KT 9999 BKN050 17/04 Q1034 NOSIG RMK BIRD HAZARD RWY 28 PP000=
SPZO Ene2020-191730Z 35010KT 280V020 9999 SCT046 SCT100 19/04 Q1033 NOSIG RMK BIRD HAZARD RWY 28=
SPZO Ene2020-191800Z 02011KT 9999 SCT046 20/05 Q1032 NOSIG RMK BIRD HAZARD RWY 28 PP000=
SPZO Ene2020-191830Z 35005KT 280V070 9999 SCT050 20/03 Q1031 NOSIG RMK BIRD HAZARD RWY 28=
SPZO Ene2020-191900Z 33005KT 280V030 9999 SCT050 21/04 Q1031 NOSIG RMK BIRD HAZARD RWY 28 PP000=
SPZO Ene2020-191930Z 35009KT 300V020 9999 SCT050 21/03 Q1030 NOSIG RMK BIRD HAZARD RWY 28=
SPZO Ene2020-192000Z 01006KT 9999 SCT050 21/03 Q1029 NOSIG RMK BIRD HAZARD RWY 28 PP000=
SPZO Ene2020-192030Z 06005KT 350V100 9999 SCT050 21/04 Q1028 NOSIG RMK BIRD HAZARD RWY 28=
SPZO Ene2020-192100Z 01009KT 9999 SCT050 21/03 Q1028 NOSIG RMK BIRD HAZARD RWY 28 PP000=
SPZO Ene2020-192130Z 04004KT 9999 SCT050 20/02 Q1027 NOSIG RMK BIRD HAZARD RWY 28=
SPZO Ene2020-192200Z 35005KT 9999 SCT050 21/03 Q1027 NOSIG RMK TX21.6 BIRD HAZARD RWY 28 PP000=
SPZO Ene2020-192230Z 02006KT 330V070 9999 SCT050 19/02 Q1028 NOSIG RMK BIRD HAZARD RWY 28=
SPZO Ene2020-192300Z 01008KT 9999 SCT050 18/04 Q1028 NOSIG RMK BIRD HAZARD RWY 28 PP000=
SPZO Ene2020-192330Z 06003KT 9999 FEW046 SCT100 18/04 Q1029 NOSIG RMK BIRD HAZARD RWY 28=
SPZO Ene2020-200000Z 01005KT 290V060 9999 FEW043 SCT100 17/05 Q1030 NOSIG RMK BIRD HAZARD RWY 28 PP000=
SPZO Ene2020-200030Z 36007KT 270V050 9999 FEW046 SCT100 16/05 Q1031 NOSIG RMK BIRD HAZARD RWY 28=
SPZO Ene2020-200100Z 03004KT 290V080 9999 FEW046 SCT100 16/05 Q1031 NOSIG RMK BIRD HAZARD RWY 28 PP000=
SPZO Ene2020-200130Z 09005KT 9999 FEW046 SCT100 14/06 Q1032 NOSIG RMK BIRD HAZARD RWY 28=
SPZO Ene2020-200200Z 11005KT 090V180 9999 FEW046 SCT100 14/05 Q1032 NOSIG RMK BIRD HAZARD RWY 28 PP000=
SPZO Ene2020-200230Z 10003KT 9999 SCT046 SCT100 13/06 Q1033 NOSIG RMK BIRD HAZARD RWY 28=
SPZO Ene2020-200300Z 00000KT 9999 SCT046 SCT100 13/06 Q1033 RMK PP000=
SPZO Ene2020-200400Z 10004KT 060V170 9999 SCT046 SCT100 12/05 Q1034 RMK PP000=
SPZO Ene2020-200500Z 10003KT 9999 SCT046 SCT100 12/06 Q1033 RMK PP000=
SPZO Ene2020-200600Z 00000KT 9999 SCT046 SCT100 12/05 Q1033 RMK PP000=
SPZO Ene2020-200700Z 10003KT 9999 SCT046 SCT100 11/05 Q1032 RMK PP000=
SPZO Ene2020-200800Z 11002KT 9999 SCT046 SCT100 11/06 Q1032 RMK PP000=
SPZO Ene2020-200900Z 10003KT 9999 SCT046 BKN100 10/06 Q1032 RMK BIRD HAZARD RWY 28 PP000=
SPZO Ene2020-201000Z 10002KT 9999 SCT046 BKN100 10/06 Q1033 NOSIG RMK BIRD HAZARD RWY 28 PP000=
SPZO Ene2020-201030Z 08003KT 9999 SCT046 BKN080 11/06 Q1033 NOSIG RMK BIRD HAZARD RWY 28=
SPZO Ene2020-201100Z 08003KT 020V110 9999 SCT046 BKN080 11/06 Q1033 NOSIG RMK BIRD HAZARD RWY 28 PP000=
SPZO Ene2020-201130Z 25003KT 9999 SCT040 OVC080 12/05 Q1034 NOSIG RMK BIRD HAZARD RWY 28=
SPZO Ene2020-201200Z 24002KT 9999 SCT040 BKN080 12/05 Q1034 NOSIG RMK TN9.8 BIRD HAZARD RWY 28 PP000=
SPZO Ene2020-201230Z VRB02KT 9999 SCT040 BKN080 12/05 Q1035 NOSIG RMK BIRD HAZARD RWY 28=
SPZO Ene2020-201300Z 09001KT 9999 SCT040 BKN080 13/06 Q1035 NOSIG RMK BIRD HAZARD RWY 28 PP000=
SPZO Ene2020-201330Z 26004KT 9999 SCT040 BKN080 13/05 Q1035 NOSIG RMK BIRD HAZARD RWY 28=
SPZO Ene2020-201400Z VRB03KT 9999 SCT040 BKN080 14/05 Q1035 NOSIG RMK BIRD HAZARD RWY 28 PP000=
SPZO Ene2020-201430Z 22002KT 9999 SCT040 BKN080 15/04 Q1035 NOSIG RMK BIRD HAZARD RWY 28=
SPZO Ene2020-201500Z VRB03KT 9999 SCT043 BKN100 15/05 Q1035 NOSIG RMK BIRD HAZARD RWY 28 PP000=
SPZO Ene2020-201530Z VRB04KT 9999 SCT046 BKN080 15/04 Q1035 NOSIG RMK BIRD HAZARD RWY 28=
SPZO Ene2020-201600Z 34002KT 9999 SCT046 BKN100 17/04 Q1034 NOSIG RMK BIRD HAZARD RWY 28 PP000=
SPZO Ene2020-201630Z 28007KT 9999 SCT046 BKN100 17/05 Q1034 NOSIG RMK BIRD HAZARD RWY 28=
SPZO Ene2020-201700Z VRB01KT 9999 SCT046 BKN100 18/05 Q1034 NOSIG RMK BIRD HAZARD RWY 28 PP000=
SPZO Ene2020-201730Z 29012KT 9999 BKN046 BKN080 17/06 Q1033 NOSIG RMK TCU QUAD N BIRD HAZARD RWY 28=
SPZO Ene2020-201800Z 29013KT 9999 BKN046 BKN080 16/05 Q1033 NOSIG RMK TCU QUAD S BIRD HAZARD RWY 28 PP000=
SPZO Ene2020-201830Z 30008KT 280V020 9999 BKN046 BKN080 16/06 Q1031 NOSIG RMK TCU QUAD S BIRD HAZARD RWY 28=
SPZO Ene2020-201900Z 30006KT 270V360 9999 BKN046 BKN080 17/07 Q1031 NOSIG RMK BIRD HAZARD RWY 28 PP000=
SPZO Ene2020-201930Z 30004KT 260V010 9999 SCT043 OVC100 18/07 Q1030 NOSIG RMK BIRD HAZARD RWY 28=
SPZO Ene2020-202000Z 33003KT 280V010 9999 SCT043 OVC100 18/05 Q1030 NOSIG RMK TCU QUAD E BIRD HAZARD RWY 28 PP000=
SPZO Ene2020-202030Z VRB04KT 9999 SCT043 OVC100 17/06 Q1029 NOSIG RMK BIRD HAZARD RWY 28=
SPZO Ene2020-202100Z 09004KT 010V120 9999 SCT043 OVC100 17/06 Q1029 NOSIG RMK BIRD HAZARD RWY 28 PP000=
SPZO Ene2020-202130Z 11003KT 020V120 9999 FEW043 OVC100 17/05 Q1028 NOSIG RMK BIRD HAZARD RWY 28=
SPZO Ene2020-202200Z 11009KT 9999 FEW050 OVC100 16/06 Q1028 NOSIG RMK TX18.0 BIRD HAZARD RWY 28 PP000=
SPZO Ene2020-202230Z 11010KT 9999 SCT050 BKN100 15/06 Q1028 NOSIG RMK BIRD HAZARD RWY 28=
SPZO Ene2020-202300Z 12008KT 9999 SCT050 BKN100 15/06 Q1028 NOSIG RMK BIRD HAZARD RWY 28 PP000=
SPZO Ene2020-202330Z 10006KT 9999 FEW050 14/06 Q1029 NOSIG RMK BIRD HAZARD RWY 28=
SPZO Ene2020-210000Z 09002KT 9999 FEW100 14/06 Q1029 NOSIG RMK BIRD HAZARD RWY 28 PP000=
SPZO Ene2020-210030Z VRB01KT 9999 FEW100 13/06 Q1030 NOSIG RMK BIRD HAZARD RWY 28=
SPZO Ene2020-210100Z 29004KT 9999 SCT100 11/06 Q1031 NOSIG RMK BIRD HAZARD RWY 28 PP000=
SPZO Ene2020-210130Z 08002KT 9999 SCT100 12/06 Q1032 NOSIG RMK BIRD HAZARD RWY 28=
SPZO Ene2020-210200Z 12002KT 9999 FEW100 11/07 Q1032 NOSIG RMK BIRD HAZARD RWY 28 PP000=
SPZO Ene2020-210230Z 17002KT 9999 FEW100 12/06 Q1032 NOSIG RMK BIRD HAZARD RWY 28=
SPZO Ene2020-210300Z 11002KT 9999 FEW100 11/07 Q1032 NOSIG RMK BIRD HAZARD RWY 28 PP000=
SPZO Ene2020-210400Z 15002KT 9999 FEW100 11/06 Q1032 RMK BIRD HAZARD RWY 28 PP000=
SPZO Ene2020-210500Z 10002KT 9999 SCT040 BKN100 11/07 Q1032 RMK BIRD HAZARD RWY 28 PP000=
SPZO Ene2020-210600Z 28004KT 9999 DZ SCT040 BKN100 11/07 Q1031 RMK BIRD HAZARD RWY 28 PPTRZ=
SPZO Ene2020-210700Z 00000KT 9999 FEW040 BKN100 11/07 Q1030 RMK BIRD HAZARD RWY 28 PP000=
SPZO Ene2020-210800Z 09003KT 9999 RA SCT040 BKN100 11/08 Q1030 RMK BIRD HAZARD RWY 28 PP006=
SPZO Ene2020-210900Z 29003KT 9999 RA SCT040 BKN100 11/08 Q1030 RMK BIRD HAZARD RWY 28 PP016=
SPZO Ene2020-211000Z 28003KT 9999 RA SCT040 BKN100 11/08 Q1030 NOSIG RMK BIRD HAZARD RWY 28 PP024=
SPZO Ene2020-211030Z 26003KT 6000 RA FEW030 SCT046 BKN100 11/08 Q1031 NOSIG RMK BIRD HAZARD RWY 28=
SPZO Ene2020-211100Z 24001KT 6000 DZ FEW030 SCT046 OVC100 10/08 Q1031 NOSIG RMK BIRD HAZARD RWY 28 PP020=
SPZO Ene2020-211130Z 00000KT 8000 -RA VCSH FEW020 SCT040 OVC070 10/07 Q1031 NOSIG RMK BR BIRD HAZARD RWY 28=
SPZO Ene2020-211200Z VRB01KT 9000 DZ VCSH FEW020 SCT040 OVC070 11/08 Q1032 NOSIG RMK VIS 8000 QUAD NE BR TN09.4 BIRD HAZARD RWY 28 PP010=
SPZO Ene2020-211230Z 27002KT 9000 DZ VCSH FEW020 SCT036 OVC070 11/08 Q1032 NOSIG RMK VIS 8000 QUAD NE BR BIRD HAZARD RWY 28=
SPZO Ene2020-211300Z VRB02KT 9000 -DZ VCSH FEW010 SCT036 OVC070 11/08 Q1032 NOSIG RMK VIS 8000 QUAD NE BR BIRD HAZARD RWY 28 PP002=
SPZO Ene2020-211330Z 28007KT 9000 -DZ VCSH FEW010 SCT036 OVC070 12/07 Q1033 NOSIG RMK VIS 8000 QUAD NE BIRD HAZARD RWY 28=
SPZO Ene2020-211400Z 29007KT 9000 -DZ VCSH FEW010 SCT036 OVC070 12/08 Q1033 NOSIG RMK VIS 8000 QUAD NE BIRD HAZARD RWY 28 PPTRZ=
SPZO Ene2020-211430Z 29006KT 9999 FEW020 SCT036 OVC070 12/08 Q1033 NOSIG RMK BIRD HAZARD RWY 28=
SPZO Ene2020-211500Z 30006KT 9999 FEW020 SCT036 OVC070 12/07 Q1033 NOSIG RMK BIRD HAZARD RWY 28 PPTRZ=
SPZO Ene2020-211530Z 29008KT 9999 -DZ VCSH FEW020 SCT036 OVC070 13/07 Q1033 NOSIG RMK BIRD HAZARD RWY 28=
SPZO Ene2020-211600Z 31006KT 280V010 9999 -DZ VCSH FEW020 SCT036 OVC070 13/08 Q1033 NOSIG RMK VIS 9000 QUAD E RA BIRD HAZARD RWY 28=
SPZO Ene2020-211630Z 27004KT 9999 DZ VCSH FEW020 SCT036 OVC070 13/08 Q1032 NOSIG RMK VIS 9000 QUAD E RA BIRD HAZARD RWY 28=
SPZO Ene2020-211700Z 22004KT 180V270 9999 DZ VCSH FEW020 SCT036 OVC070 14/07 Q1032 NOSIG RMK VIS 9000 QUAD E RA BIRD HAZARD RWY 28=
SPZO Ene2020-211730Z 33002KT 9999 SCT036 OVC080 15/08 Q1031 NOSIG RMK BIRD HAZARD RWY 28=
SPZO Ene2020-211800Z 31003KT 9999 SCT036 OVC080 15/08 Q1030 NOSIG RMK BIRD HAZARD RWY 28 PP000=
SPZO Ene2020-211830Z 25003KT 9999 SCT036 OVC080 16/08 Q1029 NOSIG RMK BIRD HAZARD RWY 28=
SPZO Ene2020-211900Z 36002KT 9999 SCT036 OVC080 17/06 Q1029 NOSIG RMK BIRD HAZARD RWY 28 PP000=
SPZO Ene2020-211930Z 18005KT 9999 SCT046 BKN080 18/07 Q1028 NOSIG RMK BIRD HAZARD RWY 28=
SPZO Ene2020-212000Z 25004KT 9999 SCT046 BKN080 19/08 Q1028 NOSIG RMK BIRD HAZARD RWY 28 PP000=
SPZO Ene2020-212030Z 19003KT 9999 SCT046 BKN080 18/06 Q1027 NOSIG RMK BIRD HAZARD RWY 28=
SPZO Ene2020-212100Z 12011KT 9999 SCT040 BKN080 17/08 Q1027 NOSIG RMK BIRD HAZARD RWY 28 PP000=
SPZO Ene2020-212130Z 12010KT 9999 FEW040TCU SCT046 BKN080 16/07 Q1027 NOSIG RMK BIRD HAZARD RWY 28=
SPZO Ene2020-212200Z 11012KT 9999 FEW040TCU SCT046 OVC080 15/07 Q1027 NOSIG RMK TX19.1 BIRD HAZARD RWY 28 PP000=
SPZO Ene2020-212230Z 11005KT 9999 SCT046 BKN080 15/07 Q1025 NOSIG RMK BIRD HAZARD RWY 28=
SPZO Ene2020-212300Z 23003KT 9999 DZ SCT046 BKN080 13/08 Q1028 NOSIG RMK BIRD HAZARD RWY 28 PP076=
SPZO Ene2020-212330Z 00000KT 9999 SCT046 OVC100 13/09 Q1028 NOSIG RMK BIRD HAZARD RWY 28=
SPZO Ene2020-220000Z 00000KT 9999 SCT046 OVC100 13/09 Q1028 NOSIG RMK BIRD HAZARD RWY 28 PP000=
SPZO Ene2020-220030Z 33002KT 9999 SCT046 OVC100 13/08 Q1029 NOSIG RMK BIRD HAZARD RWY 28=
SPZO Ene2020-220100Z 00000KT 9999 SCT046 BKN100 12/09 Q1029 NOSIG RMK BIRD HAZARD RWY 28 PP000=
SPZO Ene2020-220130Z 29002KT 9999 SCT046 BKN100 12/10 Q1029 NOSIG RMK BIRD HAZARD RWY 28=
SPZO Ene2020-220200Z 27002KT 9999 SCT046 BKN100 12/09 Q1030 NOSIG RMK BIRD HAZARD RWY 28 PP000=
SPZO Ene2020-220230Z 19002KT 9999 SCT046 BKN100 12/09 Q1030 NOSIG RMK BIRD HAZARD RWY 28=
SPZO Ene2020-220300Z 00000KT 9999 SCT040 BKN080 13/09 Q1031 NOSIG RMK BIRD HAZARD RWY 28 PP000=
SPZO Ene2020-220400Z 28006KT 9999 -RA SCT040 BKN080 13/09 Q1031 RMK BIRD HAZARD RWY 28 PPTRZ=
SPZO Ene2020-220500Z 28005KT 9999 -RA SCT040 OVC080 11/08 Q1031 RMK BIRD HAZARD RWY 28 PP002=
SPZO Ene2020-220600Z 28002KT 7000 +RA BKN036 OVC080 10/07 Q1031 RMK CLNG BLW 1200M BIRD HAZARD RWY 28 PP090=
SPZO Ene2020-220700Z 00000KT 8000 RA BKN036 OVC080 10/08 Q1030 RMK CLNG BLW 1200M BIRD HAZARD RWY 28 PP030=
SPZO Ene2020-220800Z 00000KT 9000 -DZ BKN036 OVC080 09/07 Q1029 RMK CLNG BLW 1200M BIRD HAZARD RWY 28 PP004=
SPZO Ene2020-220900Z 00000KT 9000 FEW020 SCT036 OVC080 10/07 Q1029 RMK BIRD HAZARD RWY 28 PP000=
SPZO Ene2020-221000Z 10002KT 9999 FEW020 SCT036 BKN080 10/07 Q1029 NOSIG RMK BIRD HAZARD RWY 28 PP000=
SPZO Ene2020-221030Z 11003KT 9999 FEW020 SCT040 BKN080 10/08 Q1030 NOSIG RMK BIRD HAZARD RWY 28=
SPZO Ene2020-221100Z 09003KT 9999 FEW020 SCT040 BKN080 10/07 Q1030 NOSIG RMK BIRD HAZARD RWY 28 PP000=
SPZO Ene2020-221130Z 12005KT 9999 FEW015 SCT040 BKN080 10/08 Q1031 NOSIG RMK BIRD HAZARD RWY 28=
SPZO Ene2020-221200Z 08005KT 9999 FEW015 SCT040 BKN080 11/08 Q1031 NOSIG RMK TN9.3 BIRD HAZARD RWY 28 PP000=
SPZO Ene2020-221230Z 36002KT 9999 FEW020 SCT040 BKN080 12/08 Q1031 NOSIG RMK BIRD HAZARD RWY 28=
SPZO Ene2020-221300Z 20001KT 9999 FEW020 SCT040 BKN080 13/07 Q1032 NOSIG RMK BIRD HAZARD RWY 28 PP000=
SPZO Ene2020-221330Z 11001KT 9999 FEW020 SCT046 BKN100 13/07 Q1032 NOSIG RMK BIRD HAZARD RWY 28=
SPZO Ene2020-221400Z 10006KT 9999 FEW030 SCT046 BKN100 14/07 Q1032 NOSIG RMK BIRD HAZARD RWY 28 PP000=
SPZO Ene2020-221430Z 08004KT 9999 SCT036 BKN100 15/07 Q1031 NOSIG RMK BIRD HAZARD RWY 28=
SPZO Ene2020-221500Z 10004KT 9999 SCT040 BKN100 16/08 Q1031 NOSIG RMK BIRD HAZARD RWY 28 PP000=
SPZO Ene2020-221530Z 12005KT 9999 SCT040 BKN100 16/07 Q1030 NOSIG RMK BIRD HAZARD RWY 28=
SPZO Ene2020-221600Z 09007KT 9999 SCT046 BKN100 17/07 Q1030 NOSIG RMK BIRD HAZARD RWY 28 PP000=
SPZO Ene2020-221630Z 12010KT 9999 SCT046 BKN100 17/08 Q1029 NOSIG RMK BIRD HAZARD RWY 28=
SPZO Ene2020-221700Z 17004KT 9999 SCT050 BKN100 18/06 Q1029 NOSIG RMK BIRD HAZARD RWY 28 PP000=
SPZO Ene2020-221730Z 35004KT 290V050 9999 VCSH FEW040TCU SCT046 BKN080 19/06 Q1028 NOSIG RMK BIRD HAZARD RWY 28=
SPZO Ene2020-221800Z 01008KT 300V070 9000 -RA FEW040TCU SCT046 BKN080 15/08 Q1028 NOSIG RMK BIRD HAZARD RWY 28 PP021=
SPZO Ene2020-221830Z 29012KT 260V010 9999 FEW040TCU SCT046 BKN080 16/09 Q1028 NOSIG RMK BIRD HAZARD RWY 28=
SPZO Ene2020-221900Z 29010KT 9999 FEW040TCU SCT046 BKN080 17/09 Q1027 RERA NOSIG RMK BIRD HAZARD RWY 28 PPTRZ=
SPZO Ene2020-221930Z 29020KT 260V350 9999 FEW040TCU SCT046 BKN080 15/08 Q1027 NOSIG RMK BIRD HAZARD RWY 28=
SPZO Ene2020-222000Z 30019KT 270V360 9000 -RA FEW040TCU SCT046 BKN080 14/07 Q1027 NOSIG RMK BIRD HAZARD RWY 28 PPTRZ=
SPZO Ene2020-222030Z 27010KT 210V300 9000 -RA FEW040TCU SCT046 BKN080 12/09 Q1027 NOSIG RMK BIRD HAZARD RWY 28=
SPZO Ene2020-222100Z 28004KT 210V320 9999 VCSH FEW040TCU SCT046 BKN080 14/07 Q1027 NOSIG RMK BIRD HAZARD RWY 28 PP008=
SPZO Ene2020-222130Z 28003KT 9999 SCT046 BKN080 14/07 Q1027 NOSIG RMK BIRD HAZARD RWY 28=
SPZO Ene2020-222200Z 30003KT 9999 SCT046 BKN080 14/07 Q1027 RERA NOSIG RMK TX20.1 BIRD HAZARD RWY 28 PPTRZ=
SPZO Ene2020-222230Z 26002KT 9999 SCT043 BKN080 15/07 Q1027 NOSIG RMK BIRD HAZARD RWY 28=
SPZO Ene2020-222300Z 11003KT 9999 SCT043 BKN080 14/08 Q1027 NOSIG RMK BIRD HAZARD RWY 28 PP000=
SPZO Ene2020-222330Z 11005KT 9999 SCT046 BKN100 13/08 Q1028 NOSIG RMK BIRD HAZARD RWY 28=
SPZO Ene2020-230000Z 11006KT 9999 FEW040 SCT046 OVC080 13/08 Q1028 NOSIG RMK BIRD HAZARD RWY 28 PP000=
SPZO Ene2020-230030Z 10005KT 9999 SCT046 BKN080 13/07 Q1029 NOSIG RMK BIRD HAZARD RWY 28=
SPZO Ene2020-230100Z 11005KT 080V180 9999 SCT046 BKN080 13/07 Q1029 NOSIG RMK BIRD HAZARD RWY 28 PP000=
SPZO Ene2020-230130Z 10005KT 9999 SCT046 BKN080 13/07 Q1030 NOSIG RMK BIRD HAZARD RWY 28=
SPZO Ene2020-230200Z 12004KT 090V180 9999 SCT046 BKN080 13/06 Q1031 NOSIG RMK BIRD HAZARD RWY 28 PP000=
SPZO Ene2020-230230Z 10003KT 9999 SCT046 BKN080 13/06 Q1031 NOSIG RMK BIRD HAZARD RWY 28=
SPZO Ene2020-230300Z 11004KT 090V180 9999 SCT046 BKN080 12/08 Q1031 NOSIG RMK BIRD HAZARD RWY 28 PP000=
SPZO Ene2020-230400Z 11010KT 9999 SCT043 BKN080 11/07 Q1032 RMK PP000=
SPZO Ene2020-230500Z 13005KT 090V190 9999 SCT043 BKN080 11/07 Q1031 RMK PP000=
SPZO Ene2020-230600Z 10004KT 9999 SCT043 BKN080 10/07 Q1031 RMK PP000=
SPZO Ene2020-230700Z 11003KT 9999 DZ SCT043 BKN080 10/07 Q1031 RMK PP002=
SPZO Ene2020-230800Z 11002KT 9999 -RA VCSH SCT036 BKN080 10/07 Q1030 RMK PP012=
SPZO Ene2020-230900Z 10006KT 7000 RA SCT020 SCT036 OVC070 09/07 Q1031 RMK CLNG BLW 1200M PP002=
SPZO Ene2020-231000Z 11011KT 9000 -RA VCSH SCT020 SCT036 OVC070 08/06 Q1031 NOSIG RMK VIS 8000 QUAD E BR CLNG BLW 1200M =
SPZO Ene2020-231030Z 12007KT 8000 RA VCSH SCT010 SCT036 OVC070 08/06 Q1031 NOSIG RMK VIS 7000 QUAD E BR CLNG BLW 1200M BIRD HAZARD RWY 28=
SPZO Ene2020-231100Z 12007KT 090V180 5000 -RA BR SCT010 SCT030 OVC070 08/05 Q1032 NOSIG RMK CLNG BLW 1200M BIRD HAZARD RWY 28 PP012=
SPZO Ene2020-231130Z 11006KT 5000 -RA BR SCT010 SCT036 OVC070 08/06 Q1033 NOSIG RMK CLNG BLW 1200M BIRD HAZARD RWY 28=
SPZO Ene2020-231200Z 10005KT 7000 -RA SCT010 SCT036 OVC070 08/06 Q1033 NOSIG RMK TN07.5 CLNG BLW 1200M BIRD HAZARD RWY 28 PP010=
SPZO Ene2020-231230Z 12004KT 090V180 9999 FEW030 SCT036 BKN080 10/06 Q1034 NOSIG RMK BIRD HAZARD RWY 28=
SPZO Ene2020-231300Z 09004KT 010V120 9999 FEW030 SCT036 BKN080 10/06 Q1034 RERA NOSIG RMK BIRD HAZARD RWY 28 PPTRZ=
SPZO Ene2020-231330Z 09004KT 060V150 9999 FEW030 SCT036 BKN080 12/05 Q1034 NOSIG RMK BIRD HAZARD RWY 28=
SPZO Ene2020-231400Z 09005KT 020V120 9999 FEW030 SCT036 BKN080 13/06 Q1034 NOSIG RMK BIRD HAZARD RWY 28 PP000=
SPZO Ene2020-231430Z 06002KT 9999 SCT040 BKN080 13/06 Q1034 NOSIG RMK BIRD HAZARD RWY 28=
SPZO Ene2020-231500Z 10002KT 9999 SCT040 BKN080 14/06 Q1033 NOSIG RMK BIRD HAZARD RWY 28 PP000=
SPZO Ene2020-231530Z 10006KT 020V130 9999 SCT040 SCT100 16/08 Q1033 NOSIG RMK BIRD HAZARD RWY 28=
SPZO Ene2020-231600Z 09007KT 9999 FEW040TCU SCT046 BKN100 15/07 Q1032 NOSIG RMK BIRD HAZARD RWY 28 PP000=
SPZO Ene2020-231630Z 09006KT 030V140 9999 FEW040TCU SCT046 BKN080 15/06 Q1032 NOSIG RMK BIRD HAZARD RWY 28=
SPZO Ene2020-231700Z 10004KT 020V150 9999 VCSH FEW040TCU SCT046 BKN080 15/05 Q1032 NOSIG RMK BIRD HAZARD RWY 28 PP000=
SPZO Ene2020-231730Z VRB01KT 9999 VCSH FEW040TCU SCT046 BKN080 16/07 Q1031 NOSIG RMK BIRD HAZARD RWY 28=
SPZO Ene2020-231800Z 11004KT 9999 VCSH FEW040TCU SCT046 BKN080 17/08 Q1031 NOSIG RMK BIRD HAZARD RWY 28 PP000=
SPZO Ene2020-231830Z 36006KT 9999 VCSH FEW040TCU SCT046 BKN080 18/07 Q1029 NOSIG RMK BIRD HAZARD RWY 28=
SPZO Ene2020-231900Z 36007KT 9999 VCSH FEW040TCU SCT046 BKN080 17/06 Q1029 NOSIG RMK BIRD HAZARD RWY 28 PP000=
SPZO Ene2020-231930Z 11003KT 9999 VCSH FEW040TCU SCT046 BKN080 18/06 Q1028 NOSIG RMK BIRD HAZARD RWY 28=
SPZO Ene2020-232000Z VRB05KT 9999 VCSH FEW040TCU SCT046 BKN080 17/08 Q1028 NOSIG RMK BIRD HAZARD RWY 28 PP000=
SPZO Ene2020-232030Z VRB03KT 9999 SCT050 BKN080 17/06 Q1027 NOSIG RMK BIRD HAZARD RWY 28=
SPZO Ene2020-232100Z VRB01KT 9999 SCT050 BKN080 18/07 Q1027 NOSIG RMK BIRD HAZARD RWY 28 PP000=
SPZO Ene2020-232130Z VRB04KT 9999 SCT050 BKN080 19/07 Q1026 NOSIG RMK BIRD HAZARD RWY 28=
SPZO Ene2020-232200Z 02009KT 9999 SCT050 BKN080 18/06 Q1026 NOSIG RMK TX19.9 BIRD HAZARD RWY 28 PP000=
SPZO Ene2020-232230Z 01008KT 9999 SCT050 BKN080 18/06 Q1026 NOSIG RMK BIRD HAZARD RWY 28=
SPZO Ene2020-232300Z 02009KT 9999 SCT046 BKN080 17/06 Q1027 NOSIG RMK BIRD HAZARD RWY 28 PP000=
SPZO Ene2020-232330Z 02009KT 9999 SCT050 BKN100 16/05 Q1028 NOSIG RMK BIRD HAZARD RWY 28=
SPZO Ene2020-240000Z 02010KT 9999 SCT050 BKN100 15/05 Q1028 NOSIG RMK BIRD HAZARD RWY 28 PP000=
SPZO Ene2020-240030Z 03006KT 9999 SCT050 BKN100 15/05 Q1029 NOSIG RMK BIRD HAZARD RWY 28=
SPZO Ene2020-240100Z 04002KT 9999 SCT050 BKN100 14/06 Q1030 NOSIG RMK BIRD HAZARD RWY 28 PP000=
SPZO Ene2020-240130Z 09004KT 9999 SCT050 BKN100 13/07 Q1030 NOSIG RMK BIRD HAZARD RWY 28=
SPZO Ene2020-240200Z 09003KT 9999 SCT050 BKN100 12/07 Q1031 NOSIG RMK BIRD HAZARD RWY 28 PP000=
SPZO Ene2020-240300Z VRB01KT 9999 SCT050 BKN100 13/07 Q1031 NOSIG RMK BIRD HAZARD RWY 28 PP000=
SPZO Ene2020-240400Z 10005KT 9999 SCT050 BKN100 12/07 Q1031 RMK BIRD HAZARD RWY 28 PP000=
SPZO Ene2020-240500Z 10005KT 9999 -RA SCT050 BKN100 11/08 Q1031 RMK BIRD HAZARD RWY 28 PPTRZ=
SPZO Ene2020-240600Z 12002KT 9999 SCT050 BKN100 11/08 Q1031 RMK BIRD HAZARD RWY 28 PPTRZ=
SPZO Ene2020-240700Z 11001KT 9999 SCT050 BKN100 11/08 Q1030 RMK BIRD HAZARD RWY 28 PP000=
SPZO Ene2020-240800Z 00000KT 9999 -RA SCT050 BKN100 11/08 Q1030 RMK BIRD HAZARD RWY 28 PPTRZ=
SPZO Ene2020-240900Z 00000KT 9999 -RA SCT050 BKN100 11/08 Q1030 RMK BIRD HAZARD RWY 28 PP010=
SPZO Ene2020-241000Z 00000KT 9999 -RA SCT050 BKN080 11/08 Q1031 NOSIG RMK BIRD HAZARD RWY 28 PP010=
SPZO Ene2020-241030Z 09002KT 9999 SCT050 BKN100 11/08 Q1031 NOSIG RMK BIRD HAZARD RWY 28=
SPZO Ene2020-241100Z 11003KT 9999 DZ SCT040 BKN080 10/08 Q1032 NOSIG RMK BIRD HAZARD RWY 28 PP000=
SPZO Ene2020-241130Z 09004KT 9999 SCT046 BKN080 10/07 Q1032 NOSIG RMK BIRD HAZARD RWY 28=
SPZO Ene2020-241200Z 09004KT 9999 SCT046 BKN080 10/07 Q1033 REDZ NOSIG RMK TN8.1 BIRD HAZARD RWY 28 PP002=
SPZO Ene2020-241230Z 00000KT 9999 SCT050 BKN080 11/08 Q1033 NOSIG RMK BIRD HAZARD RWY 28=
SPZO Ene2020-241300Z 00000KT 9999 SCT050 BKN100 13/07 Q1033 NOSIG RMK BIRD HAZARD RWY 28 PP000=
SPZO Ene2020-241330Z 08004KT 9999 SCT040 BKN100 14/07 Q1034 NOSIG RMK BIRD HAZARD RWY 28=
SPZO Ene2020-241400Z 07003KT 9999 SCT040 BKN100 15/07 Q1034 NOSIG RMK BIRD HAZARD RWY 28 PP000=
SPZO Ene2020-241430Z 09006KT 9999 SCT040 BKN100 15/07 Q1034 NOSIG RMK BIRD HAZARD RWY 28=
SPZO Ene2020-241500Z 08004KT 9999 SCT046 BKN100 15/06 Q1034 NOSIG RMK BIRD HAZARD RWY 28 PP000=
SPZO Ene2020-241530Z 12005KT 9999 SCT046 BKN100 15/06 Q1033 NOSIG RMK BIRD HAZARD RWY 28=
SPZO Ene2020-241600Z 11004KT 9999 SCT046 BKN100 15/06 Q1033 NOSIG RMK BIRD HAZARD RWY 28 PP000=
SPZO Ene2020-241630Z VRB02KT 9999 SCT046 BKN100 17/08 Q1032 NOSIG RMK BIRD HAZARD RWY 28=
SPZO Ene2020-241700Z 29004KT 9999 SCT050 SCT100 18/07 Q1032 NOSIG RMK BIRD HAZARD RWY 28 PP000=
SPZO Ene2020-241730Z 02005KT 9999 SCT046 BKN100 18/06 Q1031 NOSIG RMK BIRD HAZARD RWY 28=
SPZO Ene2020-241800Z 01009KT 9999 SCT046 BKN100 19/05 Q1031 NOSIG RMK BIRD HAZARD RWY 28 PP000=
SPZO Ene2020-241830Z 01012KT 9999 SCT050 BKN150 19/05 Q1030 NOSIG RMK BIRD HAZARD RWY 28=
SPZO Ene2020-241900Z 01009KT 9999 SCT050 BKN150 19/06 Q1029 NOSIG RMK BIRD HAZARD RWY 28 PP000=
SPZO Ene2020-241930Z 02006KT 9999 SCT050 BKN150 20/05 Q1029 NOSIG RMK BIRD HAZARD RWY 28=
SPZO Ene2020-242000Z 02008KT 9999 SCT050 BKN200 19/05 Q1028 NOSIG RMK BIRD HAZARD RWY 28 PP000=
SPZO Ene2020-242030Z 36007KT 9999 FEW050 SCT200 20/04 Q1028 NOSIG RMK BIRD HAZARD RWY 28=
SPZO Ene2020-242100Z 01007KT 9999 SCT050 20/04 Q1027 NOSIG RMK BIRD HAZARD RWY 28 PP000=
SPZO Ene2020-242130Z 01007KT 320V360 9999 SCT050 19/05 Q1027 NOSIG RMK BIRD HAZARD RWY 28=
SPZO Ene2020-242200Z 01007KT 9999 SCT050 19/04 Q1027 NOSIG RMK TN20.0 BIRD HAZARD RWY 28 PP000=
SPZO Ene2020-242230Z 03009KT 030V090 9999 SCT050 18/05 Q1027 NOSIG RMK BIRD HAZARD RWY 28=
SPZO Ene2020-242300Z 12008KT 080V180 9999 SCT050 17/06 Q1027 NOSIG RMK BIRD HAZARD RWY 28 PP000=
SPZO Ene2020-242330Z 11006KT 090V180 9999 FEW050 SCT100 16/06 Q1028 NOSIG RMK BIRD HAZARD RWY 28=
SPZO Ene2020-250000Z 09004KT 010V120 9999 FEW050 SCT100 15/06 Q1029 NOSIG RMK BIRD HAZARD RWY 28 PP000=
SPZO Ene2020-250030Z 06005KT 360V070 9999 FEW050 SCT100 15/06 Q1029 NOSIG RMK BIRD HAZARD RWY 28=
SPZO Ene2020-250100Z 07003KT 010V100 9999 FEW050 SCT100 14/06 Q1030 NOSIG RMK BIRD HAZARD RWY 28 PP000=
SPZO Ene2020-250130Z 10004KT 9999 FEW050 SCT100 13/06 Q1031 NOSIG RMK BIRD HAZARD RWY 28=
SPZO Ene2020-250200Z 11003KT 080V170 9999 FEW050 SCT100 13/06 Q1031 NOSIG RMK BIRD HAZARD RWY 28 PP000=
SPZO Ene2020-250230Z 07002KT 9999 FEW050 SCT100 12/06 Q1032 NOSIG RMK BIRD HAZARD RWY 28=
SPZO Ene2020-250300Z 00000KT 9999 FEW050 SCT100 12/07 Q1032 RMK PP000=
SPZO Ene2020-250400Z 09004KT 9999 FEW050 SCT100 10/07 Q1033 RMK PP000=
SPZO Ene2020-250500Z 11003KT 9999 SCT050 SCT100 10/06 Q1032 RMK PP000=
SPZO Ene2020-250600Z 00000KT 9999 SCT050 SCT100 10/07 Q1032 RMK PP000=
SPZO Ene2020-250700Z 10003KT 9999 SCT046 SCT080 10/06 Q1032 RMK PP000=
SPZO Ene2020-250800Z 08003KT 9999 SCT046 SCT080 09/06 Q1031 RMK PP000=
SPZO Ene2020-250900Z 09002KT 9999 SCT046 SCT080 08/06 Q1031 RMK BIRD HAZARD RWY 28 PP000=
SPZO Ene2020-251000Z 11003KT 9999 SCT046 SCT080 08/05 Q1032 NOSIG RMK BIRD HAZARD RWY 28 PP000=
SPZO Ene2020-251030Z 22002KT 9999 FEW050 SCT100 09/06 Q1032 NOSIG RMK BIRD HAZARD RWY 28=
SPZO Ene2020-251100Z 09002KT 9999 FEW050 SCT100 09/05 Q1033 NOSIG RMK BIRD HAZARD RWY 28 PP000=
SPZO Ene2020-251130Z 11002KT 9999 FEW050 SCT100 10/06 Q1034 NOSIG RMK BIRD HAZARD RWY 28=
SPZO Ene2020-251200Z 00000KT 9999 FEW050 SCT100 11/06 Q1034 NOSIG RMK TN7.4 BIRD HAZARD RWY 28 PP000=
SPZO Ene2020-251230Z 08004KT 9999 SCT050 12/07 Q1034 NOSIG RMK BIRD HAZARD RWY 28=
SPZO Ene2020-251300Z VRB02KT 9999 SCT050 14/08 Q1035 NOSIG RMK BIRD HAZARD RWY 28 PP000=
SPZO Ene2020-251330Z VRB02KT 9999 SCT046 SCT080 14/06 Q1035 NOSIG RMK BIRD HAZARD RWY 28=
SPZO Ene2020-251400Z 13003KT 9999 SCT046 SCT080 14/06 Q1035 NOSIG RMK BIRD HAZARD RWY 28 PP000=
SPZO Ene2020-251430Z 07005KT 9999 SCT046 SCT080 15/07 Q1035 NOSIG RMK BIRD HAZARD RWY 28=
SPZO Ene2020-251500Z 12003KT 9999 SCT046 SCT080 16/06 Q1034 NOSIG RMK BIRD HAZARD RWY 28 PP000=
SPZO Ene2020-251530Z VRB04KT 9999 SCT046 18/07 Q1034 NOSIG RMK BIRD HAZARD RWY 28=
SPZO Ene2020-251600Z 04002KT 9999 SCT050 20/07 Q1033 NOSIG RMK BIRD HAZARD RWY 28 PP000=
SPZO Ene2020-251630Z 04004KT 9999 SCT046 20/05 Q1033 NOSIG RMK BIRD HAZARD RWY 28=
SPZO Ene2020-251700Z 01008KT 9999 SCT050 21/02 Q1032 NOSIG RMK BIRD HAZARD RWY 28 PP000=
SPZO Ene2020-251730Z 02007KT 350V090 9999 SCT050 21/04 Q1031 NOSIG RMK BIRD HAZARD RWY 28=
SPZO Ene2020-251800Z 03007KT 310V090 9999 SCT050 21/05 Q1031 NOSIG RMK BIRD HAZARD RWY 28 PP000=
SPZO Ene2020-251830Z 03010KT 360V090 9999 SCT050 22/04 Q1030 NOSIG RMK BIRD HAZARD RWY 28=
SPZO Ene2020-251900Z 08010KT 020V100 9999 SCT050 22/04 Q1029 NOSIG RMK BIRD HAZARD RWY 28 PP000=
SPZO Ene2020-251930Z 05010KT 360V100 9999 SCT050 22/04 Q1029 NOSIG RMK BIRD HAZARD RWY 28=
SPZO Ene2020-252000Z 03010KT 360V090 9999 SCT050 22/04 Q1029 NOSIG RMK BIRD HAZARD RWY 28 PP000=
SPZO Ene2020-252030Z 03010KT 9999 FEW043TCU SCT050 21/04 Q1028 NOSIG RMK TCU QUAD S BIRD HAZARD RWY 28=
SPZO Ene2020-252100Z 02009KT 330V090 9999 SCT050 20/05 Q1028 NOSIG RMK TCU QUAD S BIRD HAZARD RWY 28 PP000=
SPZO Ene2020-252130Z 02009KT 330V090 9999 SCT050 19/04 Q1028 NOSIG RMK TCU QUAD S BIRD HAZARD RWY 28=
SPZO Ene2020-252200Z 02007KT 360V090 9999 FEW043TCU SCT050 19/04 Q1028 NOSIG RMK TCU QUAD SE TX22.3 BIRD HAZARD RWY 28 PP000=
SPZO Ene2020-252230Z VRB03KT 9999 FEW040TCU SCT046 BKN100 19/04 Q1029 NOSIG RMK TCU QUAD SE BIRD HAZARD RWY 28=
SPZO Ene2020-252300Z 17006KT 110V260 9999 SCT046 BKN100 18/04 Q1029 NOSIG RMK BIRD HAZARD RWY 28 PP000=
SPZO Ene2020-252330Z 35004KT 9999 SCT050 17/04 Q1030 NOSIG RMK BIRD HAZARD RWY 28=
SPZO Ene2020-260000Z 15002KT 9999 SCT050 16/04 Q1031 NOSIG RMK BIRD HAZARD RWY 28 PP000=
SPZO Ene2020-260030Z 10004KT 9999 SCT050 14/05 Q1031 NOSIG RMK BIRD HAZARD RWY 28=
SPZO Ene2020-260100Z 00000KT 9999 SCT050 14/06 Q1032 NOSIG RMK BIRD HAZARD RWY 28 PP000=
SPZO Ene2020-260130Z 28003KT 9999 SCT050 13/06 Q1032 NOSIG RMK BIRD HAZARD RWY 28=
SPZO Ene2020-260200Z VRB03KT 9999 FEW060 13/06 Q1033 NOSIG RMK BIRD HAZARD RWY 28 PP000=
SPZO Ene2020-260300Z VRB01KT 9999 FEW060 12/06 Q1033 NOSIG RMK BIRD HAZARD RWY 28 PP000=
SPZO Ene2020-260400Z 13002KT 9999 FEW050 12/06 Q1034 RMK BIRD HAZARD RWY 28 PP000=
SPZO Ene2020-260500Z 13003KT 9999 NSC 12/06 Q1033 RMK BIRD HAZARD RWY 28 PP000=
SPZO Ene2020-260600Z 10004KT 9999 NSC 11/07 Q1033 RMK BIRD HAZARD RWY 28 PP000=
SPZO Ene2020-260700Z 00000KT 9999 SCT100 11/07 Q1032 RMK BIRD HAZARD RWY 28 PP000=
SPZO Ene2020-260800Z VRB01KT 9999 SCT100 10/06 Q1032 RMK BIRD HAZARD RWY 28 PP000=
SPZO Ene2020-260900Z 08005KT 9999 SCT050 09/06 Q1032 RMK BIRD HAZARD RWY 28 PP000=
SPZO Ene2020-261000Z 09003KT 9999 SCT050 09/06 Q1033 NOSIG RMK BIRD HAZARD RWY 28 PP000=
SPZO Ene2020-261030Z 09003KT 9999 SCT050 BKN100 08/06 Q1033 NOSIG RMK BIRD HAZARD RWY 28=
SPZO Ene2020-261100Z 11002KT 9999 SCT050 BKN100 09/06 Q1034 NOSIG RMK BIRD HAZARD RWY 28 PP000=
SPZO Ene2020-261130Z 00000KT 9999 SCT043 SCT080 09/06 Q1035 NOSIG RMK BR QUAD NE BIRD HAZARD RWY 28=
SPZO Ene2020-261200Z VRB01KT 9999 SCT043 SCT080 10/06 Q1035 NOSIG RMK TN08.2 BIRD HAZARD RWY 28 PP000=
SPZO Ene2020-261230Z VRB02KT 9999 SCT043 SCT080 13/07 Q1035 NOSIG RMK BIRD HAZARD RWY 28=
SPZO Ene2020-261300Z VRB02KT 9999 SCT043 14/07 Q1035 NOSIG RMK BIRD HAZARD RWY 28 PP000=
SPZO Ene2020-261330Z VRB03KT 9999 SCT043 15/07 Q1035 NOSIG RMK BIRD HAZARD RWY 28=
SPZO Ene2020-261400Z VRB02KT 9999 SCT043 16/07 Q1035 NOSIG RMK BIRD HAZARD RWY 28 PP000=
SPZO Ene2020-261430Z VRB03KT 9999 SCT046 17/07 Q1034 NOSIG RMK BIRD HAZARD RWY 28=
SPZO Ene2020-261500Z VRB03KT 9999 SCT046 18/05 Q1034 NOSIG RMK BIRD HAZARD RWY 28 PP000=
SPZO Ene2020-261530Z VRB02KT 9999 SCT046 20/05 Q1034 NOSIG RMK BIRD HAZARD RWY 28=
SPZO Ene2020-261600Z 13001KT 9999 SCT046 SCT080 21/06 Q1033 NOSIG RMK BIRD HAZARD RWY 28 PP000=
SPZO Ene2020-261630Z 09010KT 9999 SCT046 SCT080 21/04 Q1033 NOSIG RMK BIRD HAZARD RWY 28=
SPZO Ene2020-261700Z VRB03KT 9999 SCT046 22/05 Q1032 NOSIG RMK BIRD HAZARD RWY 28 PP000=
SPZO Ene2020-261730Z 06007KT 010V100 9999 FEW046 SCT080 22/04 Q1032 NOSIG RMK BIRD HAZARD RWY 28=
SPZO Ene2020-261800Z 35003KT 9999 FEW046 SCT080 22/04 Q1031 NOSIG RMK PP000=
SPZO Ene2020-261830Z 22003KT 9999 FEW046 SCT080 23/02 Q1030 NOSIG RMK BIRD HAZARD RWY28=
SPZO Ene2020-261900Z 02006KT 290V060 9999 FEW046 SCT080 22/04 Q1030 NOSIG RMK BIRD HAZARD RWY 28 PP000=
SPZO Ene2020-261930Z 04009KT 010V090 9999 FEW046 SCT080 23/03 Q1029 NOSIG RMK BIRD HAZARD RWY 28=
SPZO Ene2020-262000Z 03011KT 010V100 9999 FEW046 SCT080 23/02 Q1028 NOSIG RMK BIRD HAZARD RWY 28 PP000=
SPZO Ene2020-262030Z 03011KT 360V090 9999 FEW050 SCT100 22/05 Q1028 NOSIG RMK BIRD HAZARD RWY 28=
SPZO Ene2020-262100Z 03012KT 350V080 9999 FEW050 SCT100 22/05 Q1028 NOSIG RMK TCU QUAD S BIRD HAZARD RWY 28 PP000=
SPZO Ene2020-262130Z 04011KT 010V090 9999 FEW050 SCT100 20/04 Q1028 NOSIG RMK BIRD HAZARD RWY 28=
SPZO Ene2020-262200Z 02009KT 350V090 9999 FEW050 SCT100 20/04 Q1028 NOSIG RMK TX23.8 BIRD HAZARD RWY 28 PP000=
SPZO Ene2020-262230Z 02006KT 300V040 9999 FEW050 SCT100 19/04 Q1028 NOSIG RMK BIRD HAZARD RWY 28=
SPZO Ene2020-262300Z 03005KT 330V090 9999 FEW050 SCT100 18/04 Q1028 NOSIG RMK BIRD HAZARD RWY 28 PP000=
SPZO Ene2020-262330Z 36007KT 9999 FEW050 17/04 Q1029 NOSIG RMK BIRD HAZARD RWY 28=
SPZO Ene2020-270000Z 36007KT 9999 FEW050 17/04 Q1030 NOSIG RMK BIRD HAZARD RWY 28 PP000=
SPZO Ene2020-270030Z 03005KT 9999 FEW050 16/04 Q1031 NOSIG RMK BIRD HAZARD RWY 28=
SPZO Ene2020-270100Z 08004KT 9999 FEW050 15/05 Q1031 NOSIG RMK BIRD HAZARD RWY 28 PP000=
SPZO Ene2020-270130Z 27001KT 9999 FEW050 14/05 Q1032 NOSIG RMK BIRD HAZARD RWY 28=
SPZO Ene2020-270200Z VRB01KT 9999 SCT050 14/04 Q1033 NOSIG RMK BIRD HAZARD RWY 28 PP000=
SPZO Ene2020-270230Z 25002KT 9999 SCT050 SCT080 14/06 Q1033 NOSIG RMK BIRD HAZARD RWY 28=
SPZO Ene2020-270300Z 28001KT 9999 SCT050 SCT080 13/06 Q1034 NOSIG RMK BIRD HAZARD RWY 28 PP000=
SPZO Ene2020-270400Z 11006KT 9999 SCT050 SCT080 12/06 Q1034 RMK BIRD HAZARD RWY 28 PP000=
SPZO Ene2020-270500Z 10002KT 9999 SCT050 SCT080 12/06 Q1034 RMK BIRD HAZARD RWY 28 PP000=
SPZO Ene2020-270600Z VRB01KT 9999 SCT050 10/06 Q1033 RMK BIRD HAZARD RWY 28 PP000=
SPZO Ene2020-270700Z 00000KT 9999 SCT050 09/05 Q1033 RMK BIRD HAZARD RWY 28 PP000=
SPZO Ene2020-270800Z 10002KT 9999 FEW050 08/05 Q1033 RMK BIRD HAZARD RWY 28 PP000=
SPZO Ene2020-270900Z 00000KT 9999 FEW050 09/05 Q1033 RMK BIRD HAZARD RWY 28 PP000=
SPZO Ene2020-271000Z 06002KT 9999 FEW050 08/04 Q1033 NOSIG RMK BIRD HAZARD RWY 28 PP000=
SPZO Ene2020-271030Z 24001KT 9999 FEW070 08/05 Q1034 NOSIG RMK BIRD HAZARD RWY 28=
SPZO Ene2020-271100Z 30001KT 9999 SCT050 07/04 Q1034 NOSIG RMK BIRD HAZARD RWY 28 PP000=
SPZO Ene2020-271130Z 12003KT 9999 FEW050 SCT100 09/05 Q1034 NOSIG RMK BIRD HAZARD RWY 28=
SPZO Ene2020-271200Z 10005KT 9999 FEW050 SCT100 09/06 Q1034 NOSIG RMK TN07.2 BIRD HAZARD RWY 28 PP000=
SPZO Ene2020-271230Z 09004KT 9999 FEW050 SCT100 11/06 Q1034 NOSIG RMK BIRD HAZARD RWY 28=
SPZO Ene2020-271300Z 09003KT 020V140 9999 FEW050 SCT100 12/06 Q1034 NOSIG RMK BIRD HAZARD RWY 28 PP000=
SPZO Ene2020-271330Z 11002KT 9999 FEW050 SCT100 14/06 Q1034 NOSIG RMK BKN230 BIRD HAZARD RWY 28=
SPZO Ene2020-271400Z 15002KT 9999 FEW050 SCT100 15/07 Q1034 NOSIG RMK BKN230 BIRD HAZARD RWY 28 PP000=
SPZO Ene2020-271430Z 20002KT 9999 FEW046 SCT100 17/06 Q1034 NOSIG RMK BIRD HAZARD RWY 28=
SPZO Ene2020-271500Z 25003KT 9999 FEW046 SCT100 17/05 Q1034 NOSIG RMK BIRD HAZARD RWY 28 PP000=
SPZO Ene2020-271530Z 25003KT 9999 FEW046 SCT100 19/05 Q1033 NOSIG RMK BIRD HAZARD RWY 28=
SPZO Ene2020-271600Z 01003KT 270V020 9999 FEW046 SCT100 19/06 Q1033 NOSIG RMK BIRD HAZARD RWY 28 PP000=
SPZO Ene2020-271630Z 11005KT 020V130 9999 FEW046 SCT100 21/03 Q1032 NOSIG RMK BIRD HAZARD RWY 28=
SPZO Ene2020-271700Z 26004KT 9999 FEW046 SCT100 22/04 Q1031 NOSIG RMK BIRD HAZARD RWY 28 PP000=
SPZO Ene2020-271730Z 23005KT 170V260 9999 FEW046 SCT080 22/04 Q1030 NOSIG RMK BIRD HAZARD RWY 28=
SPZO Ene2020-271800Z 14004KT 9999 FEW046 SCT080 23/03 Q1030 NOSIG RMK BIRD HAZARD RWY 28 PP000=
SPZO Ene2020-271830Z 01008KT 330V080 9999 FEW046 SCT080 24/02 Q1029 NOSIG RMK BIRD HAZARD RWY 28=
SPZO Ene2020-271900Z 03010KT 350V090 9999 FEW046 SCT080 24/M00 Q1029 NOSIG RMK BIRD HAZARD RWY 28 PP000=
SPZO Ene2020-271930Z 02009KT 300V040 9999 FEW046 SCT100 23/M00 Q1028 NOSIG RMK BIRD HAZARD RWY 28=
SPZO Ene2020-272000Z 03007G18KT 330V080 9999 FEW046 SCT100 23/01 Q1028 NOSIG RMK BIRD HAZARD RWY 28 PP000=
SPZO Ene2020-272030Z 05010G21KT 360V090 9999 FEW043TCU SCT100 22/03 Q1027 NOSIG RMK BIRD HAZARD RWY 28=
SPZO Ene2020-272100Z 02008KT 350V090 9999 FEW043TCU SCT050 BKN100 21/01 Q1027 NOSIG RMK BIRD HAZARD RWY 28 PP000=
SPZO Ene2020-272130Z 01008KT 290V040 9999 FEW043TCU SCT050 BKN100 20/02 Q1027 NOSIG RMK BIRD HAZARD RWY 28=
SPZO Ene2020-272200Z 33004KT 9999 FEW043TCU SCT050 BKN100 20/02 Q1028 NOSIG RMK TX24.1 BIRD HAZARD RWY 28 PP000=
SPZO Ene2020-272230Z 02007KT 350V090 9999 FEW050 BKN100 19/04 Q1027 NOSIG RMK TCU QUAD S BIRD HAZARD RWY 28=
SPZO Ene2020-272300Z 01008KT 290V030 9999 FEW050 BKN100 18/04 Q1028 NOSIG RMK TCU QUAD S BIRD HAZARD RWY 28 PP000=
SPZO Ene2020-272330Z 36009KT 9999 SCT046 BKN080 18/03 Q1028 NOSIG RMK TCU QUAD S MOV N BIRD HAZARD RWY 28=
SPZO Ene2020-280000Z VRB03KT 9999 SCT046 SCT080 17/04 Q1029 NOSIG RMK TCU QUAD N BIRD HAZARD RWY 28 PP000=
SPZO Ene2020-280030Z 04005KT 010V120 9999 SCT046 SCT080 16/06 Q1030 NOSIG RMK LTG DSNT SE BIRD HAZARD RWY 28=
SPZO Ene2020-280100Z 07004KT 010V130 9999 SCT046 SCT080 16/06 Q1031 NOSIG RMK LTG DSNT SE BIRD HAZARD RWY 28 PP000=
SPZO Ene2020-280130Z 22010G22KT 170V270 8000 +RA VCSH SCT040 BKN070 14/05 Q1033 NOSIG RMK LTG DSNT SW BIRD HAZARD RWY 28=
SPZO Ene2020-280200Z 25012KT 180V270 8000 TSRA VCSH SCT040 FEW046CB BKN070 11/05 Q1034 NOSIG RMK TS QUAD N BIRD HAZARD RWY 28 PP026=
SPZO Ene2020-280230Z 01006KT 330V080 8000 -TSRA VCSH SCT036 FEW046CB BKN070 10/06 Q1035 NOSIG RMK TS QUAD N BIRD HAZARD RWY 28=
SPZO Ene2020-280300Z VRB02KT 8000 -RA VCSH SCT036 OVC070 10/06 Q1036 NOSIG RMK BIRD HAZARD RWY 28 PP040=
SPZO Ene2020-280400Z 26004KT 8000 -RA VCSH SCT036 OVC070 09/06 Q1036 RMK PP058=
SPZO Ene2020-280500Z 26004KT 9000 -RA VCSH SCT036 OVC070 09/06 Q1035 RMK PP002=
SPZO Ene2020-280600Z 00000KT 9999 DZ SCT036 OVC070 09/06 Q1034 RMK PP006=
SPZO Ene2020-280700Z VRB01KT 9999 -DZ SCT036 OVC070 09/06 Q1034 RMK PP004=
SPZO Ene2020-280800Z VRB01KT 9999 -DZ FEW020 SCT036 OVC070 09/06 Q1033 RMK PP002=
SPZO Ene2020-280900Z 27003KT 180V290 9999 FEW020 SCT036 BKN080 09/06 Q1032 RMK PPTRZ=
SPZO Ene2020-281000Z 09003KT 9999 FEW020 SCT036 BKN080 09/06 Q1033 NOSIG RMK BR BIRD HAZARD RWY 28 PP000=
SPZO Ene2020-281030Z 11004KT 9999 FEW020 SCT036 BKN080 08/05 Q1033 NOSIG RMK BR BIRD HAZARD RWY 28=
SPZO Ene2020-281100Z 11003KT 9999 FEW010 SCT036 BKN100 08/06 Q1033 NOSIG RMK VIS 9000 QUAD W BR BIRD HAZARD RWY 28 PP000=
SPZO Ene2020-281130Z 08002KT 9999 FEW025 SCT036 BKN080 09/06 Q1034 NOSIG RMK BR QUAD NE BIRD HAZARD RWY 28=
SPZO Ene2020-281200Z 10002KT 9999 FEW025 SCT036 BKN080 09/07 Q1034 NOSIG RMK TN08.2 BR QUAD NE BIRD HAZARD RWY 28 PP000=
SPZO Ene2020-281230Z 08003KT 360V090 9999 FEW030 SCT036 BKN080 10/07 Q1034 NOSIG RMK BIRD HAZARD RWY 28=
SPZO Ene2020-281300Z 14002KT 9999 FEW030 SCT040 BKN080 11/07 Q1034 NOSIG RMK BIRD HAZARD RWY 28 PP000=
SPZO Ene2020-281330Z 10003KT 010V120 9999 FEW030 SCT040 BKN080 12/07 Q1034 NOSIG RMK BIRD HAZARD RWY 28=
SPZO Ene2020-281400Z 11002KT 9999 FEW030 SCT040 BKN080 13/07 Q1034 NOSIG RMK BIRD HAZARD RWY 28 PP000=
SPZO Ene2020-281430Z 29002KT 9999 SCT040 BKN080 15/07 Q1034 NOSIG RMK BIRD HAZARD RWY 28=
SPZO Ene2020-281500Z 27002KT 9999 SCT040 BKN080 14/06 Q1033 NOSIG RMK BIRD HAZARD RWY 28 PP000=
SPZO Ene2020-281530Z 20002KT 9999 SCT040 BKN080 15/06 Q1033 NOSIG RMK BIRD HAZARD RWY 28=
SPZO Ene2020-281600Z 09002KT 9999 SCT040 BKN080 15/05 Q1033 NOSIG RMK BIRD HAZARD RWY 28 PP000=
SPZO Ene2020-281630Z 26002KT 9999 SCT040 BKN080 16/06 Q1032 NOSIG RMK BIRD HAZARD RWY 28=
SPZO Ene2020-281700Z 31002KT 9999 SCT043 BKN100 16/07 Q1031 NOSIG RMK BIRD HAZARD RWY 28 PP000=
SPZO Ene2020-281730Z 25004KT 180V250 9999 SCT043 BKN100 17/06 Q1030 NOSIG RMK BIRD HAZARD RWY 28=
SPZO Ene2020-281800Z 31005KT 260V350 9999 SCT046 BKN100 18/07 Q1029 NOSIG RMK BIRD HAZARD RWY 28 PP000=
SPZO Ene2020-281830Z 32003KT 9999 SCT046 BKN100 19/04 Q1029 NOSIG RMK BIRD HAZARD RWY 28=
SPZO Ene2020-281900Z 34003KT 9999 SCT046 BKN100 19/08 Q1028 NOSIG RMK BIRD HAZARD RWY 28 PP000=
SPZO Ene2020-281930Z 31005KT 9999 SCT046 BKN100 19/04 Q1027 NOSIG RMK BIRD HAZARD RWY 28=
SPZO Ene2020-282000Z 29010KT 9999 SCT046 BKN100 20/07 Q1027 NOSIG RMK BIRD HAZARD RWY 28 PP000=
SPZO Ene2020-282030Z 27010KT 9999 SCT046 BKN100 19/07 Q1026 NOSIG RMK BIRD HAZARD RWY 28=
SPZO Ene2020-282100Z 29009KT 9999 SCT046 BKN100 19/07 Q1026 NOSIG RMK BIRD HAZARD RWY 28 PP000=
SPZO Ene2020-282130Z 29012KT 9999 SCT046 BKN100 18/07 Q1025 NOSIG RMK BIRD HAZARD RWY 28=
SPZO Ene2020-282200Z 29014KT 9999 FEW050 BKN100 18/04 Q1025 NOSIG RMK TX19.8 BIRD HAZARD RWY 28 PP000=
SPZO Ene2020-282230Z 29011KT 9999 FEW050 BKN100 17/04 Q1026 NOSIG RMK BIRD HAZARD RWY 28=
SPZO Ene2020-282300Z 30009KT 270V020 9999 FEW050 BKN100 17/05 Q1026 NOSIG RMK BIRD HAZARD RWY 28 PP000=
SPZO Ene2020-282330Z 29011KT 9999 FEW050 BKN100 16/06 Q1027 NOSIG RMK BIRD HAZARD RWY 28=
SPZO Ene2020-290000Z 35006KT 9999 SCT050 BKN100 15/07 Q1028 NOSIG RMK BIRD HAZARD RWY 28 PP000=
SPZO Ene2020-290030Z 35008KT 9999 VCSH SCT050 BKN100 15/07 Q1028 NOSIG RMK BIRD HAZARD RWY 28=
SPZO Ene2020-290100Z 01006KT 9999 SCT050 BKN100 15/06 Q1029 NOSIG RMK BIRD HAZARD RWY 28 PP000=
SPZO Ene2020-290130Z 02005KT 350V070 9999 SCT050 BKN100 15/06 Q1029 NOSIG RMK BIRD HAZARD RWY 28=
SPZO Ene2020-290200Z 06005KT 9999 SCT050 BKN100 14/07 Q1030 NOSIG RMK BIRD HAZARD RWY 28 PP000=
SPZO Ene2020-290300Z VRB03KT 9999 RA SCT050 BKN100 12/08 Q1031 NOSIG RMK BIRD HAZARD RWY 28 PPTRZ=
SPZO Ene2020-290400Z 08004KT 9999 RA SCT050 BKN100 10/07 Q1032 RMK BIRD HAZARD RWY 28 PP030=
SPZO Ene2020-290500Z 07004KT 9999 SCT050 BKN100 11/06 Q1031 RMK BIRD HAZARD RWY 28 PP000=
SPZO Ene2020-290600Z 10004KT 9999 SCT050 BKN100 10/06 Q1030 RMK BIRD HAZARD RWY 28 PP000=
SPZO Ene2020-290700Z 11004KT 9999 SCT050 BKN100 10/06 Q1030 RMK BIRD HAZARD RWY 28 PP000=
SPZO Ene2020-290800Z 11004KT 9999 SCT050 BKN100 08/06 Q1030 RMK BIRD HAZARD RWY 28 PP000=
SPZO Ene2020-290900Z 12004KT 9999 SCT050 BKN100 09/06 Q1029 RMK BIRD HAZARD RWY 28 PP000=
SPZO Ene2020-291000Z 12002KT 9999 SCT050 BKN100 10/06 Q1030 NOSIG RMK BIRD HAZARD RWY 28 PP000=
SPZO Ene2020-291030Z 10003KT 9999 FEW020 SCT050 BKN100 07/06 Q1030 NOSIG RMK BIRD HAZARD RWY 28=
SPZO Ene2020-291100Z 10003KT 9999 FEW020 SCT050 BKN100 09/07 Q1030 NOSIG RMK BIRD HAZARD RWY 28 PP000=
SPZO Ene2020-291130Z 09002KT 9999 FEW020 SCT050 BKN100 10/06 Q1031 NOSIG RMK BIRD HAZARD RWY 28=
SPZO Ene2020-291200Z 00000KT 9999 FEW020 SCT050 BKN100 10/06 Q1031 NOSIG RMK TN9.1 BIRD HAZARD RWY 28 PP000=
SPZO Ene2020-291230Z 09002KT 9999 FEW020 SCT050 BKN100 10/06 Q1031 NOSIG RMK BIRD HAZARD RWY 28=
SPZO Ene2020-291300Z VRB01KT 9999 FEW020 SCT050 BKN100 12/07 Q1032 NOSIG RMK BIRD HAZARD RWY 28 PP000=
SPZO Ene2020-291330Z VRB02KT 9999 FEW020 SCT050 14/05 Q1032 NOSIG RMK BIRD HAZARD RWY 28=
SPZO Ene2020-291400Z 04001KT 9999 FEW040 SCT050 BKN100 14/08 Q1032 NOSIG RMK BIRD HAZARD RWY 28 PP000=
SPZO Ene2020-291430Z 05003KT 9999 SCT050 BKN100 15/08 Q1032 NOSIG RMK BIRD HAZARD RWY 28=
SPZO Ene2020-291500Z 01003KT 9999 SCT050 BKN100 15/05 Q1032 NOSIG RMK BIRD HAZARD RWY 28 PP000=
SPZO Ene2020-291530Z 01003KT 9999 SCT050 BKN100 15/05 Q1031 NOSIG RMK BIRD HAZARD RWY 28=
SPZO Ene2020-291600Z 12005KT 9999 SCT050 BKN100 17/06 Q1032 NOSIG RMK BIRD HAZARD RWY 28 PP000=
SPZO Ene2020-291630Z VRB03KT 9999 SCT050 BKN100 18/07 Q1030 NOSIG RMK BIRD HAZARD RWY 28=
SPZO Ene2020-291700Z VRB03KT 9999 SCT050 BKN100 19/09 Q1029 NOSIG RMK BIRD HAZARD RWY 28 PP000=
SPZO Ene2020-291730Z VRB02KT 9999 SCT050 BKN100 19/06 Q1029 NOSIG RMK BIRD HAZARD RWY 28=
SPZO Ene2020-291800Z 29006KT 9999 SCT050 BKN100 20/07 Q1028 NOSIG RMK BIRD HAZARD RWY 28 PP000=
SPZO Ene2020-291830Z 02005KT 9999 SCT050 BKN100 19/05 Q1028 NOSIG RMK BIRD HAZARD RWY 28=
SPZO Ene2020-291900Z VRB05KT 9999 SCT046 BKN100 19/07 Q1027 NOSIG RMK TCU QUAD N BIRD HAZARD RWY 28 PP000=
SPZO Ene2020-291930Z 01010KT 9999 SCT046 BKN100 20/06 Q1027 NOSIG RMK BIRD HAZARD RWY 28=
SPZO Ene2020-292000Z 02012KT 9999 FEW046TCU BKN100 17/05 Q1027 NOSIG RMK BIRD HAZARD RWY 28 PP000=
SPZO Ene2020-292030Z 02010KT 9999 FEW046TCU BKN100 16/05 Q1027 NOSIG RMK BIRD HAZARD RWY 28=
SPZO Ene2020-292100Z VRB02KT 9999 FEW046 BKN100 17/06 Q1027 NOSIG RMK BIRD HAZARD RWY 28 PP000=
SPZO Ene2020-292130Z 25005KT 9999 FEW046 BKN100 17/05 Q1027 NOSIG RMK BIRD HAZARD RWY 28=
SPZO Ene2020-292200Z 23004KT 9999 FEW050 SCT080 17/05 Q1027 NOSIG RMK TX20.1 BIRD HAZARD RWY 28 PP000=
SPZO Ene2020-292230Z 27005KT 9999 FEW046 SCT080 17/06 Q1027 NOSIG RMK BIRD HAZARD RWY 28=
SPZO Ene2020-292300Z 27007KT 9999 FEW046 SCT080 15/06 Q1028 NOSIG RMK BIRD HAZARD RWY 28 PP000=
SPZO Ene2020-292330Z 27009KT 220V330 9999 FEW046 SCT100 15/06 Q1028 NOSIG RMK BIRD HAZARD RWY 28=
SPZO Ene2020-300000Z 26009KT 9999 FEW046 SCT100 14/06 Q1028 NOSIG RMK BIRD HAZARD RWY 28 PP000=
SPZO Ene2020-300030Z 29010KT 9999 FEW046 SCT080 13/06 Q1029 NOSIG RMK BIRD HAZARD RWY 28=
SPZO Ene2020-300100Z 28007KT 9999 FEW046 SCT080 14/06 Q1029 NOSIG RMK BIRD HAZARD RWY 28 PP000=
SPZO Ene2020-300130Z 30006KT 270V360 9999 FEW046 SCT080 13/05 Q1030 NOSIG RMK BIRD HAZARD RWY 28=
SPZO Ene2020-300200Z 28004KT 9999 FEW046 SCT080 12/06 Q1031 NOSIG RMK BIRD HAZARD RWY 28 PP000=
SPZO Ene2020-300230Z 13002KT 9999 FEW046 SCT080 13/06 Q1031 NOSIG RMK BIRD HAZARD RWY 28=
SPZO Ene2020-300300Z 10003KT 9999 FEW046 SCT080 12/06 Q1032 RMK PP000=
SPZO Ene2020-300400Z 11002KT 9999 SCT046 SCT080 11/06 Q1032 RMK PP000=
SPZO Ene2020-300500Z 08002KT 9999 SCT046 SCT080 11/06 Q1031 RMK PP000=
SPZO Ene2020-300600Z 11004KT 9999 SCT046 SCT080 10/07 Q1031 RMK PP000=
SPZO Ene2020-300700Z 08003KT 010V100 9999 SCT046 SCT080 10/06 Q1030 RMK PP000=
SPZO Ene2020-300800Z 09002KT 9999 SCT046 SCT080 10/06 Q1030 RMK PP000=
SPZO Ene2020-300900Z 09003KT 9999 SCT046 SCT080 08/05 Q1030 NOSIG RMK BIRD HAZARD RWY 28 PP000=
SPZO Ene2020-301000Z 10002KT 9999 FEW046 SCT100 08/05 Q1030 NOSIG RMK BIRD HAZARD RWY 28 PP000=
SPZO Ene2020-301030Z 23002KT 9999 FEW046 SCT100 08/05 Q1031 NOSIG RMK BIRD HAZARD RWY 28=
SPZO Ene2020-301100Z 08002KT 9999 FEW046 SCT100 07/05 Q1031 NOSIG RMK BR QUAD NE BIRD HAZARD RWY 28 PP000=
SPZO Ene2020-301130Z 00000KT 9999 SCT050 09/05 Q1032 NOSIG RMK BIRD HAZARD RWY 28=
SPZO Ene2020-301200Z 00000KT 9999 FEW046 SCT080 10/06 Q1032 NOSIG RMK TN6.6 BIRD HAZARD RWY 28 PP000=
SPZO Ene2020-301230Z 00000KT 9999 FEW046 BKN080 11/06 Q1033 NOSIG RMK BIRD HAZARD RWY 28=
SPZO Ene2020-301300Z 28003KT 180V330 9999 FEW046 BKN080 12/06 Q1033 NOSIG RMK BIRD HAZARD RWY 28 PP000=
SPZO Ene2020-301330Z 27002KT 9999 FEW046 BKN080 13/06 Q1033 NOSIG RMK BIRD HAZARD RWY 28=
SPZO Ene2020-301400Z 08002KT 9999 FEW040 BKN100 14/07 Q1033 NOSIG RMK BIRD HAZARD RWY 28 PP000=
SPZO Ene2020-301430Z VRB02KT 9999 FEW046 BKN100 15/06 Q1033 NOSIG RMK BIRD HAZARD RWY 28=
SPZO Ene2020-301500Z 05003KT 9999 SCT046 BKN100 16/06 Q1032 NOSIG RMK BIRD HAZARD RWY 28 PP000=
SPZO Ene2020-301530Z VRB03KT 9999 SCT046 BKN100 16/05 Q1032 NOSIG RMK BIRD HAZARD RWY 28=
SPZO Ene2020-301600Z 31005KT 9999 SCT046 BKN100 16/07 Q1032 NOSIG RMK BIRD HAZARD RWY 28 PP000=
SPZO Ene2020-301630Z 30005KT 9999 VCSH SCT046 FEW050TCU BKN100 16/06 Q1032 NOSIG RMK BIRD HAZARD RWY 28=
SPZO Ene2020-301700Z 29011KT 9999 VCSH SCT046 FEW050TCU BKN100 16/06 Q1032 NOSIG RMK BIRD HAZARD RWY 28 PP000=
SPZO Ene2020-301730Z 29011KT 9999 VCSH SCT043 BKN080 16/06 Q1031 NOSIG RMK BIRD HAZARD RWY 28=
SPZO Ene2020-301800Z 30012KT 9999 VCSH SCT043 BKN080 15/06 Q1031 NOSIG RMK TCU QUAD S/N BIRD HAZARD RWY 28 PP000=
SPZO Ene2020-301830Z 30013KT 270V020 9000 -RA VCSH SCT040 BKN080 13/07 Q1031 NOSIG RMK BIRD HAZARD RWY 28=
SPZO Ene2020-301900Z 28007KT 9000 -RA VCSH SCT040 BKN080 12/08 Q1031 NOSIG RMK VIS 8000 QUAD E RA BIRD HAZARD RWY 28 PP006=
SPZO Ene2020-301930Z 17003KT 100V230 9999 VCSH SCT040 BKN080 13/09 Q1030 NOSIG RMK VIS 9000 QUAD E RA BIRD HAZARD RWY 28=
SPZO Ene2020-302000Z VRB04KT 9999 VCSH SCT040 BKN080 14/08 Q1029 NOSIG RMK BIRD HAZARD RWY 28 PP008=
SPZO Ene2020-302030Z VRB02KT 9999 SCT040 BKN080 16/08 Q1029 NOSIG RMK BIRD HAZARD RWY 28=
SPZO Ene2020-302100Z 35002KT 9999 VCSH SCT040 BKN080 16/07 Q1028 NOSIG RMK BIRD HAZARD RWY 28 PP000=
SPZO Ene2020-302130Z 32003KT 270V010 9999 VCSH SCT043 BKN080 15/09 Q1028 NOSIG RMK TCU QUAD N BIRD HAZARD RWY 28=
SPZO Ene2020-302200Z 28004KT 9999 VCSH SCT043 BKN080 16/08 Q1028 NOSIG RMK TCU QUAD N TX17.2 BIRD HAZARD RWY 28 PP000=
SPZO Ene2020-302230Z VRB02KT 9999 VCSH SCT043 BKN080 15/08 Q1028 NOSIG RMK BIRD HAZARD RWY 28=
SPZO Ene2020-302300Z 03004KT 9999 SCT046 SCT080 15/07 Q1029 NOSIG RMK BIRD HAZARD RWY 28 PP000=
SPZO Ene2020-302330Z 09001KT 9999 SCT050 BKN100 15/08 Q1029 NOSIG RMK BIRD HAZARD RWY 28=
SPZO Ene2020-310000Z VRB03KT 9999 SCT050 SCT100 14/07 Q1029 NOSIG RMK BIRD HAZARD RWY 28 PP000=
SPZO Ene2020-310030Z 27004KT 9999 SCT050 SCT100 13/08 Q1030 NOSIG RMK BIRD HAZARD RWY 28=
SPZO Ene2020-310100Z 30004KT 9999 SCT050 SCT100 13/07 Q1031 NOSIG RMK BIRD HAZARD RWY 28 PP000=
SPZO Ene2020-310130Z 29004KT 9999 SCT050 SCT100 12/07 Q1031 NOSIG RMK BIRD HAZARD RWY 28=
SPZO Ene2020-310200Z 29003KT 9999 SCT050 SCT100 12/07 Q1032 NOSIG RMK BIRD HAZARD RWY 28 PP000=
SPZO Ene2020-310300Z 27003KT 9999 SCT050 12/07 Q1033 NOSIG RMK BIRD HAZARD RWY 28 PP000=
SPZO Ene2020-310400Z 29005KT 9999 SCT050 12/07 Q1033 NOSIG RMK BIRD HAZARD RWY 28 PP000=
SPZO Ene2020-310500Z 29006KT 9999 SCT050 BKN100 12/07 Q1033 NOSIG RMK BIRD HAZARD RWY 28 PP000=
SPZO Ene2020-310600Z 08005KT 9999 SCT050 BKN100 11/07 Q1032 RMK BIRD HAZARD RWY 28 PP000=
SPZO Ene2020-310700Z 12004KT 9999 SCT050 BKN100 11/07 Q1032 RMK BIRD HAZARD RWY 28 PP000=
SPZO Ene2020-310800Z 08005KT 9999 -RA SCT050 BKN100 12/07 Q1032 RMK BIRD HAZARD RWY 28 PP000=
SPZO Ene2020-310900Z 01005KT 9999 SCT050 BKN100 10/09 Q1032 RMK BIRD HAZARD RWY 28 PP000=
SPZO Ene2020-311000Z 10004KT 9999 SCT050 BKN100 09/06 Q1032 RMK BIRD HAZARD RWY 28 PP000=
SPZO Ene2020-311030Z 11003KT 9999 FEW020 SCT050 BKN100 10/06 Q1033 NOSIG RMK BIRD HAZARD RWY 28=
SPZO Ene2020-311100Z VRB02KT 9999 FEW020 SCT050 BKN100 09/07 Q1033 NOSIG RMK BIRD HAZARD RWY 28 PP000=
SPZO Ene2020-311130Z 00000KT 9999 FEW020 SCT040 BKN080 10/07 Q1033 NOSIG RMK BR BIRD HAZARD RWY 28=
SPZO Ene2020-311200Z VRB02KT 9999 FEW020 SCT040 BKN080 10/07 Q1034 NOSIG RMK BR TN09.2 BIRD HAZARD RWY 28 PP000=
SPZO Ene2020-311230Z 09003KT 020V120 9999 FEW020 SCT036 BKN080 11/07 Q1034 NOSIG RMK BIRD HAZARD RWY 28=
SPZO Ene2020-311300Z VRB02KT 9999 FEW025 SCT036 BKN100 12/07 Q1034 NOSIG RMK BIRD HAZARD RWY 28 PP000=
SPZO Ene2020-311330Z 09005KT 9999 SCT036 SCT100 14/07 Q1034 NOSIG RMK BIRD HAZARD RWY 28=
SPZO Ene2020-311400Z VRB03KT 9999 SCT036 14/06 Q1034 NOSIG RMK BIRD HAZARD RWY 28 PP000=
SPZO Ene2020-311430Z 12005KT 060V190 9999 SCT036 16/06 Q1034 NOSIG RMK BIRD HAZARD RWY 28=
SPZO Ene2020-311500Z 11005KT 080V190 9999 SCT040 SCT080 16/08 Q1034 NOSIG RMK BIRD HAZARD RWY 28 PP000=
SPZO Ene2020-311530Z 10004KT 060V160 9999 SCT040 BKN080 16/06 Q1033 NOSIG RMK BIRD HAZARD RWY 28=
SPZO Ene2020-311600Z 09004KT 360V150 9999 SCT043 BKN080 16/06 Q1033 NOSIG RMK BIRD HAZARD RWY 28 PP000=
SPZO Ene2020-311630Z 10003KT 9999 SCT043 BKN080 18/05 Q1032 NOSIG RMK BIRD HAZARD RWY 28=
SPZO Ene2020-311700Z 24001KT 9999 SCT046 BKN100 19/08 Q1032 NOSIG RMK TCU QUAD N MOV W BIRD HAZARD RWY 28 PP000=
SPZO Ene2020-311730Z 36005KT 9999 RA FEW040TCU SCT060 BKN100 17/04 Q1032 NOSIG RMK BIRD HAZARD RWY 28=
SPZO Ene2020-311800Z 29012KT 8000 RA SCT050 BKN080 13/07 Q1032 NOSIG RMK BIRD HAZARD RWY 28 PP038=
SPZO Ene2020-311830Z 10004KT 9999 RA SCT050 BKN080 12/09 Q1032 NOSIG RMK BIRD HAZARD RWY 28=
SPZO Ene2020-311900Z 13004KT 9999 -RA SCT050 BKN080 14/09 Q1031 NOSIG RMK BIRD HAZARD RWY 28 PP036=
SPZO Ene2020-311930Z VRB05KT 9999 SCT050 BKN080 14/07 Q1030 NOSIG RMK BIRD HAZARD RWY 28=
SPZO Ene2020-312000Z 09004KT 9999 SCT050 BKN080 16/08 Q1030 NOSIG RMK BIRD HAZARD RWY 28 PP000=
SPZO Ene2020-312030Z 11010KT 9999 SCT050 SCT100 16/07 Q1029 NOSIG RMK BIRD HAZARD RWY 28=
SPZO Ene2020-312100Z 11009KT 9999 SCT050 SCT100 17/08 Q1029 NOSIG RMK BIRD HAZARD RWY 28 PP000=
SPZO Ene2020-312130Z 11007KT 9999 -RA SCT050 SCT100 16/06 Q1029 NOSIG RMK BIRD HAZARD RWY 28=
SPZO Ene2020-312200Z VRB03KT 9999 RA SCT050 SCT100 15/08 Q1029 NOSIG RMK TX 19.5 BIRD HAZARD RWY 28 PP022=
SPZO Ene2020-312230Z 10005KT 9999 -RA SCT050 BKN100 12/09 Q1030 NOSIG RMK BIRD HAZARD RWY 28=
SPZO Ene2020-312300Z 10003KT 9999 RA SCT050 BKN100 12/08 Q1031 NOSIG RMK BIRD HAZARD RWY 28 PP022=
SPZO Ene2020-312330Z 09004KT 9999 VCSH SCT046 OVC100 12/09 Q1031 NOSIG RMK BIRD HAZARD RWY 28=
SPZO Ene2020-010000Z 09003KT 9999 -DZ SCT046 BKN080 12/09 Q1032 NOSIG RMK BIRD HAZARD RWY 28 PP0TRZ=
SPZO Feb2020-010000Z 09003KT 9999 -DZ SCT046 BKN080 12/09 Q1032 NOSIG RMK BIRD HAZARD RWY 28 PP0TRZ=
SPZO Feb2020-010030Z 00000KT 9999 -DZ SCT046 BKN080 12/09 Q1032 NOSIG RMK BIRD HAZARD RWY 28=
SPZO Feb2020-010100Z 21001KT 9999 SCT046 BKN080 13/09 Q1032 NOSIG RMK BIRD HAZARD RWY 28 PP004=
SPZO Feb2020-010130Z 09002KT 9999 SCT046 BKN080 12/09 Q1033 NOSIG RMK BIRD HAZARD RWY 28=
SPZO Feb2020-010200Z 11003KT 9999 SCT046 BKN080 12/09 Q1033 NOSIG RMK BIRD HAZARD RWY 28 PP000=
SPZO Feb2020-010230Z 24001KT 9999 SCT046 BKN080 13/09 Q1034 NOSIG RMK BIRD HAZARD RWY 28=
SPZO Feb2020-010300Z 08002KT 9999 SCT046 BKN080 12/09 Q1034 NOSIG RMK BIRD HAZARD RWY 28 PP000=
SPZO Feb2020-010400Z 00000KT 9999 SCT046 BKN080 12/09 Q1034 NOSIG RMK BIRD HAZARD RWY 28 PP000=
SPZO Feb2020-010500Z 29004KT 9999 SCT046 BKN080 12/08 Q1034 RMK BIRD HAZARD RWY 28 PP000=
SPZO Feb2020-010600Z 00000KT 9999 -RA SCT040 BKN080 11/08 Q1033 RMK BIRD HAZARD RWY 28 PP008=
SPZO Feb2020-010700Z 00000KT 9999 -DZ SCT040 BKN080 11/08 Q1033 RMK BIRD HAZARD RWY 28 PP002=
SPZO Feb2020-010800Z 11005KT 9999 SCT040 BKN080 11/09 Q1033 RMK BIRD HAZARD RWY 28 PP000=
SPZO Feb2020-010900Z 11008KT 9999 SCT020 SCT036 BKN080 10/08 Q1032 RMK CLNG BLW 1200M BIRD HAZARD RWY 28 PP000=
SPZO Feb2020-011000Z 11007KT 9999 -DZ SCT020 SCT036 BKN080 09/07 Q1032 RMK CLNG BLW 1200M BIRD HAZARD RWY 28 PP002=
SPZO Feb2020-011030Z 11006KT 9999 -DZ FEW020 SCT040 OVC080 09/07 Q1033 NOSIG RMK BIRD HAZARD RWY 28=
SPZO Feb2020-011100Z 11005KT 9999 VCSH FEW020 SCT040 BKN080 09/07 Q1033 RMK BIRD HAZARD RWY 28 PP002=
SPZO Feb2020-011130Z VRB02KT 9999 FEW020 SCT040 OVC100 09/07 Q1033 NOSIG RMK BIRD HAZARD RWY 28=
SPZO Feb2020-011200Z VRB01KT 9999 FEW020 SCT040 OVC100 10/07 Q1034 RMK TN9.8 BIRD HAZARD RWY 28 PP000=
SPZO Feb2020-011230Z 36001KT 9999 FEW020 SCT040 OVC100 11/07 Q1034 NOSIG RMK BIRD HAZARD RWY 28=
SPZO Feb2020-011300Z VRB01KT 9999 FEW020 SCT040 OVC100 11/07 Q1034 RMK BIRD HAZARD RWY 28 PP000=
SPZO Feb2020-011330Z VRB01KT 9999 FEW020 SCT040 OVC100 12/08 Q1035 NOSIG RMK BIRD HAZARD RWY 28=
SPZO Feb2020-011400Z VRB02KT 9999 FEW020 SCT040 OVC100 12/07 Q1035 RMK BIRD HAZARD RWY 28 PP000=
SPZO Feb2020-011430Z 11005KT 9999 VCSH FEW020 SCT040 OVC100 12/07 Q1035 NOSIG RMK BIRD HAZARD RWY 28=
SPZO Feb2020-011500Z 11009KT 9999 FEW020 SCT050 OVC100 13/06 Q1035 RMK BIRD HAZARD RWY 28 PP000=
SPZO Feb2020-011530Z 11010KT 9999 FEW020 SCT050 BKN100 13/08 Q1034 NOSIG RMK BIRD HAZARD RWY 28=
SPZO Feb2020-011600Z 12010KT 9999 FEW030TCU SCT050 BKN100 13/07 Q1034 RMK BIRD HAZARD RWY 28 PP000=
SPZO Feb2020-011630Z 11009KT 8000 RA FEW030TCU SCT050 BKN100 12/07 Q1034 TEMPO 5000 RMK BIRD HAZARD RWY 28=
SPZO Feb2020-011700Z 12008KT 8000 -RA VCSH FEW030TCU SCT050 BKN100 12/07 Q1034 RMK BIRD HAZARD RWY 28 PP000=
SPZO Feb2020-011730Z 11008KT 090V180 9999 VCSH FEW040TCU SCT046 BKN100 12/08 Q1034 NOSIG RMK VIS 9000E -RA BIRD HAZARD RWY 28=
SPZO Feb2020-011800Z 11008KT 9999 VCSH FEW040TCU SCT046 BKN080 13/07 Q1034 NOSIG RMK VIS 9000E -RA BIRD HAZARD RWY 28 PP000=
SPZO Feb2020-011830Z 11007KT 080V170 9999 FEW040TCU SCT046 BKN080 13/08 Q1033 NOSIG RMK BIRD HAZARD RWY 28=
SPZO Feb2020-011900Z 09006KT 020V120 9999 FEW040TCU SCT046 BKN080 13/08 Q1032 NOSIG RMK BIRD HAZARD RWY 28 PP000=
SPZO Feb2020-011930Z 06002KT 9000 DZ FEW030 SCT040 BKN080 14/08 Q1032 NOSIG RMK BIRD HAZARD RWY 28=
SPZO Feb2020-012000Z 27004KT 180V270 8000 -RA FEW030 SCT040 BKN080 13/08 Q1031 NOSIG RMK BIRD HAZARD RWY 28 PP004=
SPZO Feb2020-012030Z 10007KT 8000 -RA FEW025 SCT040 OVC080 13/08 Q1031 NOSIG RMK BIRD HAZARD RWY 28=
SPZO Feb2020-012100Z 09004KT 020V120 9000 -DZ FEW025 SCT040 OVC080 13/09 Q1031 NOSIG RMK BIRD HAZARD RWY 28 PP004=
SPZO Feb2020-012130Z 26002KT 9999 FEW025 SCT040 BKN080 14/08 Q1031 NOSIG RMK BIRD HAZARD RWY 28=
SPZO Feb2020-012200Z 29004KT 260V350 9999 SCT040 BKN080 15/09 Q1030 REDZ NOSIG RMK TX14.9 BIRD HAZARD RWY 28 PPTRZ=
SPZO Feb2020-012230Z 28005KT 9999 SCT040 BKN080 16/08 Q1030 NOSIG RMK BIRD HAZARD RWY 28=
SPZO Feb2020-012300Z 21003KT 9999 SCT040 BKN100 15/08 Q1031 NOSIG RMK BIRD HAZARD RWY 28 PP000=
SPZO Feb2020-012330Z 11006KT 9999 SCT043 SCT080 13/08 Q1031 NOSIG RMK BIRD HAZARD RWY 28=
SPZO Feb2020-020000Z 11004KT 9999 SCT043 SCT080 12/08 Q1031 NOSIG RMK BIRD HAZARD RWY 28 PP000=
SPZO Feb2020-020030Z VRB02KT 9999 SCT043 BKN080 12/08 Q1032 NOSIG RMK BIRD HAZARD RWY 28=
SPZO Feb2020-020100Z 29003KT 9999 SCT043 BKN080 12/08 Q1032 NOSIG RMK BIRD HAZARD RWY 28 PP000=
SPZO Feb2020-020130Z 27003KT 9999 SCT043 BKN080 12/08 Q1033 NOSIG RMK BIRD HAZARD RWY 28=
SPZO Feb2020-020200Z 31003KT 280V020 9999 SCT046 BKN080 12/08 Q1033 NOSIG RMK BIRD HAZARD RWY 28 PP000=
SPZO Feb2020-020230Z 10003KT 9999 SCT046 BKN080 12/09 Q1034 NOSIG RMK BIRD HAZARD RWY 28=
SPZO Feb2020-020300Z 11003KT 9999 SCT050 SCT100 11/08 Q1034 NOSIG RMK BIRD HAZARD RWY 28 PP000=
SPZO Feb2020-020400Z VRB01KT 9999 SCT050 SCT100 12/08 Q1034 RNK PP000=
SPZO Feb2020-020500Z 30004KT 280V010 9999 SCT050 SCT100 12/08 Q1033 RNK PP000=
SPZO Feb2020-020600Z 00000KT 9000 -RA SCT043 BKN080 11/08 Q1033 RNK PP010=
SPZO Feb2020-020700Z 28004KT 9000 -RA SCT040 BKN070 10/08 Q1032 RNK PP022=
SPZO Feb2020-020800Z 00000KT 9999 -DZ SCT040 BKN070 10/07 Q1032 RNK PP0010=
SPZO Feb2020-020900Z 12003KT 9999 SCT040 BKN070 10/08 Q1032 RMK BR PPTRZ=
SPZO Feb2020-021000Z 11002KT 9999 FEW030 SCT040 BKN070 10/08 Q1033 NOSIG RMK BR BIRD HAZARD RWY 28 PP000=
SPZO Feb2020-021030Z 10003KT 9999 FEW020 SCT040 OVC070 10/08 Q1033 NOSIG RMK BR BIRD HAZARD RWY 28=
SPZO Feb2020-021100Z 11004KT 9000 FEW010 SCT030 OVC070 10/08 Q1033 NOSIG RMK BR BIRD HAZARD RWY 28 PP000=
SPZO Feb2020-021130Z 12004KT 090V180 9999 FEW020 SCT036 BKN080 10/08 Q1034 NOSIG RMK BIRD HAZARD RWY 28=
SPZO Feb2020-021200Z 11005KT 9999 FEW020 SCT036 BKN080 11/08 Q1034 NOSIG RMK TN09.8 BIRD HAZARD RWY 28 PP000=
SPZO Feb2020-021230Z 11004KT 9999 FEW020 SCT036 BKN080 11/08 Q1034 NOSIG RMK BIRD HAZARD RWY 28=
SPZO Feb2020-021300Z 11004KT 080V170 9999 FEW025 SCT036 BKN080 11/08 Q1035 NOSIG RMK BIRD HAZARD RWY 28 PP000=
SPZO Feb2020-021330Z 11005KT 090V170 9999 FEW020 SCT036 OVC080 12/08 Q1035 NOSIG RMK BIRD HAZARD RWY 28=
SPZO Feb2020-021400Z 15003KT 080V200 9999 FEW020 SCT036 OVC080 13/07 Q1035 NOSIG RMK BIRD HAZARD RWY 28 PP000=
SPZO Feb2020-021430Z 05002KT 9999 FEW025 SCT036 BKN080 14/07 Q1035 NOSIG RMK BIRD HAZARD RWY 28=
SPZO Feb2020-021500Z 00000KT 9999 FEW025 SCT040 BKN080 15/07 Q1035 NOSIG RMK BIRD HAZARD RWY 28 PP000=
SPZO Feb2020-021530Z 36002KT 9999 SCT040 SCT100 17/09 Q1034 NOSIG RMK BIRD HAZARD RWY 28=
SPZO Feb2020-021600Z 35003KT 270V040 9999 SCT040 SCT100 17/08 Q1033 NOSIG RMK BIRD HAZARD RWY 28 PP000=
SPZO Feb2020-021630Z 13005KT 080V190 9999 SCT043 SCT100 18/07 Q1033 NOSIG RMK BIRD HAZARD RWY 28=
SPZO Feb2020-021700Z 09003KT 9999 SCT043 SCT100 19/08 Q1032 NOSIG RMK BIRD HAZARD RWY 28 PP000=
SPZO Feb2020-021730Z VRB03KT 9999 VCSH SCT040 BKN100 19/08 Q1031 NOSIG RMK BIRD HAZARD RWY 28=
SPZO Feb2020-021800Z 03013KT 9999 VCSH SCT040 BKN100 16/04 Q1032 NOSIG RMK BIRD HAZARD RWY 28 PP000=
SPZO Feb2020-021830Z 03011KT 9999 VCSH SCT040 BKN100 17/07 Q1031 NOSIG RMK BIRD HAZARD RWY 28=
SPZO Feb2020-021900Z 26011KT 9999 VCSH SCT040 BKN100 14/06 Q1032 NOSIG RMK BIRD HAZARD RWY 28 PP000=
SPZO Feb2020-021930Z 26008KT 9999 VCSH SCT040 BKN100 14/07 Q1031 NOSIG RMK BIRD HAZARD RWY 28=
SPZO Feb2020-022000Z 28004KT 9999 VCSH SCT040 SCT100 15/07 Q1031 NOSIG RMK BIRD HAZARD RWY 28 PP000=
SPZO Feb2020-022030Z 31004KT 9999 VCSH SCT040 BKN100 17/07 Q1030 NOSIG RMK BIRD HAZARD RWY 28=
SPZO Feb2020-022100Z 30004KT 9999 FEW040 SCT100 18/08 Q1030 NOSIG RMK BIRD HAZARD RWY 28 PP000=
SPZO Feb2020-022130Z 30007KT 9999 VCSH FEW040TCU SCT060 BKN100 19/07 Q1029 NOSIG RMK BIRD HAZARD RWY 28=
SPZO Feb2020-022200Z 31008KT 9999 VCSH FEW040TCU SCT060 BKN100 17/08 Q1029 NOSIG RMK TX 19.9 BIRD HAZARD RWY 28 PP000=
SPZO Feb2020-022230Z 30005KT 9999 SCT050 BKN100 17/07 Q1030 NOSIG RMK BIRD HAZARD RWY 28=
SPZO Feb2020-022300Z 01008KT 9999 VCSH SCT050 BKN100 16/07 Q1030 NOSIG RMK BIRD HAZARD RWY 28 PP000=
SPZO Feb2020-022330Z 33002KT 9999 SCT050 BKN100 15/07 Q1030 NOSIG RMK BIRD HAZARD RWY 28=
SPZO Feb2020-030000Z 30005KT 9999 SCT050 BKN100 15/08 Q1031 NOSIG RMK BIRD HAZARD RWY 28 PP000=
SPZO Feb2020-030030Z 32003KT 9999 SCT050 BKN100 15/08 Q1031 NOSIG RMK BIRD HAZARD RWY 28=
SPZO Feb2020-030100Z 28004KT 9999 SCT040 BKN100 15/07 Q1032 NOSIG RMK BIRD HAZARD RWY 28 PP000=
SPZO Feb2020-030130Z 30003KT 9999 SCT040 BKN100 14/08 Q1032 NOSIG RMK BIRD HAZARD RWY 28=
SPZO Feb2020-030200Z 30006KT 270V360 9999 SCT040 BKN100 14/08 Q1033 NOSIG RMK BIRD HAZARD RWY 28 PP000=
SPZO Feb2020-030300Z 10006KT 9999 SCT040 BKN100 14/08 Q1033 NOSIG RMK BIRD HAZARD RWY 28 PP000=
SPZO Feb2020-030400Z 08007KT 9999 -RA SCT040 BKN100 10/07 Q1034 RMK BIRD HAZARD RWY 28 PP066=
SPZO Feb2020-030500Z 00000KT 9999 -RA SCT040 BKN100 10/07 Q1035 RMK BIRD HAZARD RWY 28 PP000=
SPZO Feb2020-030600Z 10005KT 9999 -RA SCT040 BKN100 10/07 Q1034 RMK BIRD HAZARD RWY 28 PP040=
SPZO Feb2020-030700Z 10006KT 9999 -RA SCT040 BKN100 09/07 Q1034 RMK BIRD HAZARD RWY 28 PP014=
SPZO Feb2020-030800Z 10003KT 9999 RA FEW20 SCT036 BKN100 09/07 Q1034 RMK BIRD HAZARD RWY 28 PP012=
SPZO Feb2020-030900Z 10003KT 9999 RA FEW20 SCT036 BKN100 08/06 Q1034 RMK CLNG BLW 1200M BIRD HAZARD RWY 28 PP016=
SPZO Feb2020-031000Z 00000KT 9999 RA FEW20 SCT036 BKN100 08/06 Q1034 NOSIG RMK CLNG BLW 1200M BIRD HAZARD RWY 28 PP011=
SPZO Feb2020-031030Z 10003KT 9999 RA FEW020 SCT036 BKN100 08/06 Q1034 NOSIG RMK CLNG BLW 1200M BIRD HAZARD RWY 28=
SPZO Feb2020-031100Z 09003KT 9999 RA FEW010 SCT020 OVC080 08/06 Q1035 NOSIG RMK CLNG BLW 1200M BIRD HAZARD RWY 28 PP013=
SPZO Feb2020-031130Z 10005KT 8000 -RA SCT010 SCT036 OVC080 08/06 Q1035 NOSIG RMK CLNG BLW 1200M BIRD HAZARD RWY 28=
SPZO Feb2020-031200Z 10004KT 8000 -RA SCT015 SCT036 OVC080 09/06 Q1036 NOSIG RMK TN08.0 CLNG BLW 1200M BIRD HAZARD RWY 28 PP006=
SPZO Feb2020-031230Z 11003KT 080V190 8000 -RA SCT015 SCT036 OVC080 09/07 Q1036 NOSIG RMK CLNG BLW 1200M BIRD HAZARD RWY 28=
SPZO Feb2020-031300Z 09004KT 8000 DZ SCT015 SCT036 OVC080 10/07 Q1036 NOSIG RMK CLNG BLW 1200M BIRD HAZARD RWY 28 PP002=
SPZO Feb2020-031330Z 10003KT 020V140 9000 -DZ FEW020 SCT036 BKN080 11/07 Q1036 NOSIG RMK CLNG BLW 1200M BIRD HAZARD RWY 28=
SPZO Feb2020-031400Z 10004KT 030V150 9999 FEW025 SCT036 BKN080 12/06 Q1036 REDZ NOSIG RMK BIRD HAZARD RWY 28 PP002=
SPZO Feb2020-031430Z 03002KT 9999 SCT040 BKN100 13/06 Q1036 NOSIG RMK BIRD HAZARD RWY 28=
SPZO Feb2020-031500Z 05002KT 9999 SCT040 BKN100 14/06 Q1035 NOSIG RMK BIRD HAZARD RWY 28 PP000=
SPZO Feb2020-031530Z 16003KT 9999 SCT040 BKN100 16/07 Q1035 NOSIG RMK BIRD HAZARD RWY 28=
SPZO Feb2020-031600Z 12003KT 9999 SCT040 BKN100 15/06 Q1035 NOSIG RMK BIRD HAZARD RWY 28 PP000=
SPZO Feb2020-031630Z 09004KT 020V100 9999 SCT040 BKN100 16/08 Q1034 NOSIG RMK BIRD HAZARD RWY 28=
SPZO Feb2020-031700Z 14002KT 9999 SCT043 BKN100 17/05 Q1033 NOSIG RMK BIRD HAZARD RWY 28 PP000=
SPZO Feb2020-031730Z 29010KT 9999 VCSH SCT040 FEW050TCU BKN100 17/08 Q1032 NOSIG RMK BIRD HAZARD RWY 28=
SPZO Feb2020-031800Z 30014KT 9999 VCSH SCT046 FEW050TCU BKN100 17/06 Q1032 NOSIG RMK BIRD HAZARD RWY 28 PP000=
SPZO Feb2020-031830Z 28011KT 9999 VCSH SCT040 FEW050TCU BKN100 17/08 Q1031 NOSIG RMK BIRD HAZARD RWY 28=
SPZO Feb2020-031900Z 28009KT 9999 VSCH FEW046TCU BKN100 17/08 Q1031 NOSIG RMK BIRD HAZARD RWY 28 PP000=
SPZO Feb2020-031930Z 27002KT 9999 FEW046 BKN100 20/07 Q1030 NOSIG RMK BIRD HAZARD RWY 28=
SPZO Feb2020-032000Z VRB02KT 9999 -DZ VSCH FEW046TCU BKN100 18/06 Q1029 NOSIG RMK BIRD HAZARD RWY 28 PP000=
SPZO Feb2020-032030Z VRB02KT 9000 -RA VCSH FEW046TCU BKN100 15/07 Q1029 NOSIG RMK VIS 8000E BIRD HAZARD RWY 28=
SPZO Feb2020-032100Z 18003KT 9000 -RA VSCH FEW046TCU SCT050 BKN100 15/08 Q1029 NOSIG RMK VIS 8000E BIRD HAZARD RWY 28 PP010=
SPZO Feb2020-032130Z 18003KT 9999 RA VCSH FEW046TCU BKN100 13/09 Q1029 NOSIG RMK VIS 8000E BIRD HAZARD RWY 28=
SPZO Feb2020-032200Z VRB02KT 9000 -TSDZ VSCH SCT046 FEW050CB BKN100 15/08 Q1029 NOSIG RMK VIS 8000E BIRD HAZARD RWY 28 PP010=
SPZO Feb2020-032230Z 09005KT 9000 -RA VCSH FEW030 SCT046 BKN080 12/09 Q1030 NOSIG RMK TCU QUAD W VIS 8000E BIRD HAZARD RWY 28=
SPZO Feb2020-032300Z VRB01KT 9000 RA VCSH FEW040 SCT046 OVC080 12/09 Q1031 NOSIG RMK VIS 8000E BIRD HAZARD RWY 28 PP042=
SPZO Feb2020-032330Z 18002KT 8000 -RA FEW030 SCT040 OVC080 12/09 Q1031 NOSIG RMK BIRD HAZARD RWY 28=
SPZO Feb2020-040000Z 00000KT 9000 -DZ FEW030 SCT040 OVC080 12/09 Q1031 NOSIG RMK BIRD HAZARD RWY 28 PP002=
SPZO Feb2020-040030Z 00000KT 9000 -RA FEW030 SCT040 OVC080 12/09 Q1032 NOSIG RMK BIRD HAZARD RWY 28=
SPZO Feb2020-040100Z 26003KT 9000 -RA FEW030 SCT040 OVC080 12/09 Q1032 NOSIG RMK BIRD HAZARD RWY 28 PP008=
SPZO Feb2020-040130Z 11004KT 9000 -RA FEW020 SCT040 OVC080 11/09 Q1033 NOSIG RMK BIRD HAZARD RWY 28=
SPZO Feb2020-040200Z 11006KT 9000 -RA FEW020 SCT040 OVC080 11/09 Q1033 NOSIG RMK BIRD HAZARD RWY 28 PP012=
SPZO Feb2020-040230Z 10003KT 9000 -DZ FEW020 SCT040 OVC080 11/09 Q1033 NOSIG RMK BIRD HAZARD RWY 28=
SPZO Feb2020-040300Z 09002KT 9999 FEW025 SCT040 OVC080 11/09 Q1034 REDZ RMK PPTRZ=
SPZO Feb2020-040400Z 10005KT 9999 FEW025 SCT040 OVC080 11/09 Q1034 RMK PP000=
SPZO Feb2020-040500Z 13002KT 9999 FEW020 SCT040 OVC080 11/08 Q1034 RMK PP000=
SPZO Feb2020-040600Z 12004KT 9999 FEW020 SCT040 OVC080 11/08 Q1033 RMK -RA QUAD NE PP000=
SPZO Feb2020-040700Z 11005KT 9999 FEW025 SCT040 OVC080 10/07 Q1032 RMK RAB20E40 PP002=
SPZO Feb2020-040800Z 10004KT 9999 FEW025 SCT040 OVC080 10/07 Q1032 RMK PP000=
SPZO Feb2020-040900Z 11002KT 9999 FEW025 SCT036 OVC080 10/06 Q1032 RMK BIRD HAZARD RWY 28 PP000=
SPZO Feb2020-041000Z 00000KT 9999 FEW025 SCT036 OVC080 10/07 Q1032 NOSIG RMK BIRD HAZARD RWY 28 PP000=
SPZO Feb2020-041030Z 00000KT 9000 DZ FEW025 SCT036 OVC080 10/07 Q1033 NOSIG RMK BIRD HAZARD RWY 28=
SPZO Feb2020-041100Z 00000KT 7000 -RA FEW025 SCT036 OVC070 10/07 Q1033 NOSIG RMK BIRD HAZARD RWY 28 PP014=
SPZO Feb2020-041130Z 00000KT 9000 -RA FEW025 SCT036 OVC080 10/07 Q1034 NOSIG RMK BIRD HAZARD RWY 28=
SPZO Feb2020-041200Z 00000KT 8000 -RA FEW025 SCT036 OVC070 10/08 Q1034 NOSIG RMK TN8.7 BIRD HAZARD RWY 28 PP012=
SPZO Feb2020-041230Z 00000KT 8000 -DZ FEW020 SCT033 OVC070 11/07 Q1034 NOSIG RMK BIRD HAZARD RWY 28=
SPZO Feb2020-041300Z 00000KT 8000 FEW020 SCT033 OVC070 11/07 Q1034 NOSIG RMK BIRD HAZARD RWY 28 PP002=
SPZO Feb2020-041330Z 11004KT 9000 SCT030 OVC100 12/07 Q1035 NOSIG RMK BIRD HAZARD RWY 28=
SPZO Feb2020-041400Z 11003KT 9999 SCT030 OVC100 13/07 Q1035 NOSIG RMK BIRD HAZARD RWY 28 PP000=
SPZO Feb2020-041430Z 00000KT 9000 SCT036 OVC100 14/07 Q1034 NOSIG RMK BIRD HAZARD RWY 28=
SPZO Feb2020-041500Z VRB02KT 9999 VCSH SCT036 OVC080 13/07 Q1034 NOSIG RMK BIRD HAZARD RWY 28 PP000=
SPZO Feb2020-041530Z 26005KT 9000 -DZ FEW020 SCT036 OVC080 13/07 Q1034 NOSIG RMK BIRD HAZARD RWY 28=
SPZO Feb2020-041600Z 26006KT 9999 -DZ VCSH SCT033 OVC100 13/07 Q1034 NOSIG RMK BIRD HAZARD RWY 28 PP008=
SPZO Feb2020-041630Z VRB03KT 9999 -DZ SCT033 OVC100 13/07 Q1034 NOSIG RMK BIRD HAZARD RWY 28=
SPZO Feb2020-041700Z VRB02KT 9999 SCT033 BKN120 15/10 Q1033 NOSIG RMK BIRD HAZARD RWY 28 PP002=
SPZO Feb2020-041730Z 29004KT 9999 SCT040 17/09 Q1032 NOSIG RMK BIRD HAZARD RWY 28=
SPZO Feb2020-041800Z 12002KT 9999 SCT040 17/08 Q1031 NOSIG RMK BIRD HAZARD RWY 28 PP000=
SPZO Feb2020-041830Z 04004KT 360V120 9999 SCT046 18/05 Q1030 NOSIG RMK BIRD HAZARD RWY 28=
SPZO Feb2020-041900Z VRB03KT 9999 SCT046 19/08 Q1029 NOSIG RMK BIRD HAZARD RWY 28 PP000=
SPZO Feb2020-041930Z 18004KT 100V240 9999 SCT046 SCT080 18/06 Q1028 NOSIG RMK BIRD HAZARD RWY 28=
SPZO Feb2020-042000Z VRB03KT 9999 SCT046 BKN080 19/08 Q1028 NOSIG RMK TCU QUAD S BIRD HAZARD RWY 28 PP000=
SPZO Feb2020-042030Z 24001KT 9999 SCT046 BKN080 19/07 Q1027 NOSIG RMK TCU QUAD N BIRD HAZARD RWY 28=
SPZO Feb2020-042100Z 21002KT 9999 SCT046 BKN080 19/06 Q1027 NOSIG RMK BIRD HAZARD RWY 28 PP000=
SPZO Feb2020-042130Z 28011KT 9999 SCT046 BKN080 18/08 Q1027 NOSIG RMK TCU QUAD S BIRD HAZARD RWY 28=
SPZO Feb2020-042200Z 29011KT 260V340 9999 SCT046 BKN080 18/08 Q1027 NOSIG RMK TCU QUAD N TX19.7 BIRD HAZARD RWY 28 PP000=
SPZO Feb2020-042230Z 27009KT 210V300 9999 -RA VCSH SCT046 BKN080 17/08 Q1027 NOSIG RMK TCU QUAD S/N BIRD HAZARD RWY 28=
SPZO Feb2020-042300Z 27008KT 9999 SCT046 BKN080 16/09 Q1028 NOSIG RMK TCU QUAD SE BIRD HAZARD RWY 28 PP004=
SPZO Feb2020-042330Z 28005KT 9999 SCT050 BKN100 15/08 Q1028 NOSIG RMK BIRD HAZARD RWY 28=
SPZO Feb2020-050000Z 11002KT 9999 SCT050 BKN100 15/08 Q1029 NOSIG RMK TS QUAD NE BIRD HAZARD RWY 28 PP000=
SPZO Feb2020-050030Z 11006KT 9999 SCT050 BKN100 14/09 Q1030 NOSIG RMK TS QUAD NE BIRD HAZARD RWY 28=
SPZO Feb2020-050100Z 10007KT 9999 SCT050 BKN100 13/09 Q1030 NOSIG RMK TD QUAD S BIRD HAZARD RWY 28 PP000=
SPZO Feb2020-050130Z 08005KT 9999 SCT050 BKN100 13/08 Q1030 NOSIG RMK BIRD HAZARD RWY 28=
SPZO Feb2020-050200Z 00000KT 9999 SCT050 BKN100 12/08 Q1031 NOSIG RMK BIRD HAZARD RWY 28 PP000=
SPZO Feb2020-050230Z 26004KT 9999 BKN100 12/09 Q1031 NOSIG RMK BIRD HAZARD RWY 28=
SPZO Feb2020-050300Z 29008KT 9999 SCT050 BKN100 12/07 Q1032 NOSIG RMK TS QUAD N BIRD HAZARD RWY 28 PP000=
SPZO Feb2020-050400Z 27005KT 9999 SCT050 BKN100 12/07 Q1031 RMK BIRD HAZARD RWY 28 PP000=
SPZO Feb2020-050500Z 09002KT 9999 -RA SCT040 BKN100 12/08 Q1031 RMK BIRD HAZARD RWY 28 PP004=
SPZO Feb2020-050600Z 28004KT 9999 SCT050 BKN100 11/08 Q1031 RMK BIRD HAZARD RWY 28 PP000=
SPZO Feb2020-050700Z 27003KT 9999 RA SCT050 BKN100 10/08 Q1030 RMK BIRD HAZARD RWY 28 PP038=
SPZO Feb2020-050800Z 36002KT 9999 -DZ FEW020 SCT050 BKN100 11/08 Q1029 RMK BIRD HAZARD RWY 28 PP006=
SPZO Feb2020-050900Z 11002KT 9999 FEW020 SCT050 BKN100 11/08 Q1029 RMK BIRD HAZARD RWY 28 PP000=
SPZO Feb2020-051000Z 27001KT 9999 FEW030 SCT050 BKN100 11/08 Q1029 NOSIG RMK BIRD HAZARD RWY 28 PP000=
SPZO Feb2020-051030Z 09003KT 9999 FEW020 SCT040 BKN100 11/08 Q1030 NOSIG RMK BIRD HAZARD RWY 28=
SPZO Feb2020-051100Z 12002KT 9999 FEW020 SCT040 OVC100 11/09 Q1030 NOSIG RMK BIRD HAZARD RWY 28 PP000=
SPZO Feb2020-051130Z 09003KT 9999 SCT033 OVC070 11/08 Q1030 NOSIG RMK BR BIRD HAZARD RWY 28=
SPZO Feb2020-051200Z 11003KT 9999 SCT033 OVC070 11/09 Q1031 NOSIG RMK BR TN09.9 BIRD HAZARD RWY 28 PP000=
SPZO Feb2020-051230Z 00000KT 9999 SCT033 OVC070 12/08 Q1031 NOSIG RMK BIRD HAZARD RWY 28=
SPZO Feb2020-051300Z 00000KT 9999 SCT033 OVC070 12/08 Q1031 NOSIG RMK BIRD HAZARD RWY 28 PP000=
SPZO Feb2020-051330Z VRB02KT 9999 SCT040 OVC070 13/08 Q1031 NOSIG RMK BIRD HAZARD RWY 28=
SPZO Feb2020-051400Z 17002KT 9999 SCT040 OVC070 13/08 Q1032 NOSIG RMK BIRD HAZARD RWY 28 PP000=
SPZO Feb2020-051430Z VRB02KT 9999 SCT040 OVC070 14/08 Q1031 NOSIG RMK BIRD HAZARD RWY 28=
SPZO Feb2020-051500Z VRB02KT 9999 SCT040 OVC070 15/08 Q1031 NOSIG RMK BIRD HAZARD RWY 28 PP000=
SPZO Feb2020-051530Z 27004KT 9999 SCT040 BKN080 16/08 Q1031 NOSIG RMK BIRD HAZARD RWY 28=
SPZO Feb2020-051600Z VRB01KT 9999 VCSH SCT040 BKN080 17/09 Q1031 NOSIG RMK BIRD HAZARD RWY 28 PP000=
SPZO Feb2020-051630Z 28010KT 9999 SCT043 BKN080 17/08 Q1030 NOSIG RMK BIRD HAZARD RWY 28=
SPZO Feb2020-051700Z 32007KT 280V360 9999 SCT046 BKN100 18/08 Q1030 NOSIG RMK BIRD HAZARD RWY 28 PP000=
SPZO Feb2020-051730Z 30014KT 9999 SCT040 BKN100 19/10 Q1029 NOSIG RMK BIRD HAZARD RWY 28=
SPZO Feb2020-051800Z 28017KT 9999 SCT050 BKN100 19/07 Q1028 NOSIG RMK BIRD HAZARD RWY 28 PP000=
SPZO Feb2020-051830Z 29016KT 9999 SCT050 BKN100 18/07 Q1028 NOSIG RMK BIRD HAZARD RWY 28=
SPZO Feb2020-051900Z 30015KT 9999 SCT050 BKN100 17/07 Q1027 NOSIG RMK BIRD HAZARD RWY 28 PP000=
SPZO Feb2020-051930Z 29011KT 9999 SCT050 BKN100 17/07 Q1027 NOSIG RMK BIRD HAZARD RWY 28=
SPZO Feb2020-052000Z 30014KT 9999 VCSH SCT046 BKN100 17/08 Q1026 NOSIG RMK BIRD HAZARD RWY 28 PP000=
SPZO Feb2020-052030Z 30012KT 9999 SCT046 BKN100 18/07 Q1026 NOSIG RMK BIRD HAZARD RWY 28=
SPZO Feb2020-052100Z 29011KT 9999 SCT046 BKN100 18/08 Q1025 NOSIG RMK BIRD HAZARD RWY 28 PP000=
SPZO Feb2020-052130Z 29012KT 9999 FEW046 BKN100 18/08 Q1025 NOSIG RMK BIRD HAZARD RWY 28=
SPZO Feb2020-052200Z 28011KT 9999 FEW046 BKN100 18/08 Q1025 NOSIG RMK TX18.8 BIRD HAZARD RWY 28 PP000=
SPZO Feb2020-052230Z 29011KT 9999 FEW046 BKN100 18/07 Q1025 NOSIG RMK BIRD HAZARD RWY 28=
SPZO Feb2020-052300Z 29011KT 9999 FEW046 BKN120 17/07 Q1025 NOSIG RMK BIRD HAZARD RWY 28 PP000=
SPZO Feb2020-052330Z 29009KT 9999 FEW046 BKN120 16/06 Q1026 NOSIG RMK BIRD HAZARD RWY 28=
SPZO Feb2020-060000Z 28008KT 9999 FEW050 BKN120 15/06 Q1027 NOSIG RMK BIRD HAZARD RWY 28 PP000=
SPZO Feb2020-060030Z 27006KT 9999 SCT050 BKN120 15/07 Q1027 NOSIG RMK BIRD HAZARD RWY 28=
SPZO Feb2020-060100Z 29009KT 9999 SCT050 BKN100 15/07 Q1028 NOSIG RMK BIRD HAZARD RWY 28 PP000=
SPZO Feb2020-060130Z 27006KT 9999 SCT050 BKN100 14/07 Q1029 NOSIG RMK BIRD HAZARD RWY 28=
SPZO Feb2020-060200Z 34004KT 9999 SCT050 BKN100 14/07 Q1029 NOSIG RMK BIRD HAZARD RWY 28 PP000=
SPZO Feb2020-060230Z 25004KT 9999 FEW050 BKN100 14/07 Q1029 NOSIG RMK BIRD HAZARD RWY 28=
SPZO Feb2020-060300Z 27004KT 9999 SCT050 BKN100 13/07 Q1029 NOSIG RMK BIRD HAZARD RWY 28 PP000=
SPZO Feb2020-060400Z 30010KT 9999 SCT046 BKN100 13/07 Q1030 NOSIG RMK BIRD HAZARD RWY 28 PP000=
SPZO Feb2020-060500Z 08012KT 7000 TSRA SCT040 FEW050CB BKN080 10/08 Q1031 RMK BIRD HAZARD RWY 28 PP012=
SPZO Feb2020-060600Z 08002KT 7000 TSRA FEW030CB SCT040 BKN080 09/06 Q1031 RMK BIRD HAZARD RWY 28 PP020=
SPZO Feb2020-060700Z 00000KT 8000 RA SCT020 SCT036 BKN080 09/07 Q1030 RMK CLNG BLW 1200M BIRD HAZARD RWY 28 PP012=
SPZO Feb2020-060800Z 09004KT 7000 -RA SCT020 SCT036 BKN080 09/07 Q1030 RMK CLNG BLW 1200M BIRD HAZARD RWY 28 PP020=
SPZO Feb2020-060900Z 09003KT 7000 -DZ SCT020 SCT030 BKN080 09/07 Q1030 RMK CLNG BLW 1200M BIRD HAZARD RWY 28 PP008=
SPZO Feb2020-061000Z 10003KT 7000 -DZ SCT020 SCT030 OVC080 09/07 Q1030 NOSIG RMK CLNG BLW 1200M BIRD HAZARD RWY 28 PP002=
SPZO Feb2020-061030Z 11004KT 9000 FEW020 SCT036 OVC080 09/07 Q1031 NOSIG RMK CLNG BLW 1200M BIRD HAZARD RWY 28=
SPZO Feb2020-061100Z 17002KT 9000 FEW020 SCT036 OVC080 09/07 Q1031 NOSIG RMK CLNG BLW 1200M BIRD HAZARD RWY 28 PP000=
SPZO Feb2020-061130Z 10002KT 9000 FEW020 SCT036 BKN080 09/07 Q1032 NOSIG RMK CLNG BLW 1200M BIRD HAZARD RWY 28=
SPZO Feb2020-061200Z 11003KT 9000 FEW020 SCT036 BKN080 10/08 Q1032 NOSIG RMK CLNG BLW 1200M TN8.7 BIRD HAZARD RWY 28 PP000=
SPZO Feb2020-061230Z 11003KT 9000 FEW020 SCT036 BKN080 11/08 Q1032 NOSIG RMK CLNG BLW 1200M BIRD HAZARD RWY 28=
SPZO Feb2020-061300Z 09003KT 9000 FEW020 SCT036 BKN080 11/07 Q1032 NOSIG RMK CLNG BLW 1200M BIRD HAZARD RWY 28 PP000=
SPZO Feb2020-061330Z 07002KT 9999 FEW020 SCT036 BKN080 12/08 Q1032 NOSIG RMK BIRD HAZARD RWY 28=
SPZO Feb2020-061400Z VRB02KT 9999 FEW026 SCT036 BKN080 13/06 Q1033 NOSIG RMK BIRD HAZARD RWY 28 PP000=
SPZO Feb2020-061430Z 10002KT 9999 SCT036 BKN080 14/06 Q1033 NOSIG RMK BIRD HAZARD RWY 28=
SPZO Feb2020-061500Z 28003KT 9999 -DZ SCT036 BKN080 14/08 Q1032 NOSIG RMK BIRD HAZARD RWY 28 PPTRZ=
SPZO Feb2020-061530Z 28003KT 9999 SCT036 BKN080 15/08 Q1032 NOSIG RMK BIRD HAZARD RWY 28=
SPZO Feb2020-061600Z 01001KT 9999 SCT036 BKN080 15/06 Q1032 NOSIG RMK BIRD HAZARD RWY 28 PP000=
SPZO Feb2020-061630Z 06004KT 9999 SCT036 BKN100 15/05 Q1032 NOSIG RMK BIRD HAZARD RWY 28=
SPZO Feb2020-061700Z 11005KT 9999 SCT040 BKN100 17/07 Q1031 NOSIG RMK BIRD HAZARD RWY 28 PP000=
SPZO Feb2020-061730Z 10005KT 010V120 9999 SCT043 BKN080 17/08 Q1030 NOSIG RMK BIRD HAZARD RWY 28=
SPZO Feb2020-061800Z 05004KT 270V030 9999 SCT043 BKN080 18/06 Q1030 NOSIG RMK BIRD HAZARD RWY 28 PP000=
SPZO Feb2020-061830Z 36010KT 9999 VCSH FEW040TCU SCT046 BKN080 16/07 Q1029 NOSIG RMK BIRD HAZARD RWY 28=
SPZO Feb2020-061900Z 02011KT 360V080 9999 VCSH FEW040TCU SCT046 BKN080 15/07 Q1029 NOSIG RMK BIRD HAZARD RWY 28 PP000=
SPZO Feb2020-061930Z 02007KT 350V090 9999 VCSH FEW040TCU SCT046 BKN080 17/07 Q1029 NOSIG RMK BIRD HAZARD RWY 28=
SPZO Feb2020-062000Z 36007KT 310V060 9999 VCSH FEW040TCU SCT046 BKN080 18/08 Q1028 NOSIG RMK BIRD HAZARD RWY 28 PP000=
SPZO Feb2020-062030Z 01008KT 320V040 9999 VCSH FEW040TCU SCT046 BKN080 18/08 Q1028 NOSIG RMK BIRD HAZARD RWY 28=
SPZO Feb2020-062100Z 02009KT 9999 VCSH FEW040TCU SCT046 BKN080 17/07 Q1028 NOSIG RMK BIRD HAZARD RWY 28 PP000=
SPZO Feb2020-062130Z 05007KT 010V090 9999 VCSH FEW040TCU SCT046 BKN080 17/07 Q1028 NOSIG RMK BIRD HAZARD RWY 28=
SPZO Feb2020-062200Z 02007KT 350V090 9999 VCSH FEW040TCU SCT046 BKN080 17/07 Q1027 NOSIG RMK TX18.5 BIRD HAZARD RWY 28 PP000=
SPZO Feb2020-062230Z 35005KT 270V020 9999 SCT046 BKN100 16/08 Q1028 NOSIG RMK TCU QUAD S BIRD HAZARD RWY 28=
SPZO Feb2020-062300Z 35004KT 270V030 9999 SCT046 BKN100 15/08 Q1028 NOSIG RMK TCU QUAD S BIRD HAZARD RWY 28 PP000=
SPZO Feb2020-062330Z 30007KT 280V010 9999 SCT043 SCT080 15/07 Q1029 NOSIG RMK TCU QUAD S BIRD HAZARD RWY 28=
SPZO Feb2020-070000Z 32006KT 280V010 9999 SCT043 SCT080 15/07 Q1029 NOSIG RMK TCU QUAD SW BIRD HAZARD RWY 28 PP000=
SPZO Feb2020-070030Z 29006KT 9999 SCT043 SCT080 14/07 Q1030 NOSIG RMK BIRD HAZARD RWY 28=
SPZO Feb2020-070100Z 28008KT 9999 SCT040 BKN080 14/07 Q1030 NOSIG RMK BIRD HAZARD RWY 28 PP000=
SPZO Feb2020-070130Z 30007KT 280V020 9999 SCT040 BKN080 14/07 Q1030 NOSIG RMK BIRD HAZARD RWY 28=
SPZO Feb2020-070200Z 27004KT 190V300 9999 SCT040 BKN080 14/08 Q1031 NOSIG RMK BIRD HAZARD RWY 28 PP000=
SPZO Feb2020-070230Z 26005KT 9999 -RA VCSH SCT040 BKN080 13/09 Q1031 NOSIG RMK BIRD HAZARD RWY 28=
SPZO Feb2020-070300Z 28005KT 9999 -RA VCSH SCT040 BKN080 13/09 Q1032 NOSIG RMK BIRD HAZARD RWY 28 PP002=
SPZO Feb2020-070400Z 16003KT 090V200 8000 RA VCSH SCT036 OVC070 12/09 Q1032 RMK PP020=
SPZO Feb2020-070500Z 11008KT 8000 RA VCSH FEW020 SCT036 OVC070 10/08 Q1033 RMK BR PP020=
SPZO Feb2020-070600Z 11007KT 8000 -RA VCSH FEW010 SCT030 OVC070 10/08 Q1033 RMK BR PP072=
SPZO Feb2020-070700Z 11009KT 8000 -RA VCSH FEW010 SCT030 OVC070 09/07 Q1032 RMK BR PP062=
SPZO Feb2020-070800Z 11008KT 8000 -RA VCSH FEW010 SCT030 OVC070 08/06 Q1032 RMK BR PP028=
SPZO Feb2020-070900Z 11007KT 8000 -RA VCSH FEW010 SCT030 OVC070 08/05 Q1033 RMK BR PP014=
SPZO Feb2020-071000Z 10003KT 8000 -RA VCSH FEW010 SCT030 OVC070 07/05 Q1033 NOSIG RMK BR BIRD HAZARD RWY 28 PP014=
SPZO Feb2020-071030Z VRB02KT 9000 -DZ FEW020 SCT036 OVC070 08/06 Q1033 NOSIG RMK BR BIRD HAZARD RWY 28=
SPZO Feb2020-071100Z 00000KT 9000 -DZ FEW020 SCT036 OVC070 08/05 Q1033 NOSIG RMK BR BIRD HAZARD RWY 28 PPTRZ=
SPZO Feb2020-071130Z 00000KT 9999 FEW020 SCT036 OVC080 08/06 Q1033 NOSIG RMK -DZ QUAD NE BIRD HAZARD RWY 28=
SPZO Feb2020-071200Z 09003KT 060V150 9999 FEW025 SCT036 OVC080 08/06 Q1034 NOSIG RMK TN07.3 BIRD HAZARD RWY 28 PP000=
SPZO Feb2020-071230Z 10003KT 030V140 9999 FEW025 SCT040 OVC100 09/05 Q1034 NOSIG RMK BIRD HAZARD RWY 28=
SPZO Feb2020-071300Z 12002KT 9999 FEW025 SCT040 BKN100 09/06 Q1034 NOSIG RMK BIRD HAZARD RWY 28 PP000=
SPZO Feb2020-071330Z 00000KT 9999 FEW025 SCT040 BKN100 11/05 Q1034 NOSIG RMK BIRD HAZARD RWY 28=
SPZO Feb2020-071400Z 00000KT 9999 SCT040 BKN100 11/05 Q1034 NOSIG RMK BIRD HAZARD RWY 28 PP000=
SPZO Feb2020-071430Z 20002KT 9999 SCT040 BKN100 12/05 Q1034 NOSIG RMK BIRD HAZARD RWY 28=
SPZO Feb2020-071500Z 15002KT 9999 SCT040 SCT100 12/05 Q1034 NOSIG RMK BIRD HAZARD RWY 28 PP000=
SPZO Feb2020-071530Z 29002KT 9999 SCT040 SCT100 14/05 Q1034 NOSIG RMK BIRD HAZARD RWY 28=
SPZO Feb2020-071600Z 00000KT 9999 SCT043 SCT100 14/05 Q1033 NOSIG RMK BIRD HAZARD RWY 28 PP000=
SPZO Feb2020-071630Z 20002KT 9999 SCT043 BKN100 16/06 Q1032 NOSIG RMK BIRD HAZARD RWY 28=
SPZO Feb2020-071700Z 02002KT 9999 SCT043 BKN100 17/05 Q1032 NOSIG RMK BIRD HAZARD RWY 28 PP000=
SPZO Feb2020-071730Z VRB01KT 9999 SCT050 BKN100 18/06 Q1031 NOSIG RMK BIRD HAZARD RWY 28=
SPZO Feb2020-071800Z VRB02KT 9999 SCT050 BKN100 19/07 Q1030 NOSIG RMK BIRD HAZARD RWY 28 PP000=
SPZO Feb2020-071830Z 27003KT 9999 SCT050 BKN100 20/05 Q1029 NOSIG RMK BIRD HAZARD RWY 28=
SPZO Feb2020-071900Z 27002KT 9999 SCT050 BKN100 20/05 Q1029 NOSIG RMK BIRD HAZARD RWY 28 PP000=
SPZO Feb2020-071930Z VRB02KT 9999 SCT050 BKN100 21/07 Q1028 NOSIG RMK BIRD HAZARD RWY 28=
SPZO Feb2020-072000Z 04003KT 9999 SCT050 BKN100 20/05 Q1027 NOSIG RMK BIRD HAZARD RWY 28 PP000=
SPZO Feb2020-072030Z 20003KT 9999 SCT050 BKN100 20/05 Q1026 NOSIG RMK BIRD HAZARD RWY 28=
SPZO Feb2020-072100Z 11011KT 9999 SCT050 BKN100 19/07 Q1026 NOSIG RMK BIRD HAZARD RWY 28 PP000=
SPZO Feb2020-072130Z 12009KT 9999 SCT050 BKN100 18/07 Q1026 NOSIG RMK BIRD HAZARD RWY 28=
SPZO Feb2020-072200Z 11007KT 9999 SCT050 BKN100 18/08 Q1026 NOSIG RMK TX20.7 BIRD HAZARD RWY 28 PP000=
SPZO Feb2020-072230Z 09008KT 9999 FEW050 BKN100 17/07 Q1027 NOSIG RMK BIRD HAZARD RWY 28=
SPZO Feb2020-072300Z 10006KT 9999 FEW050 BKN100 16/08 Q1027 NOSIG RMK BIRD HAZARD RWY 28 PP000=
SPZO Feb2020-072330Z 11004KT 9999 VCSH SCT050 BKN100 16/08 Q1028 NOSIG RMK BIRD HAZARD RWY 28=
SPZO Feb2020-080000Z 10005KT 9999 SCT050 BKN100 15/08 Q1028 NOSIG RMK BIRD HAZARD RWY 28 PP000=
SPZO Feb2020-080030Z 08002KT 9999 VCSH SCT050 BKN100 15/08 Q1028 NOSIG RMK BIRD HAZARD RWY 28=
SPZO Feb2020-080100Z 27009KT 9999 SCT043 BKN080 14/06 Q1030 TEMPO -RA RMK CB QUAD NW BIRD HAZARD RWY 28 PP000=
SPZO Feb2020-080130Z 28007KT 9999 SCT043 BKN080 13/07 Q1030 NOSIG RMK BIRD HAZARD RWY 28=
SPZO Feb2020-080200Z 28007KT 9999 SCT043 BKN080 13/07 Q1031 NOSIG RMK BIRD HAZARD RWY 28 PP000=
SPZO Feb2020-080300Z 27009KT 9999 SCT050 BKN100 14/07 Q1031 NOSIG RMK BIRD HAZARD RWY 28 PP000=
SPZO Feb2020-080400Z 11016KT 9999 RA SCT050 BKN100 11/08 Q1032 NOSIG RMK BIRD HAZARD RWY 28 PP000=
SPZO Feb2020-080500Z 00000KT 5000 TS RA FEW040CB SCT050TCU OVC080 09/07 Q1032 NOSIG RMK BIRD HAZARD RWY 28 PP044=
SPZO Feb2020-080600Z 05002KT 9999 RA SCT050 OVC080 09/07 Q1031 NOSIG RMK BIRD HAZARD RWY 28 PP042=
SPZO Feb2020-080700Z 00000KT 9999 -RA SCT050 OVC080 10/07 Q1030 RMK BIRD HAZARD RWY 28 PP002=
SPZO Feb2020-080800Z 10004KT 9999 -RA SCT050 OVC080 10/08 Q1030 RMK BIRD HAZARD RWY 28 PP002=
SPZO Feb2020-080900Z 10004KT 9999 -RA SCT050 OVC080 10/08 Q1030 RMK BIRD HAZARD RWY 28 PP002=
SPZO Feb2020-081000Z 10007KT 9999 -RA SCT050 BKN100 10/08 Q1030 RMK BIRD HAZARD RWY 28 PP000=
SPZO Feb2020-081030Z 10001KT 9999 FEW020 SCT030 BKN100 10/08 Q1030 NOSIG RMK BIRD HAZARD RWY 28=
SPZO Feb2020-081100Z 00000KT 9999 FEW020 SCT030 BKN100 10/08 Q1031 NOSIG RMK BIRD HAZARD RWY 28 PP000=
SPZO Feb2020-081130Z 08002KT 9999 FEW020 SCT030 BKN100 10/08 Q1031 NOSIG RMK BIRD HAZARD RWY 28=
SPZO Feb2020-081200Z 36001KT 9999 FEW020 SCT030 BKN100 10/08 Q1031 NOSIG RMK TN8.2 BIRD HAZARD RWY 28 PP000=
SPZO Feb2020-081230Z 11002KT 9999 FEW020 SCT030 BKN100 11/08 Q1032 NOSIG RMK BIRD HAZARD RWY 28=
SPZO Feb2020-081300Z 02002KT 9999 FEW020 SCT030 BKN100 11/08 Q1032 NOSIG RMK BIRD HAZARD RWY 28 PP000=
SPZO Feb2020-081330Z 36002KT 9999 FEW020 SCT030 BKN100 12/08 Q1032 NOSIG RMK BIRD HAZARD RWY 28=
SPZO Feb2020-081400Z 00000KT 9999 SCT030 BKN100 13/08 Q1032 NOSIG RMK BIRD HAZARD RWY 28 PP000=
SPZO Feb2020-081430Z 17002KT 9999 SCT030 BKN100 13/08 Q1032 NOSIG RMK BIRD HAZARD RWY 28=
SPZO Feb2020-081500Z 11005KT 9999 SCT030 BKN100 13/08 Q1032 NOSIG RMK BIRD HAZARD RWY 28 PP000=
SPZO Feb2020-081530Z 11009KT 9000 SCT030 BKN100 12/08 Q1032 NOSIG RMK BR QUAD E BIRD HAZARD RWY 28=
SPZO Feb2020-081600Z 11008KT 5000 -RA SCT030 OVC080 11/09 Q1032 TEMPO 4000 RA RMK BIRD HAZARD RWY 28 PP006=
SPZO Feb2020-081613Z 10007KT 4000 -RA FEW010 SCT030 OVC080 11/09 Q1032 NOSIG RMK CLNG BLW 1200M BIRD HAZARD RWY 28=
SPZO Feb2020-081630Z 11003KT 4000 -RA FEW010 SCT030 OVC080 11/09 Q1032 NOSIG RMK CLNG BLW 1200M BIRD HAZARD RWY 28=
SPZO Feb2020-081700Z 09001KT 9000 -DZ FEW015 SCT030 OVC080 12/09 Q1032 NOSIG RMK CLNG BLW 1200M BIRD HAZARD RWY 28 PP014=
SPZO Feb2020-081730Z 08004KT 9000 -DZ VCSH SCT020 SCT040 OVC080 12/09 Q1031 NOSIG RMK BIRD HAZARD RWY 28=
SPZO Feb2020-081800Z 00000KT 9000 VCSH SCT020 SCT040 OVC080 13/08 Q1031 NOSIG RMK BIRD HAZARD RWY 28 PPTRZ=
SPZO Feb2020-081830Z 08003KT 9000 DZ VCSH SCT020 SCT040 OVC080 12/09 Q1030 NOSIG RMK BIRD HAZARD RWY 28=
SPZO Feb2020-081900Z 08003KT 010V120 9000 -DZ VCSH SCT020 SCT040 OVC080 13/09 Q1030 NOSIG RMK BIRD HAZARD RWY 28 PP004=
SPZO Feb2020-081930Z 11006KT 9999 FEW025 SCT040 OVC080 14/10 Q1029 NOSIG RMK BIRD HAZARD RWY 28=
SPZO Feb2020-082000Z 10005KT 9999 FEW025 SCT040 OVC080 14/09 Q1029 NOSIG RMK BIRD HAZARD RWY 28 PPTRZ=
SPZO Feb2020-082030Z 14004KT 100V190 9999 FEW025 SCT040 OVC080 14/09 Q1029 NOSIG RMK BIRD HAZARD RWY 28=
SPZO Feb2020-082100Z 11004KT 9999 SCT043 OVC080 14/08 Q1029 NOSIG RMK TCU QUAD S BIRD HAZARD RWY 28 PP000=
SPZO Feb2020-082130Z VRB01KT 9999 SCT043 OVC080 14/08 Q1028 NOSIG RMK BIRD HAZARD RWY 28=
SPZO Feb2020-082200Z 11003KT 9999 SCT043 BKN080 14/08 Q1028 NOSIG RMK TX15.4 BIRD HAZARD RWY 28 PP000=
SPZO Feb2020-082230Z 13003KT 9999 SCT043 BKN100 14/08 Q1028 NOSIG RMK BIRD HAZARD RWY 28=
SPZO Feb2020-082300Z VRB02KT 9999 SCT043 BKN100 14/08 Q1029 NOSIG RMK BIRD HAZARD RWY 28 PP000=
SPZO Feb2020-082330Z 08002KT 9999 SCT046 BKN080 13/08 Q1029 NOSIG RMK BIRD HAZARD RWY 28=
SPZO Feb2020-090000Z 32002KT 9999 SCT046 BKN080 13/09 Q1029 NOSIG RMK BIRD HAZARD RWY 28 PP000=
SPZO Feb2020-090030Z 29005KT 9999 SCT043 BKN080 13/08 Q1030 NOSIG RMK BIRD HAZARD RWY 28=
SPZO Feb2020-090100Z 27005KT 230V320 9000 -RA SCT043 BKN080 13/07 Q1030 NOSIG RMK BIRD HAZARD RWY 28 PPTRZ=
SPZO Feb2020-090130Z 29004KT 260V340 9000 -DZ SCT043 BKN080 12/08 Q1031 NOSIG RMK BIRD HAZARD RWY 28=
SPZO Feb2020-090200Z 09004KT 9000 -RA SCT043 BKN080 12/08 Q1031 NOSIG RMK BIRD HAZARD RWY 28 PPTRZ=
SPZO Feb2020-090230Z 14002KT 9999 SCT043 BKN080 12/08 Q1032 NOSIG RMK BIRD HAZARD RWY 28=
SPZO Feb2020-090300Z 08003KT 010V090 9000 -DZ SCT043 BKN080 12/08 Q1032 RMK PPTRZ=
SPZO Feb2020-090400Z 09003KT 9000 SCT043 BKN080 11/09 Q1032 REDZ RMK BR PPTRZ=
SPZO Feb2020-090500Z 20002KT 9999 SCT043 BKN080 11/09 Q1032 RMK PP000=
SPZO Feb2020-090600Z 29004KT 9999 SCT043 BKN080 11/09 Q1031 RMK PP000=
SPZO Feb2020-090700Z 25002KT 9999 SCT043 BKN080 11/07 Q1030 RMK PP000=
SPZO Feb2020-090800Z 10002KT 9999 FEW030 SCT040 BKN080 10/08 Q1030 RMK PP000=
SPZO Feb2020-090900Z 08002KT 9999 FEW030 SCT040 BKN080 11/08 Q1030 NOSIG RMK BIRD HAZARD RWY 28 PP000=
SPZO Feb2020-091000Z 00000KT 9999 FEW030 SCT040 BKN080 11/08 Q1030 NOSIG RMK BIRD HAZARD RWY 28 PP000=
SPZO Feb2020-091030Z 00000KT 9999 FEW030 SCT040 BKN080 11/08 Q1031 NOSIG RMK BR QUAD NE BIRD HAZARD RWY 28=
SPZO Feb2020-091100Z 09003KT 020V120 9999 FEW030 SCT040 OVC080 11/08 Q1031 NOSIG RMK BR QUAD NE BIRD HAZARD RWY 28 PP000=
SPZO Feb2020-091130Z VRB01KT 9000 SCT036 BKN080 11/08 Q1032 NOSIG RMK BR BIRD HAZARD RWY 28=
SPZO Feb2020-091200Z 12003KT 9000 SCT036 BKN080 11/09 Q1032 NOSIG RMK BR TN09.9 BIRD HAZARD RWY 28 PP000=
SPZO Feb2020-091230Z 10003KT 060V150 9000 SCT036 SCT080 12/09 Q1032 NOSIG RMK BR BIRD HAZARD RWY 28=
SPZO Feb2020-091300Z VRB02KT 9000 SCT036 SCT100 14/08 Q1032 NOSIG RMK BIRD HAZARD RWY 28 PP000=
SPZO Feb2020-091330Z VRB02KT 9999 SCT036 BKN080 14/08 Q1032 NOSIG RMK BIRD HAZARD RWY 28=
SPZO Feb2020-091400Z 08003KT 9999 SCT036 BKN080 14/08 Q1032 NOSIG RMK BIRD HAZARD RWY 28 PP000=
SPZO Feb2020-091430Z 00000KT 9999 SCT040 BKN080 15/08 Q1032 NOSIG RMK BIRD HAZARD RWY 28=
SPZO Feb2020-091500Z VRB01KT 9999 SCT040 BKN080 15/08 Q1032 NOSIG RMK BIRD HAZARD RWY 28 PP000=
SPZO Feb2020-091530Z VRB02KT 9999 SCT040 BKN080 16/08 Q1032 NOSIG RMK BIRD HAZARD RWY 28=
SPZO Feb2020-091600Z 10001KT 9999 SCT040 BKN080 16/08 Q1032 NOSIG RMK BIRD HAZARD RWY 28 PP000=
SPZO Feb2020-091630Z VRB02KT 9999 SCT040 BKN080 17/07 Q1031 NOSIG RMK BIRD HAZARD RWY 28=
SPZO Feb2020-091700Z VRB02KT 9999 SCT043 BKN080 18/08 Q1031 NOSIG RMK TCU QUAD N BIRD HAZARD RWY 28 PP000=
SPZO Feb2020-091730Z VRB02KT 9999 SCT043 BKN080 18/09 Q1030 NOSIG RMK BIRD HAZARD RWY 28=
SPZO Feb2020-091800Z 26004KT 170V330 9999 SCT043 BKN080 19/07 Q1030 NOSIG RMK BIRD HAZARD RWY 28 PP000=
SPZO Feb2020-091830Z 30010KT 9999 SCT043 BKN080 17/08 Q1029 NOSIG RMK BIRD HAZARD RWY 28=
SPZO Feb2020-091900Z 29007KT 200V350 9999 VCSH SCT043 BKN080 19/08 Q1029 NOSIG RMK TCU QUAD N /S BIRD HAZARD RWY 28 PP000=
SPZO Feb2020-091930Z 12006KT 030V180 9999 -DZ VCSH SCT043 BKN080 16/09 Q1029 NOSIG RMK VIS 9000 QUAD NE RA BIRD HAZARD RWY 28=
SPZO Feb2020-092000Z VRB05KT 9000 RA VCSH SCT043 BKN080 13/07 Q1029 TEMPO 7000 RMK VIS QUAD NE BIRD HAZARD RWY 28 PPTRZ=
SPZO Feb2020-092030Z 21003KT 170V270 9000 DZ VCSH SCT043 BKN080 13/09 Q1029 NOSIG RMK BIRD HAZARD RWY 28=
SPZO Feb2020-092100Z VRB01KT 9999 VCSH SCT043 BKN080 13/09 Q1029 NOSIG RMK TCU QUAD S BIRD HAZARD RWY 28 PP020=
SPZO Feb2020-092130Z 29004KT 240V330 9999 VCSH SCT040 BKN080 14/08 Q1029 NOSIG RMK TCU QUAD NW BIRD HAZARD RWY 28=
SPZO Feb2020-092200Z VRB01KT 9000 -DZ VCSH SCT040 BKN070 14/08 Q1029 TEMPO RA RMK TCU QUAD NW TX19.4 BIRD HAZARD RWY 28 PP002=
SPZO Feb2020-092230Z 32005KT 8000 -RA VCSH SCT040 OVC070 12/08 Q1029 NOSIG RMK BIRD HAZARD RWY 28=
SPZO Feb2020-092300Z 29007KT 9000 -RA VCSH SCT040 BKN080 11/08 Q1030 NOSIG RMK BIRD HAZARD RWY 28 PP012=
SPZO Feb2020-092330Z 26002KT 9999 -RA SCT046 BKN080 11/08 Q1030 NOSIG RMK BIRD HAZARD RWY 28=
SPZO Feb2020-100000Z 27001KT 9999 -DZ SCT046 BKN100 11/08 Q1031 NOSIG RMK BIRD HAZARD RWY 28 PP006=
SPZO Feb2020-100030Z 09002KT 9999 -DZ SCT046 BKN100 11/08 Q1031 NOSIG RMK BIRD HAZARD RWY 28=
SPZO Feb2020-100100Z 29002KT 9999 SCT046 BKN100 11/08 Q1031 REDZ NOSIG RMK BIRD HAZARD RWY 28 PP004=
SPZO Feb2020-100130Z 21003KT 9999 SCT046 BKN100 11/08 Q1032 NOSIG RMK BIRD HAZARD RWY 28=
SPZO Feb2020-100200Z 12001KT 9999 SCT046 BKN100 11/08 Q1032 REDZ NOSIG RMK BIRD HAZARD RWY 28 PP004=
SPZO Feb2020-100230Z 09002KT 9999 SCT046 BKN100 11/08 Q1033 NOSIG RMK BIRD HAZARD RWY 28=
SPZO Feb2020-100300Z 12002KT 9999 SCT046 BKN100 11/09 Q1033 NOSIG RMK BIRD HAZARD RWY 28 PP000=
SPZO Feb2020-100400Z 10003KT 9999 SCT050 BKN100 11/09 Q1033 RMK BIRD HAZARD RWY 28 PP000=
SPZO Feb2020-100500Z 09001KT 9999 SCT040 BKN100 11/09 Q1032 NOSIG RMK BIRD HAZARD RWY 28 PP000=
SPZO Feb2020-100600Z 10003KT 9999 FEW020 SCT040 BKN100 11/09 Q1031 RMK BIRD HAZARD RWY 28 PP000=
SPZO Feb2020-100700Z 12002KT 9999 FEW020 SCT040 BKN100 11/09 Q1031 RMK BIRD HAZARD RWY 28 PP000=
SPZO Feb2020-100800Z 08004KT 9999 FEW020 SCT040 BKN100 11/09 Q1031 RMK BIRD HAZARD RWY 28 PP000=
SPZO Feb2020-100900Z 09003KT 9999 FEW020 SCT040 BKN100 10/08 Q1031 RMK BIRD HAZARD RWY 28 PP000=
SPZO Feb2020-101000Z 12002KT 9999 FEW020 SCT040 BKN100 11/09 Q1031 NOSIG RMK BIRD HAZARD RWY 28 PP000=
SPZO Feb2020-101030Z 14001KT 9999 FEW016 SCT030 BKN100 11/09 Q1032 NOSIG RMK BIRD HAZARD RWY 28=
SPZO Feb2020-101100Z 10002KT 8000 FEW016 SCT030 BKN100 10/08 Q1032 NOSIG RMK CLNG BLW 1200M BIRD HAZARD RWY 28 PP000=
SPZO Feb2020-101120Z 08003KT 8000 BKN009 OVC050 11/09 Q1032 NOSIG RMK BR CLNG BLW 1200M BIRD HAZARD RWY 28=
SPZO Feb2020-101130Z 11002KT 8000 BKN009 OVC050 11/09 Q1032 NOSIG RMK BR CLNG BLW 1200M BIRD HAZARD RWY 28=
SPZO Feb2020-101145Z 10002KT 9000 BKN015 OVC060 11/09 Q1032 NOSIG RMK BR CLNG BLW 1200M BIRD HAZARD RWY 28=
SPZO Feb2020-101200Z 10002KT 9000 BKN015 OVC060 11/09 Q1033 NOSIG RMK BR CLNG BLW 1200M BIRD HAZARD RWY 28 PP000=
SPZO Feb2020-101230Z VRB02KT 9000 SCT015 SCT036 OVC070 11/09 Q1033 NOSIG RMK BR CLNG BLW 1200M BIRD HAZARD RWY 28=
SPZO Feb2020-101300Z VRB01KT 9000 SCT015 SCT036 OVC070 12/09 Q1033 NOSIG RMK BR CLNG BLW 1200M BIRD HAZARD RWY 28 PP000=
SPZO Feb2020-101330Z VRB03KT 9000 SCT015 SCT036 BKN080 13/09 Q1034 NOSIG RMK CLNG BLW 1200M BIRD HAZARD RWY 28=
SPZO Feb2020-101400Z 09004KT 020V120 9999 FEW020 SCT036 BKN080 13/09 Q1034 NOSIG RMK BIRD HAZAR RWY 28 PP000=
SPZO Feb2020-101430Z 12003KT 090V190 9999 VCSH FEW020 SCT036 BKN080 14/08 Q1033 NOSIG RMK BIRD HAZARD RWY 28=
SPZO Feb2020-101500Z VRB02KT 9999 VCSH FEW020 SCT036 BKN080 14/08 Q1033 NOSIG RMK BIRD HAZARD RWY 28 PP000=
SPZO Feb2020-101530Z 11006KT 090V180 9999 VCSH SCT036 BKN080 14/08 Q1033 NOSIG RMK BIRD HAZARD RWY 28=
SPZO Feb2020-101600Z 12006KT 090V180 9999 VCSH SCT036 BKN080 14/08 Q1033 NOSIG RMK BIRD HAZARD RWY 28 PP000=
SPZO Feb2020-101630Z VRB03KT 9999 VCSH SCT036 BKN080 16/08 Q1032 NOSIG RMK BIRD HAZARD RWY 28=
SPZO Feb2020-101700Z 10005KT 010V120 9999 VCSH SCT036 BKN080 15/08 Q1032 NOSIG RMK BIRD HAZARD RWY 28 PP000=
SPZO Feb2020-101730Z 13004KT 9999 VCSH SCT040 BKN080 16/08 Q1031 NOSIG RMK BIRD HAZARD RWY 28=
SPZO Feb2020-101800Z 11003KT 9999 SCT040 BKN080 16/08 Q1031 NOSIG RMK BIRD HAZARD RWY 28 PP000=
SPZO Feb2020-101830Z 27004KT 9999 -DZ SCT046 BKN080 16/08 Q1030 NOSIG RMK BIRD HAZARD RWY 28=
SPZO Feb2020-101900Z 33006KT 9999 VCSH SCT040 BKN080 16/08 Q1030 NOSIG RMK BIRD HAZARD RWY 28 PP000=
SPZO Feb2020-101930Z 11008KT 9999 SCT046 BKN080 16/10 Q1030 NOSIG RMK BIRD HAZARD RWY 28=
SPZO Feb2020-102000Z 11007KT 9999 SCT040 BKN080 16/09 Q1029 NOSIG RMK BIRD HAZARD RWY 28 PP000=
SPZO Feb2020-102030Z 11010KT 9999 SCT040 BKN080 17/09 Q1029 NOSIG RMK BIRD HAZARD RWY 28=
SPZO Feb2020-102100Z 10010KT 9999 -DZ SCT040 BKN080 15/09 Q1029 NOSIG RMK BIRD HAZARD RWY 28 PP004=
SPZO Feb2020-102130Z 11002KT 9999 -DZ SCT046 BKN080 15/09 Q1029 NOSIG RMK BIRD HAZARD RWY 28=
SPZO Feb2020-102200Z 25009KT 9999 VCSH SCT046 BKN080 14/08 Q1029 NOSIG RMK TX16.9 BIRD HAZARD RWY 28 PP000=
SPZO Feb2020-102230Z 28005KT 9999 SCT046 BKN080 14/08 Q1030 NOSIG RMK BIRD HAZARD RWY 28=
SPZO Feb2020-102300Z 35005KT 9999 SCT046 BKN100 13/08 Q1030 NOSIG RMK BIRD HAZARD RWY 28 PP000=
SPZO Feb2020-102330Z 28002KT 9999 SCT043 BKN080 13/08 Q1031 NOSIG RMK BIRD HAZARD RWY 28=
SPZO Feb2020-110000Z 35004KT 9999 SCT046 BKN100 12/08 Q1031 NOSIG RMK BIRD HAZARD RWY 28 PP000=
SPZO Feb2020-110030Z 12003KT 9999 SCT046 BKN080 13/09 Q1032 NOSIG RMK BIRD HAZARD RWY 28=
SPZO Feb2020-110100Z 10003KT 9999 SCT046 BKN080 12/09 Q1032 NOSIG RMK BIRD HAZARD RWY 28 PP000=
SPZO Feb2020-110130Z 20002KT 9999 SCT046 BKN080 12/09 Q1032 NOSIG RMK BIRD HAZARD RWY 28=
SPZO Feb2020-110200Z 11003KT 9999 SCT046 BKN080 12/08 Q1033 NOSIG RMK BIRD HAZARD RWY 28 PP000=
SPZO Feb2020-110230Z 28002KT 9999 SCT046 BKN080 12/08 Q1033 NOSIG RMK BIRD HAZARD RWY 28=
SPZO Feb2020-110300Z 29005KT 9999 SCT040 BKN080 11/08 Q1033 NOSIG RMK BIRD HAZARD RWY 28 PP000=
SPZO Feb2020-110400Z 09004KT 9999 SCT040 BKN080 12/08 Q1033 RMK BIRD HAZARD RWY 28 PP000=
SPZO Feb2020-110500Z 11003KT 9999 SCT040 BKN080 11/08 Q1033 RMK BIRD HAZARD RWY 28 PP000=
SPZO Feb2020-110600Z 36002KT 9999 SCT040 BKN080 11/08 Q1032 RMK BIRD HAZARD RWY 28 PP000=
SPZO Feb2020-110700Z 08005KT 9999 SCT040 BKN080 10/08 Q1032 RMK BIRD HAZARD RWY 28 PP000=
SPZO Feb2020-110800Z 00000KT 9999 SCT040 BKN080 11/07 Q1032 RMK BIRD HAZARD RWY 28 PP000=
SPZO Feb2020-110900Z 00000KT 9999 SCT040 BKN080 11/08 Q1032 RMK BIRD HAZARD RWY 28 PP000=
SPZO Feb2020-111000Z 02002KT 9999 SCT040 BKN080 11/07 Q1033 NOSIG RMK BIRD HAZARD RWY 28 PP000=
SPZO Feb2020-111030Z 12004KT 9999 SCT040 BKN080 11/07 Q1033 NOSIG RMK BIRD HAZARD RWY 28=
SPZO Feb2020-111100Z 10004KT 9999 SCT040 BKN080 11/07 Q1033 NOSIG RMK BIRD HAZARD RWY 28 PP000=
SPZO Feb2020-111130Z 12001KT 9999 SCT040 BKN080 11/07 Q1033 NOSIG RMK BIRD HAZARD RWY 28=
SPZO Feb2020-111200Z 27001KT 9999 SCT040 BKN100 12/06 Q1034 NOSIG RMK TN10.4 BIRD HAZARD RWY 28 PP000=
SPZO Feb2020-111230Z 11004KT 9999 SCT040 BKN100 12/07 Q1034 NOSIG RMK BIRD HAZARD RWY 28=
SPZO Feb2020-111300Z 12003KT 9999 SCT040 BKN100 14/06 Q1034 NOSIG RMK BIRD HAZARD RWY 28 PP000=
SPZO Feb2020-111330Z 08006KT 9999 SCT040 BKN100 13/06 Q1034 NOSIG RMK BIRD HAZARD RWY 28=
SPZO Feb2020-111400Z 16003KT 9999 SCT040 BKN100 14/06 Q1034 NOSIG RMK BIRD HAZARD RWY 28 PP000=
SPZO Feb2020-111430Z 07007KT 9999 SCT040 BKN100 16/07 Q1034 NOSIG RMK BIRD HAZARD RWY 28=
SPZO Feb2020-111500Z 09005KT 9999 BKN040 15/05 Q1034 NOSIG RMK BIRD HAZARD RWY 28 PP000=
SPZO Feb2020-111530Z 09006KT 9999 FEW040 BKN046 17/09 Q1034 NOSIG RMK BIRD HAZARD RWY 28=
SPZO Feb2020-111600Z 13004KT 9999 FEW040 BKN046 16/07 Q1034 NOSIG RMK BIRD HAZARD RWY 28 PP000=
SPZO Feb2020-111630Z VRB01KT 9999 FEW040 BKN046 17/05 Q1033 NOSIG RMK BIRD HAZARD RWY 28=
SPZO Feb2020-111700Z 11005KT 9999 FEW040 BKN046 18/09 Q1032 NOSIG RMK BIRD HAZARD RWY 28 PP000=
SPZO Feb2020-111730Z 12007KT 030V120 9999 SCT043 BKN080 19/06 Q1032 NOSIG RMK BIRD HAZARD RWY 28=
SPZO Feb2020-111800Z 11005KT 040V150 9999 SCT043 BKN080 18/06 Q1031 NOSIG RMK BIRD HAZARD RWY 28 PP000=
SPZO Feb2020-111830Z 11004KT 9999 SCT046 BKN080 20/06 Q1030 NOSIG RMK BIRD HAZARD RWY 28=
SPZO Feb2020-111900Z 36007KT 270V030 9999 FEW040TCU SCT046 BKN080 20/05 Q1029 NOSIG RMK BIRD HAZARD RWY 28 PP000=
SPZO Feb2020-111930Z 36006KT 290V020 9999 FEW040TCU SCT046 BKN080 20/06 Q1028 NOSIG RMK BIRD HAZARD RWY 28=
SPZO Feb2020-112000Z 36007KT 270V350 9999 VCSH FEW040TCU SCT046 BKN080 20/06 Q1028 NOSIG RMK BIRD HAZARD RWY 28 PP000=
SPZO Feb2020-112030Z 28017KT 9999 VCSH FEW040TCU SCT046 BKN080 18/07 Q1027 NOSIG RMK BIRD HAZARD RWY 28=
SPZO Feb2020-112100Z 27014KT 9999 VCSH FEW040TCU SCT046 BKN080 17/07 Q1028 NOSIG RMK BIRD HAZARD RWY 28 PP000=
SPZO Feb2020-112130Z 28015KT 9999 FEW040TCU SCT046 BKN080 16/07 Q1028 NOSIG RMK BIRD HAZARD RWY 28=
SPZO Feb2020-112200Z 28014KT 9999 FEW040TCU SCT046 BKN100 15/06 Q1028 NOSIG RMK TX21.1 BIRD HAZARD RWY 28 PP000=
SPZO Feb2020-112230Z 28008KT 210V300 9999 SCT046 BKN100 16/07 Q1028 NOSIG RMK TCU QUAD S BIRD HAZARD RWY 28=
SPZO Feb2020-112300Z 30004KT 240V330 9999 SCT046 BKN100 16/07 Q1029 NOSIG RMK TCU QUAD S BIRD HAZARD RWY 28 PP000=
SPZO Feb2020-112330Z 34007KT 280V020 9999 SCT040 BKN080 15/07 Q1029 NOSIG RMK TCU QUAD S MOV E BIRD HAZARD RWY 28=
SPZO Feb2020-120000Z VRB02KT 9999 SCT040 BKN080 15/07 Q1029 NOSIG RMK TCU QUAD S MOV E BIRD HAZARD RWY 28 PP000=
SPZO Feb2020-120030Z 00000KT 9999 SCT040 BKN080 14/08 Q1030 NOSIG RMK BIRD HAZARD RWY 28=
SPZO Feb2020-120100Z 09004KT 020V120 9999 SCT040 BKN080 14/08 Q1030 NOSIG RMK BIRD HAZARD RWY 28 PP000=
SPZO Feb2020-120130Z 14006KT 9999 VCSH SCT040 BKN080 14/07 Q1031 NOSIG RMK VIS 9000 QUAD W RA BIRD HAZARD RWY 28=
SPZO Feb2020-120200Z 20005KT 150V270 9000 -RA VCSH SCT040 BKN080 12/08 Q1032 NOSIG RMK BIRD HAZARD RWY 28 PP004=
SPZO Feb2020-120230Z 28009KT 9000 -RA VCSH SCT040 BKN080 12/09 Q1032 NOSIG RMK BIRD HAZARD RWY 28=
SPZO Feb2020-120300Z 29008KT 9000 -RA VCSH SCT040 OVC070 11/08 Q1033 NOSIG RMK BR BIRD HAZARD RWY 28 PP006=
SPZO Feb2020-120400Z 29008KT 9000 -RA SCT040 OVC070 11/08 Q1033 RMK BR PP006=
SPZO Feb2020-120500Z 30008KT 9999 -DZ SCT040 BKN080 12/08 Q1033 RMK PPTRZ=
SPZO Feb2020-120600Z 29006KT 9999 -DZ SCT040 BKN080 11/07 Q1032 RMK BR PP002=
SPZO Feb2020-120700Z 27003KT 180V330 9999 SCT036 BKN080 11/07 Q1032 RMK PPTRZ=
SPZO Feb2020-120800Z VRB02KT 9999 -DZ VCSH SCT036 BKN080 10/07 Q1032 RMK BR PP004=
SPZO Feb2020-120900Z 10003KT 9000 -RA VCSH FEW020 SCT036 OVC070 09/07 Q1032 RMK BR PP0018=
SPZO Feb2020-121000Z 00000KT 9000 -RA VCSH FEW015 SCT036 OVC070 09/07 Q1032 NOSIG RMK BR BIRD HAZARD RWY 28 PP020=
SPZO Feb2020-121030Z 00000KT 9000 -RA VCSH FEW015 SCT036 OVC070 09/07 Q1032 NOSIG RMK BR BIRD HAZARD RWY 28=
SPZO Feb2020-121100Z VRB01KT 8000 -RA VCSH FEW015 SCT036 OVC070 09/07 Q1032 TEMPO RA RMK BR CLNG BLW 1200M BIRD HAZARD RWY 28 PP008=
SPZO Feb2020-121130Z 00000KT 8000 -RA FEW015 SCT036 OVC070 09/07 Q1033 NOSIG RMK CNLG BLW 1200M BIRD HAZARD RWY 28=
SPZO Feb2020-121200Z 00000KT 8000 -RA FEW015 SCT036 OVC070 09/07 Q1033 NOSIG RMK TN08.9 CLNG BLW 1200M BIRD HAZARD RWY 28 PP006=
SPZO Feb2020-121230Z 03002KT 8000 -RA FEW020 SCT036 OVC070 10/07 Q1033 NOSIG RMK CLNG BLW 1200M BIRD HAZARD RWY 28=
SPZO Feb2020-121300Z 28003KT 9000 -RA FEW020 SCT036 OVC070 10/07 Q1034 NOSIG RMK CLNG BLW 1200M BIRD HAZARD RWY 28 PP008=
SPZO Feb2020-121330Z 27003KT 9000 -RA FEW020 SCT036 OVC070 11/07 Q1034 NOSIG RMK CLNG BLW 1200M BIRD HAZARD RWY 28=
SPZO Feb2020-121400Z 30003KT 250V340 9000 -DZ FEW030 SCT036 OVC080 11/07 Q1034 NOSIG RMK BIRD HAZARD RWY 28 PPTRZ=
SPZO Feb2020-121430Z 30004KT 260V010 9000 -DZ FEW025 SCT036 OVC080 12/06 Q1034 NOSIG RMK BIRD HAZARD RWY 28=
SPZO Feb2020-121500Z 27004KT 150V240 9000 DZ FEW025 SCT036 OVC080 12/05 Q1034 NOSIG RMK BIRD HAZARD RWY 28 PP002=
SPZO Feb2020-121530Z 26003KT 180V280 9999 SCT036 OVC080 14/05 Q1034 NOSIG RMK BIRD HAZARD RWY 28=
SPZO Feb2020-121600Z 28003KT 9999 SCT040 BKN080 15/07 Q1033 REDZ NOSIG RMK BIRD HAZARD RWY 28 PPTRZ=
SPZO Feb2020-121630Z 33004KT 9999 SCT043 BKN100 15/08 Q1033 NOSIG RMK BIRD HAZARD RWY 28=
SPZO Feb2020-121700Z 28003KT 9999 SCT043 BKN100 16/06 Q1032 NOSIG RMK BIRD HAZARD RWY 28 PP000=
SPZO Feb2020-121730Z 33005KT 9999 SCT043 BKN100 16/05 Q1031 NOSIG RMK BIRD HAZARD RWY 28=
SPZO Feb2020-121800Z 31004KT 9999 SCT043 BKN100 17/06 Q1030 NOSIG RMK BIRD HAZARD RWY 28 PP000=
SPZO Feb2020-121830Z 02003KT 9999 SCT043 BKN100 17/06 Q1029 NOSIG RMK BIRD HAZARD RWY 28=
SPZO Feb2020-121900Z 01006KT 9999 SCT043 BKN100 16/07 Q1029 NOSIG RMK BIRD HAZARD RWY 28 PP000=
SPZO Feb2020-121930Z 03007KT 350V090 9999 VCSH FEW040TCU SCT046 BKN100 16/06 Q1028 NOSIG RMK BIRD HAZARD RWY 28=
SPZO Feb2020-122000Z 03006KT 350V090 9999 VCSH FEW040TCU SCT046 BKN100 16/06 Q1028 NOSIG RMK BIRD HAZARD RWY 28 PP000=
SPZO Feb2020-122030Z 32006KT 280V030 9999 -DZ FEW040TCU SCT046 BKN100 15/07 Q1028 NOSIG RMK BIRD HAZARD RWY 28=
SPZO Feb2020-122100Z 30009KT 9999 -DZ FEW040TCU SCT046 BKN100 15/07 Q1028 NOSIG RMK BIRD HAZARD RWY 28 PP002=
SPZO Feb2020-122130Z 26007KT 9999 VCSH FEW040TCU SCT046 BKN100 13/07 Q1028 NOSIG RMK BIRD HAZARD RWY 28=
SPZO Feb2020-122200Z 28006KT 9999 VCSH FEW040TCU SCT046 BKN100 13/08 Q1028 NOSIG RMK TX17.3 BIRD HAZARD RWY 28 PP000=
SPZO Feb2020-122230Z 29008KT 9999 VCSH FEW040TCU SCT046 BKN100 12/08 Q1029 NOSIG RMK BIRD HAZARD RWY 28=
SPZO Feb2020-122300Z 28005KT 9999 VCSH FEW040TCU SCT046 BKN100 12/08 Q1029=
SPZO Feb2020-122330Z 29006KT 9999 VCSH FEW040TCU SCT050 BKN100 12/08 Q1029 NOSIG RMK BIRD HAZARD RWY 28=
SPZO Feb2020-130000Z 29004KT 9999 -RA VCSH FEW040TCU SCT050 BKN100 12/08 Q1030 NOSIG RMK BIRD HAZARD RWY 28 PPTRZ=
SPZO Feb2020-130030Z 29004KT 9999 VCSH FEW040TCU SCT050 BKN100 12/08 Q1030 NOSIG RMK BIRD HAZARD RWY 28=
SPZO Feb2020-130100Z VRB02KT 9999 SCT050 BKN100 12/08 Q1030 NOSIG RMK BIRD HAZARD RWY 28 PP000=
SPZO Feb2020-130130Z 28004KT 9999 SCT040 BKN100 12/08 Q1031 NOSIG RMK BIRD HAZARD RWY 28=
SPZO Feb2020-130200Z 27002KT 9999 SCT040 BKN100 12/09 Q1031 NOSIG RMK BIRD HAZARD RWY 28 PP000=
SPZO Feb2020-130300Z 00000KT 9999 SCT040 BKN100 12/08 Q1032 NOSIG RMK BIRD HAZARD RWY 28 PP000=
SPZO Feb2020-130400Z 11003KT 9999 SCT040 BKN100 12/09 Q1032 RMK BIRD HAZARD RWY 28 PP000=
SPZO Feb2020-130500Z 11002KT 9999 SCT040 BKN100 12/07 Q1031 RMK BIRD HAZARD RWY 28 PP000=
SPZO Feb2020-130600Z 11002KT 9999 SCT040 BKN100 11/08 Q1031 RMK BIRD HAZARD RWY 28 PP000=
SPZO Feb2020-130700Z 29002KT 9999 SCT040 BKN100 10/06 Q1030 RMK BIRD HAZARD RWY 28 PP000=
SPZO Feb2020-130800Z 00000KT 9999 SCT040 BKN100 11/07 Q1030 RMK BIRD HAZARD RWY 28 PP000=
SPZO Feb2020-130900Z 29008KT 9999 SCT040 BKN100 10/06 Q1030 RMK BIRD HAZARD RWY 28 PP000=
SPZO Feb2020-131000Z 10005KT 9999 SCT040 BKN100 10/08 Q1030 NOSIG RMK BIRD HAZARD RWY 28 PP000=
SPZO Feb2020-131030Z 10008KT 9999 FEW030 SCT040 BKN100 10/08 Q1030 NOSIG RMK BIRD HAZARD RWY 28=
SPZO Feb2020-131100Z 10003KT 9999 FEW030 SCT050 BKN100 11/08 Q1030 NOSIG RMK BIRD HAZARD RWY 28 PP000=
SPZO Feb2020-131130Z 11002KT 9999 FEW030 SCT046 BKN080 11/08 Q1031 NOSIG RMK BIRD HAZARD RWY 28=
SPZO Feb2020-131200Z 12003KT 9999 FEW030 SCT046 BKN080 11/08 Q1031 NOSIG RMK TN9.2 BIRD HAZARD RWY 28 PP000=
SPZO Feb2020-131230Z 08004KT 9999 FEW030 SCT046 BKN080 12/08 Q1031 NOSIG RMK BIRD HAZARD RWY 28=
SPZO Feb2020-131300Z 35001KT 9999 FEW030 SCT046 BKN080 12/07 Q1031 NOSIG RMK BIRD HAZARD RWY 28 PP000=
SPZO Feb2020-131330Z 21001KT 9999 FEW030 SCT046 BKN080 13/08 Q1032 NOSIG RMK BIRD HAZARD RWY 28=
SPZO Feb2020-131400Z 12002KT 9999 FEW030 SCT046 BKN080 14/07 Q1032 NOSIG RMK BIRD HAZARD RWY 28 PP000=
SPZO Feb2020-131430Z 05002KT 9999 SCT040 BKN080 15/07 Q1032 NOSIG RMK BIRD HAZARD RWY 28=
SPZO Feb2020-131500Z VRB01KT 9999 SCT040 BKN080 17/08 Q1031 NOSIG RMK BIRD HAZARD RWY 28 PP000=
SPZO Feb2020-131530Z VRB03KT 9999 SCT040 BKN080 17/10 Q1031 NOSIG RMK BIRD HAZARD RWY 28=
SPZO Feb2020-131600Z 30012KT 9999 RA FEW036 SCT040 BKN080 12/07 Q1031 NOSIG RMK BIRD HAZARD RWY 28 PP004=
SPZO Feb2020-131630Z 27006KT 9999 -RA SCT046 BKN080 12/08 Q1031 NOSIG RMK BIRD HAZARD RWY 28=
SPZO Feb2020-131700Z 18001KT 9999 -DZ SCT046 BKN080 13/07 Q1031 NOSIG RMK BIRD HAZARD RWY 28 PP002=
SPZO Feb2020-131730Z VRB02KT 9999 VCSH BKN043 BKN080 17/10 Q1030 NOSIG RMK BIRD HAZARD RWY 28=
SPZO Feb2020-131800Z VRB03KT 9999 VCSH BKN043 BKN080 17/10 Q1030 NOSIG RMK TCU QUAD SW BIRD HAZARD RWY 28 PP002=
SPZO Feb2020-131830Z 28011KT 9999 VCSH BKN043 BKN080 15/10 Q1029 NOSIG RMK VIS 9000 QUAD E RA BIRD HAZARD RWY 28=
SPZO Feb2020-131900Z 22003KT 9999 VCSH BKN043 BKN080 17/06 Q1028 NOSIG RMK VIS 9000 QUAD E RA BIRD HAZARD RWY 28 PP004=
SPZO Feb2020-131930Z 11010KT 9999 VCSH BKN043 BKN080 18/10 Q1028 NOSIG RMK TCU QUAD N BIRD HAZARD RWY 28=
SPZO Feb2020-132000Z 10007KT 9999 VCSH BKN043 BKN080 17/09 Q1027 NOSIG RMK TCU QUAD N BIRD HAZARD RWY 28 PP000=
SPZO Feb2020-132030Z 30012KT 9000 -RA VCSH BKN043 BKN080 14/08 Q1027 NOSIG RMK BIRD HAZARD RWY 28=
SPZO Feb2020-132100Z 29009KT 9000 -RA VCSH SCT043 BKN080 13/08 Q1027 NOSIG RMK BIRD HAZARD RWY 28 PPTRZ=
SPZO Feb2020-132130Z 30006KT 9999 SCT040 BKN080 13/07 Q1027 NOSIG RMK BIRD HAZARD RWY 28=
SPZO Feb2020-132200Z 29002KT 9999 VCSH SCT040 BKN080 14/07 Q1027 NOSIG RMK TCU QUAD N TX18.4 BIRD HAZARD RWY 28 PPTRZ=
SPZO Feb2020-132230Z 27004KT 9999 -DZ VCSH SCT040 BKN080 14/08 Q1027 NOSIG RMK BIRD HAZARD RWY 28=
SPZO Feb2020-132300Z 27007KT 9999 VCSH SCT040 BKN080 14/08 Q1028 NOSIG RMK BIRD HAZARD RWY 28 PPTRZ=
SPZO Feb2020-132330Z 29004KT 9999 VCSH FEW040TCU SCT046 BKN080 13/09 Q1028 NOSIG RMK -RA QUAD NE BIRD HAZARD RWY 28=
SPZO Feb2020-140000Z 28003KT 9999 VCSH FEW040TCU SCT046 BKN080 13/07 Q1029 NOSIG RMK -RA QUAD NE BIRD HAZARD RWY 28 PP000=
SPZO Feb2020-140030Z 10006KT 9999 SCT043 BKN080 13/08 Q1029 NOSIG RMK BIRD HAZARD RWY 28=
SPZO Feb2020-140100Z 10004KT 9999 SCT043 BKN080 13/09 Q1029 NOSIG RMK BIRD HAZARD RWY 28 PP000=
SPZO Feb2020-140130Z 10007KT 9999 SCT043 BKN080 12/08 Q1030 NOSIG RMK BIRD HAZARD RWY 28=
SPZO Feb2020-140200Z 11005KT 9999 SCT043 BKN080 12/08 Q1030 NOSIG RMK BIRD HAZARD RWY 28 PP000=
SPZO Feb2020-140230Z 11004KT 9999 SCT043 BKN080 12/08 Q1031 NOSIG RMK BIRD HAZARD RWY 28=
SPZO Feb2020-140300Z 12003KT 9999 SCT043 BKN080 13/08 Q1031 NOSIG RMK BIRD HAZARD RWY 28 PP000=
SPZO Feb2020-140400Z 00000KT 9999 SCT043 BKN080 12/08 Q1031 RMK PP000=
SPZO Feb2020-140500Z 28003KT 9000 -RA SCT043 BKN080 12/09 Q1031 RMK PPTRZ=
SPZO Feb2020-140600Z 09002KT 8000 -RA SCT043 BKN080 11/08 Q1032 RMK PP040=
SPZO Feb2020-140700Z 11005KT 7000 -RA SCT015 SCT036 OVC070 10/07 Q1031 RMK CLNG BLW 1200M PP044=
SPZO Feb2020-140800Z 11006KT 7000 -DZ SCT020 SCT036 OVC070 09/07 Q1031 RMK CLNG BLW 1200M PP002=
SPZO Feb2020-140900Z 11008KT 8000 FEW020 SCT036 OVC070 09/07 Q1031 REDZ RMK BR CLNG BLW 1200M BIRD HAZARD RWY 28 PPTRZ=
SPZO Feb2020-141000Z 09004KT 020V100 9999 FEW020 SCT036 BKN080 08/06 Q1032 NOSIG RMK BIRD HAZARD RWY 28 PP000=
SPZO Feb2020-141030Z 12002KT 9999 FEW020 SCT036 BKN080 09/06 Q1032 NOSIG RMK BIRD HAZARD RWY 28=
SPZO Feb2020-141100Z 00000KT 9999 FEW020 SCT036 BKN080 09/06 Q1032 NOSIG RMK BIRD HAZARD RWY 28 PP000=
SPZO Feb2020-141130Z 08003KT 010V120 9999 SCT030 BKN070 09/06 Q1033 NOSIG RMK BR BIRD HAZARD RWY 28=
SPZO Feb2020-141200Z 00000KT 9999 SCT030 BKN070 09/06 Q1033 NOSIG RMK BR TN08.1 BIRD HAZARD RWY 28 PP000=
SPZO Feb2020-141230Z 00000KT 9999 SCT030 BKN070 10/07 Q1033 NOSIG RMK BR BIRD HAZARD RWY 28=
SPZO Feb2020-141300Z 00000KT 9999 SCT030 BKN070 12/07 Q1034 NOSIG RMK BIRD HAZARD RWY 28 PP000=
SPZO Feb2020-141330Z VRB02KT 9999 SCT030 BKN070 13/07 Q1034 NOSIG RMK BIRD HAZARD RWY 28=
SPZO Feb2020-141400Z 00000KT 9999 SCT036 BKN080 14/07 Q1034 NOSIG RMK BIRD HAZARD RWY 28 PP000=
SPZO Feb2020-141430Z VRB02KT 9999 SCT036 BKN080 14/07 Q1034 NOSIG RMK BIRD HAZARD RWY 28=
SPZO Feb2020-141500Z 08002KT 9999 SCT036 BKN080 15/06 Q1034 NOSIG RMK BIRD HAZARD RWY 28 PP000=
SPZO Feb2020-141530Z VRB02KT 9999 SCT036 BKN080 17/08 Q1033 NOSIG RMK BIRD HAZARD RWY 28=
SPZO Feb2020-141600Z VRB02KT 9999 SCT040 BKN080 18/07 Q1033 NOSIG RMK BIRD HAZARD RWY 28 PP000=
SPZO Feb2020-141630Z VRB02KT 9999 VCSH SCT040 BKN080 17/08 Q1032 NOSIG RMK BIRD HAZARD RWY 28=
SPZO Feb2020-141700Z 11003KT 060V180 9999 VCSH SCT043 BKN080 18/05 Q1032 NOSIG RMK TCU QUAD N BIRD HAZARD RWY 28 PP000=
SPZO Feb2020-141730Z 34008KT 290V030 9000 -RA VCSH SCT043 BKN080 13/08 Q1032 NOSIG RMK BIRD HAZARD RWY 28=
SPZO Feb2020-141800Z VRB02KT 9999 -DZ VCSH SCT043 BKN080 14/08 Q1031 NOSIG RMK TCU QUAD S BIRD HAZARD RWY 28 PP012=
SPZO Feb2020-141830Z 11008KT 9999 SCT043 BKN080 16/08 Q1030 NOSIG RMK TCU QUAD N BIRD HAZARD RWY 28=
SPZO Feb2020-141900Z VRB06KT 9999 VCSH SCT043 BKN080 17/09 Q1030 NOSIG RMK TCU QUAD NW BIRD HAZARD RWY 28 PPTRZ=
SPZO Feb2020-141930Z 09007KT 9999 -RA VCSH SCT043 BKN080 15/08 Q1030 NOSIG RMK TCU QUAD SW BIRD HAZARD RWY 28=
SPZO Feb2020-142000Z 10006KT 050V190 9999 SCT043 SCT080 14/09 Q1029 NOSIG RMK TCU QUAD S BIRD HAZARD RWY 28 PP002=
SPZO Feb2020-142030Z VRB03KT 9999 VCSH SCT043 BKN080 17/08 Q1029 NOSIG RMK TCU QUAD NW BIRD HAZARD RWY 28=
SPZO Feb2020-142100Z 29006KT 210V360 9999 VCSH SCT043 BKN080 17/07 Q1029 NOSIG RMK TCU QUAD NW/E BIRD HAZARD RWY 28 PP000=
SPZO Feb2020-142130Z 29006KT 260V340 9999 -RA VCSH SCT043 BKN080 16/09 Q1028 NOSIG RMK BIRD HAZARD RWY 28=
SPZO Feb2020-142200Z 27005KT 9999 SCT046 SCT100 16/09 Q1028 NOSIG RMK TCU QUAD NW TX18.4 BIRD HAZARD RWY 28 PPTRZ=
SPZO Feb2020-142230Z VRB02KT 9999 SCT046 SCT100 17/06 Q1028 NOSIG RMK BIRD HAZARD RWY 28=
SPZO Feb2020-142300Z 00000KT 9999 SCT046 SCT100 16/08 Q1028 NOSIG RMK BIRD HAZARD RWY 28 PP000=
SPZO Feb2020-142330Z 12002KT 9999 FEW046 15/08 Q1029 NOSIG RMK BIRD HAZARD RWY 28=
SPZO Feb2020-150000Z 33001KT 9999 NSC 13/08 Q1029 NOSIG RMK BIRD HAZARD RWY 28 PP000=
SPZO Feb2020-150030Z 19001KT 9999 NSC 15/09 Q1030 NOSIG RMK BIRD HAZARD RWY 28=
SPZO Feb2020-150100Z 10002KT 9999 FEW050 12/08 Q1031 NOSIG RMK BIRD HAZARD RWY 28 PP000=
SPZO Feb2020-150130Z 36001KT 9999 FEW050 12/08 Q1031 NOSIG RMK BIRD HAZARD RWY 28=
SPZO Feb2020-150200Z 36001KT 9999 FEW050 11/08 Q1032 NOSIG RMK BIRD HAZARD RWY 28 PP000=
SPZO Feb2020-150230Z 13001KT 9999 FEW050 11/08 Q1032 NOSIG RMK BIRD HAZARD RWY 28=
SPZO Feb2020-150300Z 00000KT 9999 FEW050 11/08 Q1033 NOSIG RMK BIRD HAZARD RWY 28 PP000=
SPZO Feb2020-150400Z 28003KT 9999 FEW050 10/08 Q1032 RMK BIRD HAZARD RWY 28 PP000=
SPZO Feb2020-150500Z 00000KT 9999 SCT050 09/07 Q1032 RMK BIRD HAZARD RWY 28 PP000=
SPZO Feb2020-150600Z 00000KT 9999 SCT050 10/08 Q1032 RMK BIRD HAZARD RWY 28 PP000=
SPZO Feb2020-150700Z 09001KT 9999 -RA SCT050 BKN100 11/08 Q1032 RMK BIRD HAZARD RWY 28 PP002=
SPZO Feb2020-150800Z 13002KT 9999 -RA SCT040 BKN080 10/08 Q1031 RMK BIRD HAZARD RWY 28 PP004=
SPZO Feb2020-150900Z 11003KT 9999 FEW020 SCT040 BKN080 10/08 Q1031 RERA RMK BIRD HAZARD RWY 28 PP002=
SPZO Feb2020-151000Z 10001KT 9999 FEW020 SCT050 BKN100 10/08 Q1032 NOSIG RMK BIRD HAZARD RWY 28 PP000=
SPZO Feb2020-151030Z 36001KT 9999 FEW020 SCT036 BKN100 10/08 Q1032 NOSIG RMK BIRD HAZARD RWY 28=
SPZO Feb2020-151100Z 09003KT 9999 FEW020 SCT046 BKN100 10/08 Q1033 NOSIG RMK BIRD HAZARD RWY 28 PP000=
SPZO Feb2020-151130Z 11003KT 9999 FEW015 SCT036 BKN070 10/08 Q1033 NOSIG RMK BR BIRD HAZARD RWY 28=
SPZO Feb2020-151200Z 08003KT 9000 FEW015 SCT036 BKN080 11/08 Q1033 NOSIG RMK BR TN08.8 BIRD HAZARD RWY 28 PP000=
SPZO Feb2020-151230Z 00000KT 9999 SCT036 BKN080 11/08 Q1034 NOSIG RMK BR BIRD HAZARD RWY 28=
SPZO Feb2020-151300Z 11002KT 9999 -DZ SCT036 BKN080 12/09 Q1034 NOSIG RMK BR BIRD HAZARD RWY 28 PPTRZ=
SPZO Feb2020-151330Z VRB01KT 9999 SCT036 BKN080 12/09 Q1034 NOSIG RMK BR BIRD HAZARD RWY 28=
SPZO Feb2020-151400Z 08003KT 9999 SCT036 BKN080 13/09 Q1035 NOSIG RMK BIRD HAZARD RWY 28 PP000=
SPZO Feb2020-151430Z VRB02KT 9999 SCT036 BKN080 14/08 Q1034 NOSIG RMK BIRD HAZARD RWY 28=
SPZO Feb2020-151500Z 08005KT 9999 SCT040 SCT080 16/08 Q1034 NOSIG RMK BIRD HAZARD RWY 28 PP000=
SPZO Feb2020-151530Z 13003KT 080V180 9999 SCT040 SCT100 17/06 Q1034 NOSIG RMK BIRD HAZARD RWY 28=
SPZO Feb2020-151600Z 10006KT 030V170 9999 SCT040 SCT100 18/09 Q1034 NOSIG RMK BIRD HAZARD RWY 28 PP000=
SPZO Feb2020-151630Z 20003KT 150V270 9999 SCT046 18/09 Q1033 NOSIG RMK BIRD HAZARD RWY 28=
SPZO Feb2020-151700Z 09006KT 9999 SCT046 SCT100 19/09 Q1032 NOSIG RMK TCU QUAD N BIRD HAZARD RWY 28 PP000=
SPZO Feb2020-151730Z 08005KT 9999 SCT050 BKN100 19/08 Q1031 NOSIG RMK BIRD HAZARD RWY 28=
SPZO Feb2020-151800Z VRB02KT 9000 SCT040 BKN100 20/10 Q1031 NOSIG RMK BIRD HAZARD RWY 28 PP000=
SPZO Feb2020-151830Z 03010KT 9999 VCSH SCT050 BKN100 18/07 Q1030 NOSIG RMK BIRD HAZARD RWY 28=
SPZO Feb2020-151900Z 08010KT 9999 VCSH SCT050 BKN100 19/06 Q1029 NOSIG RMK BIRD HAZARD RWY 28 PP000=
SPZO Feb2020-151930Z 03011KT 9999 SCT050 BKN100 18/05 Q1029 NOSIG RMK BIRD HAZARD RWY 28=
SPZO Feb2020-152000Z 02010KT 9999 SCT050 BKN100 19/07 Q1029 NOSIG RMK BIRD HAZARD RWY 28 PP000=
SPZO Feb2020-152030Z 03007KT 9999 SCT050 BKN100 18/08 Q1028 NOSIG RMK BIRD HAZARD RWY 28=
SPZO Feb2020-152100Z 02006KT 9999 SCT050 BKN100 19/07 Q1028 NOSIG RMK BIRD HAZARD RWY 28 PP000=
SPZO Feb2020-152130Z 06005KT 9999 SCT050 BKN100 18/06 Q1027 NOSIG RMK BIRD HAZARD RWY 28=
SPZO Feb2020-152200Z 10005KT 9999 SCT050 BKN100 18/07 Q1027 NOSIG RMK TX 20.5 BIRD HAZARD RWY 28 PP000=
SPZO Feb2020-152230Z 13006KT 9999 SCT060 BKN100 17/07 Q1027 NOSIG RMK BIRD HAZARD RWY 28=
SPZO Feb2020-152300Z 11007KT 9999 SCT060 BKN100 16/08 Q1028 NOSIG RMK BIRD HAZARD RWY 28 PP000=
SPZO Feb2020-152330Z 16008KT 9999 FEW030 SCT050 15/07 Q1029 NOSIG RMK BIRD HAZARD RWY 28=
SPZO Feb2020-160000Z 10006KT 9999 FEW040 15/07 Q1029 NOSIG RMK BIRD HAZARD RWY 28 PP000=
SPZO Feb2020-160030Z 10005KT 9999 FEW040 14/07 Q1030 NOSIG RMK BIRD HAZARD RWY 28=
SPZO Feb2020-160100Z 11003KT 9999 FEW040 14/07 Q1030 NOSIG RMK BIRD HAZARD RWY 28 PP000=
SPZO Feb2020-160130Z 09004KT 9999 SCT040 13/07 Q1031 NOSIG RMK BIRD HAZARD RWY 28=
SPZO Feb2020-160200Z 15003KT 9999 SCT040 14/07 Q1031 NOSIG RMK BIRD HAZARD RWY 28 PP000=
SPZO Feb2020-160230Z 11003KT 9999 SCT040 14/07 Q1032 NOSIG RMK BIRD HAZARD RWY 28=
SPZO Feb2020-160300Z 09006KT 9999 SCT050 13/07 Q1032 NOSIG RMK BIRD HAZARD RWY 28 PP000=
SPZO Feb2020-160400Z 00000KT 9999 FEW050 12/07 Q1032 NOSIG RMK BIRD HAZARD RWY 28 PP000=
SPZO Feb2020-160500Z 20002KT 9999 SCT050 12/08 Q1032 RMK BIRD HAZARD RWY 28 PP000=
SPZO Feb2020-160600Z 25003KT 9999 SCT050 12/07 Q1031 RMK BIRD HAZARD RWY 28 PP000=
SPZO Feb2020-160700Z 28008KT 9999 -DZ SCT040 BKN080 11/07 Q1031 RMK BIRD HAZARD RWY 28 PPTRZ=
SPZO Feb2020-160800Z 00000KT 9999 SCT040 BKN080 10/07 Q1031 REDZ RMK BIRD HAZARD RWY 28 PP014=
SPZO Feb2020-160900Z 08008KT 9999 SCT040 BKN080 10/08 Q1031 RMK BIRD HAZARD RWY 28 PP000=
SPZO Feb2020-161000Z 09004KT 9999 SCT040 BKN100 10/08 Q1032 NOSIG RMK BIRD HAZARD RWY 28 PP000=
SPZO Feb2020-161030Z 10005KT 9000 -RA FEW016 SCT040 BKN100 10/08 Q1032 NOSIG RMK BIRD HAZARD RWY 28=
SPZO Feb2020-161100Z 11005KT 8000 FEW016 SCT036 BKN080 10/08 Q1032 RERA NOSIG RMK CLNG BLW 1200M BIRD HAZARD RWY 28 PP002=
SPZO Feb2020-161130Z 12005KT 080V190 6000 FEW010 SCT036 OVC070 10/07 Q1033 NOSIG RMK BR CLNG BLW 1200M BIRD HAZARD RWY 28=
SPZO Feb2020-161200Z 11004KT 6000 -RA FEW010 SCT036 OVC070 10/07 Q1033 NOSIG RMK TN09.5 BR CLNG BLW 1200M BIRD HAZARD RWY 28 PP020=
SPZO Feb2020-161230Z 09002KT 7000 -RA FEW020 SCT036 OVC080 10/08 Q1034 NOSIG RMK BR CLNG BLW 1200M BIRD HAZARD RWY 28=
SPZO Feb2020-161300Z 04002KT 8000 -RA FEW025 SCT036 BKN080 11/07 Q1034 NOSIG RMK BR CLNG BLW 1200M BIRD HAZARD RWY 28 PP022=
SPZO Feb2020-161330Z 09002KT 9999 FEW030 SCT040 BKN100 13/08 Q1034 NOSIG RMK BIRD HAZARD RWY 28=
SPZO Feb2020-161400Z 08002KT 9999 SCT040 SCT100 15/07 Q1034 RERA NOSIG RMK BIRD HAZARD RWY 28 PPTRZ=
SPZO Feb2020-161430Z 05002KT 9999 SCT040 SCT100 15/05 Q1033 NOSIG RMK BIRD HAZARD RWY 28=
SPZO Feb2020-161500Z 09003KT 9999 SCT043 16/08 Q1033 NOSIG RMK BIRD HAZARD RWY 28 PP000=
SPZO Feb2020-161530Z 12003KT 9999 FEW043 SCT080 17/06 Q1032 NOSIG RMK BIRD HAZARD RWY 28=
SPZO Feb2020-161600Z 23002KT 9999 FEW043 SCT080 18/05 Q1032 NOSIG RMK BIRD HAZARD RWY 28 PP000=
SPZO Feb2020-161630Z 07004KT 010V090 9999 FEW043 SCT080 19/05 Q1032 NOSIG RMK BIRD HAZARD RWY 28=
SPZO Feb2020-161700Z 12004KT 9999 SCT046 SCT080 19/05 Q1031 NOSIG RMK -RA QUAD NE BIRD HAZARD RWY 28 PP000=
SPZO Feb2020-161730Z 13003KT 9999 FEW040TCU SCT046 BKN080 19/07 Q1030 NOSIG RMK BIRD HAZARD RWY 28=
SPZO Feb2020-161800Z 01011KT 9999 FEW040TCU SCT046 BKN100 19/06 Q1030 NOSIG RMK BIRD HAZARD RWY 28 PP000=
SPZO Feb2020-161830Z 03005KT 300V040 9999 VCSH FEW040TCU SCT046 BKN100 20/07 Q1029 NOSIG RMK BIRD HAZARD RWY 28=
SPZO Feb2020-161900Z 05013G27KT 350V090 9999 VCSH FEW040TCU SCT046 BKN100 19/06 Q1029 NOSIG RMK BIRD HAZARD RWY 28 PP000=
SPZO Feb2020-161930Z 33005KT 270V030 9999 VCSH FEW040TCU SCT046 BKN100 16/05 Q1029 NOSIG RMK BIRD HAZARD RWY 28=
SPZO Feb2020-162000Z 27008KT 220V300 9999 VCSH FEW040TCU SCT046 BKN100 16/06 Q1029 NOSIG RMK BIRD HAZARD RWY 28 PP000=
SPZO Feb2020-162030Z 28009KT 9999 FEW040TCU SCT050 BKN100 16/06 Q1029 NOSIG RMK BIRD HAZARD RWY 28=
SPZO Feb2020-162100Z 28011KT 9999 FEW040TCU SCT050 BKN100 16/07 Q1028 NOSIG RMK BIRD HAZARD RWY 28 PP000=
SPZO Feb2020-162130Z 29007KT 250V340 9999 SCT050 BKN100 16/07 Q1028 NOSIG RMK TCU QUAD S BIRD HAZARD RWY 28=
SPZO Feb2020-162200Z 30006KT 270V010 9999 SCT050 SCT100 17/07 Q1028 NOSIG RMK TX20.4 BIRD HAZARD RWY 28 PP000=
SPZO Feb2020-162230Z 26002KT 9999 FEW050 SCT100 19/07 Q1027 NOSIG RMK BIRD HAZARD RWY 28=
SPZO Feb2020-162300Z 20002KT 9999 FEW050 SCT100 18/06 Q1027 NOSIG RMK BIRD HAZARD RWY 28 PP000=
SPZO Feb2020-162330Z VRB02KT 9999 FEW040 14/07 Q1028 NOSIG RMK BIRD HAZARD RWY 28=
SPZO Feb2020-170000Z 29004KT 9999 NSC 13/07 Q1028 NOSIG RMK BIRD HAZARD RWY 28 PP000=
SPZO Feb2020-170030Z 29004KT 9999 NSC 12/07 Q1029 NOSIG RMK BIRD HAZARD RWY 28=
SPZO Feb2020-170100Z 27004KT 210V300 9999 NSC 13/07 Q1029 NOSIG RMK BIRD HAZARD RWY 28 PP000=
SPZO Feb2020-170130Z VRB01KT 9999 NSC 12/07 Q1030 NOSIG RMK BIRD HAZARD RWY 28=
SPZO Feb2020-170200Z VRB02KT 9999 FEW043 11/07 Q1030 NOSIG RMK BIRD HAZARD RWY 28 PP000=
SPZO Feb2020-170230Z VRB01KT 9999 FEW043 11/07 Q1031 NOSIG RMK BIRD HAZARD RWY 28=
SPZO Feb2020-170300Z 29003KT 9999 FEW043 10/07 Q1031 NOSIG RMK BIRD HAZARD RWY 28 PP000=
SPZO Feb2020-170400Z 30003KT 9999 FEW050 09/06 Q1032 RMK PP000=
SPZO Feb2020-170500Z 11002KT 9999 FEW050 09/07 Q1031 RMK PP000=
SPZO Feb2020-170600Z 00000KT 9999 FEW050 SCT100 08/06 Q1030 RMK PP000=
SPZO Feb2020-170700Z 00000KT 9999 FEW043 SCT100 08/06 Q1030 RMK PP000=
SPZO Feb2020-170800Z VRB01KT 9999 FEW043 SCT080 09/06 Q1030 RMK PP000=
SPZO Feb2020-170900Z 09001KT 9999 FEW043 SCT080 09/06 Q1030 RMK PP000=
SPZO Feb2020-171000Z 12002KT 9999 FEW043 SCT080 08/06 Q1030 NOSIG RMK BR BIRD HAZARD RWY 28 PP000=
SPZO Feb2020-171030Z 11002KT 9999 SCT040 BKN080 08/06 Q1031 NOSIG RMK BR BIRD HAZARD RWY 28=
SPZO Feb2020-171100Z 12002KT 9999 SCT040 BKN080 08/06 Q1031 NOSIG RMK BR BIRD HAZARD RWY 28 PP000=
SPZO Feb2020-171130Z 00000KT 9999 SCT043 BKN080 08/06 Q1032 NOSIG RMK BIRD HAZARD RWY 28=
SPZO Feb2020-171200Z 00000KT 9999 SCT043 BKN080 09/07 Q1032 NOSIG RMK TN07.3 BR QUAD NE BIRD HAZARD RWY 28 PP000=
SPZO Feb2020-171230Z 11002KT 9999 SCT043 BKN080 11/08 Q1033 NOSIG RMK BIRD HAZARD RWY 28=
SPZO Feb2020-171300Z 12002KT 9999 SCT043 BKN080 12/07 Q1033 NOSIG RMK BIRD HAZARD RWY 28 PP000=
SPZO Feb2020-171330Z 10004KT 9999 SCT043 BKN100 13/07 Q1033 NOSIG RMK BIRD HAZARD RWY 28=
SPZO Feb2020-171400Z 10003KT 040V150 9999 SCT043 BKN100 14/08 Q1033 NOSIG RMK BIRD HAZARD RWY 28 PP000=
SPZO Feb2020-171430Z 09003KT 9999 FEW043 SCT100 16/06 Q1033 NOSIG RMK BIRD HAZARD RWY 28=
SPZO Feb2020-171500Z 36002KT 9999 SCT043 SCT100 16/06 Q1032 NOSIG RMK BIRD HAZARD RWY 28 PP000=
SPZO Feb2020-171530Z 02004KT 300V050 9999 SCT043 SCT100 18/06 Q1032 NOSIG RMK BIRD HAZARD RWY 28=
SPZO Feb2020-171600Z 07003KT 9999 SCT046 SCT100 19/06 Q1031 NOSIG RMK BIRD HAZARD RWY 28 PP000=
SPZO Feb2020-171630Z 08005KT 9999 SCT046 SCT100 21/04 Q1031 NOSIG RMK BIRD HAZARD RWY 28=
SPZO Feb2020-171700Z 14004KT 9999 SCT046 SCT100 21/08 Q1030 NOSIG RMK BIRD HAZARD RWY 28 PP000=
SPZO Feb2020-171730Z 07005KT 9999 SCT046 SCT100 21/05 Q1029 NOSIG RMK BIRD HAZARD RWY 28=
SPZO Feb2020-171800Z VRB03KT 9999 SCT046 SCT100 22/03 Q1028 NOSIG RMK BIRD HAZARD RWY 28 PP000=
SPZO Feb2020-171830Z VRB03KT 9999 SCT046 SCT100 22/05 Q1027 NOSIG RMK BIRD HAZARD RWY 28=
SPZO Feb2020-171900Z 10007KT 9999 VCSH FEW040TCU SCT046 20/06 Q1027 NOSIG RMK BIRD HAZARD RWY 28 PP000=
SPZO Feb2020-171930Z 01007KT 9999 VCSH FEW040TCU SCT046 20/06 Q1027 NOSIG RMK BIRD HAZARD RWY 28=
SPZO Feb2020-172000Z 33007KT 9999 SCT046 SCT100 22/07 Q1026 NOSIG RMK BIRD HAZARD RWY 28 PP000=
SPZO Feb2020-172030Z 03012KT 9999 FEW040TCU SCT046 19/05 Q1026 NOSIG RMK BIRD HAZARD RWY 28=
SPZO Feb2020-172100Z 01008KT 9999 FEW040TCU SCT046 19/05 Q1026 NOSIG RMK BIRD HAZARD RWY 28 PP000=
SPZO Feb2020-172130Z VRB03KT 9999 FEW040TCU SCT046 19/06 Q1026 NOSIG RMK BIRD HAZARD RWY 28=
SPZO Feb2020-172200Z 13004KT 9999 FEW040TCU SCT046 18/06 Q1026 NOSIG RMK TX22.7 BIRD HAZARD RWY 28 PP000=
SPZO Feb2020-172230Z 12002KT 9999 SCT046 17/08 Q1026 NOSIG RMK BIRD HAZARD RWY 28=
SPZO Feb2020-172300Z 01004KT 9999 SCT046 17/06 Q1027 NOSIG RMK BIRD HAZARD RWY 28 PP000=
SPZO Feb2020-172330Z 09005KT 9999 SCT050 16/07 Q1027 NOSIG RMK BIRD HAZARD RWY 28=
SPZO Feb2020-180000Z 11003KT 9999 SCT050 15/08 Q1028 NOSIG RMK BIRD HAZARD RWY 28 PP000=
SPZO Feb2020-180030Z 08004KT 9999 SCT050 15/07 Q1029 NOSIG RMK BIRD HAZARD RWY 28=
SPZO Feb2020-180100Z 08003KT 9999 SCT050 14/06 Q1029 NOSIG RMK BIRD HAZARD RWY 28 PP000=
SPZO Feb2020-180130Z 11003KT 9999 SCT050 14/06 Q1031 NOSIG RMK BIRD HAZARD RWY 28=
SPZO Feb2020-180200Z 10003KT 9999 SCT050 13/07 Q1031 NOSIG RMK BIRD HAZARD RWY 28 PP000=
SPZO Feb2020-180300Z 12001KT 9999 SCT050 11/07 Q1031 NOSIG RMK BIRD HAZARD RWY 28 PP000=
SPZO Feb2020-180400Z 27003KT 9999 SCT050 BKN100 12/07 Q1032 RMK BIRD HAZARD RWY 28 PP000=
SPZO Feb2020-180500Z 12003KT 9999 SCT050 BKN100 13/07 Q1032 RMK BIRD HAZARD RWY 28 PP000=
SPZO Feb2020-180600Z 12003KT 9999 SCT050 BKN100 13/07 Q1032 RMK BIRD HAZARD RWY 28 PP000=
SPZO Feb2020-180700Z 26002KT 9999 -RA SCT050 BKN100 11/06 Q1032 RMK BIRD HAZARD RWY 28 PP002=
SPZO Feb2020-180800Z 25003KT 9999 -RA SCT050 BKN100 11/07 Q1031 RMK BIRD HAZARD RWY 28 PP002=
SPZO Feb2020-180900Z 30009KT 9999 SCT050 BKN100 10/06 Q1031 RMK BIRD HAZARD RWY 28 PP000=
SPZO Feb2020-181000Z 29008KT 9999 SCT050 BKN100 11/06 Q1032 NOSIG RMK BIRD HAZARD RWY 28 PP000=
SPZO Feb2020-181030Z 28005KT 9999 SCT050 BKN100 11/07 Q1032 NOSIG RMK BIRD HAZARD RWY 28=
SPZO Feb2020-181100Z 00000KT 9999 -RA VCSH FEW020 SCT036 BKN100 10/07 Q1033 NOSIG RMK BIRD HAZARD RWY 28 PP002=
SPZO Feb2020-181130Z 10004KT 9999 FEW020 SCT046 BKN100 10/07 Q1033 NOSIG RMK BIRD HAZARD RWY 28=
SPZO Feb2020-181200Z 10004KT 9999 FEW020 SCT046 BKN100 10/07 Q1034 NOSIG RMK TN9.5 BIRD HAZARD RWY 28 PP000=
SPZO Feb2020-181230Z 12003KT 9999 FEW020 SCT046 BKN100 10/08 Q1034 NOSIG RMK BIRD HAZARD RWY 28=
SPZO Feb2020-181300Z 12003KT 9999 FEW020 SCT046 BKN100 11/07 Q1034 NOSIG RMK BIRD HAZARD RWY 28 PP000=
SPZO Feb2020-181330Z 11003KT 9999 FEW020 SCT046 BKN100 12/07 Q1034 NOSIG RMK BIRD HAZARD RWY 28=
SPZO Feb2020-181400Z 09006KT 9999 FEW020 SCT046 BKN100 13/08 Q1034 NOSIG RMK BIRD HAZARD RWY 28 PP000=
SPZO Feb2020-181430Z 11005KT 9999 FEW030 SCT046 BKN100 14/07 Q1034 NOSIG RMK BIRD HAZARD RWY 28=
SPZO Feb2020-181500Z 09004KT 9999 FEW030 SCT046 BKN100 15/07 Q1034 NOSIG RMK BIRD HAZARD RWY 28 PP000=
SPZO Feb2020-181530Z 08005KT 9999 SCT040 BKN100 17/07 Q1033 NOSIG RMK BIRD HAZARD RWY 28=
SPZO Feb2020-181630Z VRB02KT 9999 SCT040 BKN100 19/08 Q1032 NOSIG RMK BIRD HAZARD RWY 28=
SPZO Feb2020-181700Z 11002KT 9999 SCT046 BKN100 20/07 Q1032 NOSIG RMK BIRD HAZARD RWY 28 PP000=
SPZO Feb2020-181730Z 03009KT 9999 VCSH SCT043 BKN080 18/07 Q1031 NOSIG RMK TCU QUAD N/S BIRD HAZARD RWY 28=
SPZO Feb2020-181800Z 08009KT 010V100 9999 VCSH SCT043 BKN080 17/09 Q1030 NOSIG RMK TCU QUAD N/S BIRD HAZARD RWY 28 PP000=
SPZO Feb2020-181830Z 12004KT 090V190 9999 VCSH SCT043 BKN080 17/05 Q1030 NOSIG RMK TCU QUAD NW BIRD HAZARD RWY 28=
SPZO Feb2020-181900Z 29010KT 9999 VCSH SCT043 OVC080 16/07 Q1030 NOSIG RMK TCU QUAD N BIRD HAZARD RWY 28 PP000=
SPZO Feb2020-181930Z 11011KT 9999 DZ VCSH SCT043 OVC080 15/07 Q1030 NOSIG RMK BIRD HAZARD RWY 28=
SPZO Feb2020-182000Z 11009KT 9999 DZ VCSH SCT043 OVC080 14/08 Q1030 NOSIG RMK BIRD HAZARD RWY 28 PP004=
SPZO Feb2020-182030Z 05002KT 9999 SCT043 BKN080 15/08 Q1029 NOSIG RMK BIRD HAZARD RWY 28=
SPZO Feb2020-182100Z 12006KT 130V180 9999 SCT043 BKN080 15/09 Q1029 NOSIG RMK TCU QUAD S/N BIRD HAZARD RWY 28 PPTRZ=
SPZO Feb2020-182130Z 19004KT 9999 SCT043 BKN080 15/07 Q1029 NOSIG RMK TCU QUAD S BIRD HAZARD RWY 28=
SPZO Feb2020-182200Z 09002KT 9999 SCT043 BKN080 15/07 Q1029 NOSIG RMK TX20.0 BIRD HAZARD RWY 28 PP000=
SPZO Feb2020-182230Z 00000KT 9999 SCT046 SCT100 15/07 Q1029 NOSIG RMK BIRD HAZARD RWY 28=
SPZO Feb2020-182300Z 00000KT 9999 SCT046 SCT100 15/08 Q1029 NOSIG RMK BIRD HAZARD RWY 28 PP000=
SPZO Feb2020-182330Z 00000KT 9999 SCT050 SCT100 13/07 Q1030 NOSIG RMK BIRD HAZARD RWY 28=
SPZO Feb2020-190000Z 120003KT 090V190 9999 FEW050 SCT100 13/08 Q1030 NOSIG RMK BIRD HAZARD RWY 28 PP000=
SPZO Feb2020-190030Z 00000KT 9999 FEW050 SCT100 12/08 Q1031 NOSIG RMK BIRD HAZARD RWY 28=
SPZO Feb2020-190100Z 29004KT 270V350 9999 FEW050 SCT100 11/07 Q1031 NOSIG RMK BIRD HAZARD RWY 28 PP000=
SPZO Feb2020-190130Z 30004KT 270V010 9999 FEW050 SCT100 10/07 Q1031 NOSIG RMK BIRD HAZARD RWY 28=
SPZO Feb2020-190200Z 16002KT 9999 FEW050 SCT100 11/07 Q1032 NOSIG RMK BIRD HAZARD RWY 28 PP000=
SPZO Feb2020-190230Z 09002KT 9999 FEW050 SCT100 10/07 Q1032 NOSIG RMK BIRD HAZARD RWY 28=
SPZO Feb2020-190300Z 13002KT 9999 FEW050 SCT100 10/07 Q1033 RMK PP000=
SPZO Feb2020-190400Z 33002KT 9999 FEW050 SCT100 09/07 Q1033 RMK PP000=
SPZO Feb2020-190500Z 00000KT 9999 FEW050 SCT100 09/07 Q1033 RMK PP000=
SPZO Feb2020-190600Z 11002KT 9999 SCT046 SCT100 09/07 Q1032 RMK PP000=
SPZO Feb2020-190700Z 00000KT 9999 SCT046 SCT100 09/07 Q1032 RMK PP000=
SPZO Feb2020-190800Z 10003KT 9999 SCT046 SCT100 09/06 Q1031 RMK PP000=
SPZO Feb2020-190900Z 00000KT 9999 SCT046 SCT100 08/06 Q1032 RMK BIRD HAZARD RWY 28 PP000=
SPZO Feb2020-191000Z 36002KT 9999 SCT046 SCT080 07/05 Q1032 NOSIG RMK BR QUAD NE BIRD HAZARD RWY 28 PP000=
SPZO Feb2020-191030Z 09004KT 9999 FEW040 SCT080 07/05 Q1032 NOSIG RMK BR QUAD NE BIRD HAZARD RWY 28=
SPZO Feb2020-191100Z 09003KT 040V150 9999 SCT040 SCT080 07/05 Q1033 NOSIG RMK VIS 9000E BR BIRD HAZARD RWY 28 PP000=
SPZO Feb2020-191130Z 00000KT 9999 SCT040 BKN100 09/07 Q1033 NOSIG RMK BIRD HAZARD RWY 28=
SPZO Feb2020-191200Z 29003KT 9999 SCT040 SCT100 10/07 Q1033 NOSIG RMK TN6.7 BRD HAZARD RWY 28 PP000=
SPZO Feb2020-191230Z VRB02KT 9999 SCT040 BKN100 11/07 Q1034 NOSIG RMK BIRD HAZARD RWY 28=
SPZO Feb2020-191300Z 00000KT 9999 FEW020 SCT040 BKN100 13/08 Q1034 NOSIG RMK BRD HAZARD RWY 28 PP000=
SPZO Feb2020-191330Z VRB02KT 9999 SCT040 BKN100 15/08 Q1034 NOSIG RMK BIRD HAZARD RWY 28=
SPZO Feb2020-191400Z VRB02KT 9999 SCT040 BKN100 16/09 Q1034 NOSIG RMK BIRD HAZARD RWY 28 PP000=
SPZO Feb2020-191430Z 08002KT 9999 SCT040 BKN100 17/08 Q1034 NOSIG RMK BIRD HAZARD RWY 28=
SPZO Feb2020-191500Z 10004KT 9999 SCT080 17/06 Q1034 NOSIG RMK BIRD HAZARD RWY 28 PP000=
SPZO Feb2020-191530Z VRB05KT 9999 SCT080 18/07 Q1033 NOSIG RMK BIRD HAZARD RWY 28=
SPZO Feb2020-191600Z 08004KT 9999 FEW060 BKN100 19/07 Q1033 NOSIG RMK BIRD HAZARD RWY 28 PP000=
SPZO Feb2020-191630Z 11004KT 9999 VCSH SCT060 BKN100 20/06 Q1032 NOSIG RMK BIRD HAZARD RWY 28=
SPZO Feb2020-191700Z 11004KT 9999 SCT060 BKN100 19/04 Q1032 NOSIG RMK BIRD HAZARD RWY 28 PP000=
SPZO Feb2020-191730Z 02007KT 300V090 9999 SCT046 BKN080 20/05 Q1030 NOSIG RMK BIRD HAZARD RWY 28=
SPZO Feb2020-191800Z 03010KT 010V110 9999 SCT046 BKN080 19/03 Q1030 NOSIG RMK TCU QUAD N BIRD HAZARD RWY 28 PP000=
SPZO Feb2020-191830Z VRB04KT 9999 SCT046 BKN080 20/06 Q1029 NOSIG RMK TCU QUAD N BIRD HAZARD RWY 28=
SPZO Feb2020-191900Z 01009KT 300V030 9999 SCT046 BKN080 20/06 Q1029 NOSIG RMK TCU QUAD N BIRD HAZARD RWY 28 PP000=
SPZO Feb2020-192000Z 01010KT 9999 SCT046 BKN100 19/05 Q1028 NOSIG RMK BIRD HAZARD RWY 28 PP000=
SPZO Feb2020-192030Z 02008KT 350V090 9999 SCT050 SCT100 20/03 Q1027 NOSIG RMK BIRD HAZARD RWY 28=
SPZO Feb2020-192100Z VRB05KT 9999 SCT050 SCT100 21/05 Q1027 NOSIG RMK BIRD HAZARD RWY 28 PP000=
SPZO Feb2020-192130Z 29016KT 9999 FEW050 SCT100 19/05 Q1026 NOSIG RMK BIRD HAZARD RWY 28=
SPZO Feb2020-192200Z 28015KT 9999 FEW050 SCT100 19/06 Q1026 NOSIG RMK TX21.2 BIRD HAZARD RWY 28 PP000=
SPZO Feb2020-192230Z 29013KT 9999 FEW050 SCT100 18/06 Q1027 NOSIG RMK BIRD HAZARD RWY 28=
SPZO Feb2020-192300Z 28012KT 9999 FEW050 SCT100 17/06 Q1027 NOSIG RMK BIRD HAZARD RWY 28 PP000=
SPZO Feb2020-192330Z 29012KT 9999 FEW050 16/07 Q1028 NOSIG RMK BIRD HAZARD RWY 28=
SPZO Feb2020-200000Z 28013KT 9999 FEW050 16/07 Q1028 NOSIG RMK BIRD HAZARD RWY 28 PP000=
SPZO Feb2020-200030Z 28007KT 9999 FEW050 15/07 Q1029 NOSIG RMK BIRD HAZARD RWY 28=
SPZO Feb2020-200100Z 27008KT 9999 FEW050 15/07 Q1029 NOSIG RMK BIRD HAZARD RWY 28 PP000=
SPZO Feb2020-200130Z 29005KT 9999 FEW050 14/07 Q1030 NOSIG RMK BIRD HAZARD RWY 28=
SPZO Feb2020-200200Z 28007KT 9999 FEW050 14/07 Q1031 NOSIG RMK BIRD HAZARD RWY 28 PP000=
SPZO Feb2020-200230Z 28007KT 9999 FEW100 14/07 Q1031 NOSIG RMK BIRD HAZARD RWY 28=
SPZO Feb2020-200300Z 30005KT 9999 FEW100 14/07 Q1032 NOSIG RMK BIRD HAZARD RWY 28 PP000=
SPZO Feb2020-200400Z 28008KT 9999 SCT100 14/07 Q1032 RMK BIRD HAZARD RWY 28 PP000=
SPZO Feb2020-200500Z 10004KT 9999 SCT100 13/08 Q1031 RMK BIRD HAZARD RWY 28 PP000=
SPZO Feb2020-200600Z 09005KT 9999 FEW030 SCT040 13/08 Q1031 RMK BIRD HAZARD RWY 28 PP000=
SPZO Feb2020-200700Z 10005KT 9999 SCT040 11/07 Q1031 RMK BIRD HAZARD RWY 28 PP000=
SPZO Feb2020-200800Z 09003KT 9999 FEW020 SCT040 11/07 Q1030 RMK BIRD HAZARD RWY 28 PP000=
SPZO Feb2020-200900Z 10003KT 9999 DZ FEW030 SCT040 BKN100 12/07 Q1030 RMK BIRD HAZARD RWY 28 PPTRZ=
SPZO Feb2020-201000Z 35003KT 9999 FEW030 SCT040 BKN100 10/07 Q1031 RERA NOSIG RMK BIRD HAZARD RWY 28 PP024=
SPZO Feb2020-201100Z 24002KT 9999 SCT036 BKN100 10/07 Q1032 NOSIG RMK BIRD HAZARD RWY 28 PP000=
SPZO Feb2020-201130Z 00000KT 9999 FEW025 SCT040 BKN080 11/07 Q1032 NOSIG RMK BIRD HAZARD RWY 28=
SPZO Feb2020-201200Z 00000KT 9999 FEW025 SCT040 BKN080 11/07 Q1032 NOSIG RMK TN09.6 BIRD HAZARD RWY 28 PP000=
SPZO Feb2020-201230Z VRB01KT 9999 FEW025 SCT040 BKN080 12/07 Q1033 NOSIG RMK BIRD HAZARD RWY 28=
SPZO Feb2020-201300Z 26004KT 9999 FEW025 SCT040 BKN080 12/06 Q1033 NOSIG RMK BIRD HAZARD RWY 28 PP000=
SPZO Feb2020-201330Z VRB02KT 9999 FEW025 SCT040 BKN080 13/06 Q1033 NOSIG RMK TCU QUAD S BIRD HAZARD RWY 28=
SPZO Feb2020-201400Z VRB02KT 9999 FEW025 SCT040 BKN080 14/06 Q1033 NOSIG RMK BIRD HAZARD RWY 28 PP000=
SPZO Feb2020-201430Z 08004KT 020V110 9999 SCT040 BKN080 16/07 Q1033 NOSIG RMK BIRD HAZARD RWY 28=
SPZO Feb2020-201500Z VRB02KT 9999 SCT040 BKN080 16/07 Q1033 NOSIG RMK BIRD HAZARD RWY 28 PP000=
SPZO Feb2020-201530Z 29005KT 9999 SCT040 SCT080 17/08 Q1032 NOSIG RMK BIRD HAZARD RWY 28=
SPZO Feb2020-201600Z VRB02KT 9999 SCT040 SCT100 17/06 Q1032 NOSIG RMK BIRD HAZARD RWY 28 PP000=
SPZO Feb2020-201630Z VRB02KT 9999 SCT043 SCT100 18/09 Q1032 NOSIG RMK BIRD HAZARD RWY 28=
SPZO Feb2020-201700Z VRB03KT 9999 SCT046 SCT120 19/09 Q1031 NOSIG RMK BIRD HAZARD RWY 28 PP000=
SPZO Feb2020-201730Z 00000KT 9999 VCSH SCT040 BKN100 18/05 Q1030 NOSIG RMK BIRD HAZARD RWY 28=
SPZO Feb2020-201800Z 02006KT 9999 VCSH SCT040 BKN100 17/05 Q1030 NOSIG RMK BIRD HAZARD RWY 28 PP000=
SPZO Feb2020-201830Z 36006KT 9999 -RA VCSH SCT040 BKN100 16/05 Q1030 NOSIG RMK BIRD HAZARD RWY 28=
SPZO Feb2020-201900Z 02011KT 9999 SCT040 BKN100 17/04 Q1029 NOSIG RMK BIRD HAZARD RWY 28 TRZ=
SPZO Feb2020-201930Z 03008KT 9999 VCSH SCT040 BKN100 17/05 Q1029 NOSIG RMK BIRD HAZARD RWY 28=
SPZO Feb2020-202000Z 02011KT 9999 SCT040 BKN100 17/04 Q1029 NOSIG RMK BIRD HAZARD RWY 28 TRZ=
SPZO Feb2020-202030Z 01006KT 9999 VCSH SCT040 BKN100 18/06 Q1028 NOSIG RMK BIRD HAZARD RWY 28=
SPZO Feb2020-202100Z 02006KT 9999 SCT040 BKN100 16/04 Q1027 NOSIG RMK BIRD HAZARD RWY 28 PP000=
SPZO Feb2020-202130Z 35007KT 9999 VCSH SCT040 BKN100 16/04 Q1027 NOSIG RMK BIRD HAZARD RWY 28=
SPZO Feb2020-202200Z 35011KT 9999 SCT060 BKN100 16/04 Q1027 NOSIG RMK TX 19.3 BIRD HAZARD RWY 28 PP000=
SPZO Feb2020-202230Z 29010KT 9999 SCT060 BKN100 15/06 Q1028 NOSIG RMK BIRD HAZARD RWY 28=
SPZO Feb2020-202300Z 30007KT 9999 SCT060 BKN100 15/06 Q1028 NOSIG RMK BIRD HAZARD RWY 28 PP000=
SPZO Feb2020-202330Z 31005KT 9999 SCT060 BKN100 14/06 Q1029 NOSIG RMK BIRD HAZARD RWY 28=
SPZO Feb2020-210000Z 34003KT 9999 SCT060 BKN100 13/06 Q1029 NOSIG RMK BIRD HAZARD RWY 28 PP000=
SPZO Feb2020-210030Z 27002KT 9999 SCT060 SCT100 13/06 Q1030 NOSIG RMK BIRD HAZARD RWY 28=
SPZO Feb2020-210100Z 29003KT 9999 SCT060 12/06 Q1030 NOSIG RMK BIRD HAZARD RWY 28 PP000=
SPZO Feb2020-210130Z 29003KT 9999 FEW050 11/06 Q1031 NOSIG RMK BIRD HAZARD RWY 28=
SPZO Feb2020-210200Z 29003KT 9999 SCT060 12/06 Q1030 NOSIG RMK BIRD HAZARD RWY 28 PP000=
SPZO Feb2020-210230Z 09003KT 9999 FEW050 11/07 Q1031 NOSIG RMK BIRD HAZARD RWY 28=
SPZO Feb2020-210300Z 16002KT 9999 FEW050 12/07 Q1032 NOSIG RMK BIRD HAZARD RWY 28 PP000=
SPZO Feb2020-210400Z 21002KT 9999 FEW050 12/07 Q1031 NOSIG RMK BIRD HAZARD RWY 28 PP000=
SPZO Feb2020-210500Z 00000KT 9999 FEW050 11/07 Q1031 NOSIG RMK BIRD HAZARD RWY 28 PP000=
SPZO Feb2020-210600Z 17002KT 9999 FEW050 12/07 Q1030 NOSIG RMK BIRD HAZARD RWY 28 PP000=
SPZO Feb2020-210700Z 09002KT 9999 FEW050 11/07 Q1030 NOSIG RMK BIRD HAZARD RWY 28 PP000=
SPZO Feb2020-210800Z 10005KT 9999 FEW050 11/08 Q1030 NOSIG RMK BIRD HAZARD RWY 28 PP000=
SPZO Feb2020-210900Z 09003KT 9999 -RA FEW020 SCT040 BKN100 10/08 Q1029 NOSIG RMK BIRD HAZARD RWY 28 PP024=
SPZO Feb2020-211000Z 09003KT 9999 FEW020 SCT046 BKN100 10/08 Q1030 NOSIG RMK BIRD HAZARD RWY 28 PP000=
SPZO Feb2020-211030Z 09004KT 9000 -RA FEW020 SCT043 BKN100 10/08 Q1030 TEMPO 8000 DZ RMK BIRD HAZARD RWY 28=
SPZO Feb2020-211100Z 10003KT 9000 -DZ FEW015 SCT036 OVC080 10/08 Q1030 NOSIG RMK BIRD HAZARD RWY 28 PPTRZ=
SPZO Feb2020-211130Z 11002KT 9000 -DZ FEW025 SCT036 OVC070 10/08 Q1031 NOSIG RMK BIRD HAZARD RWY 28=
SPZO Feb2020-211200Z 11002KT 8000 -DZ FEW025 SCT036 OVC070 11/08 Q1031 NOSIG RMK TN10.1 BIRD HAZARD RWY 28 PP002=
SPZO Feb2020-211230Z 12004KT 8000 -RA FEW025 SCT036 OVC070 11/08 Q1032 NOSIG RMK BIRD HAZARD RWY 28=
SPZO Feb2020-211300Z 10004KT 080V180 5000 RA BR FEW015 SCT036 OVC070 10/08 Q1032 NOSIG RMK CLNG BLW 1200M BIRD HAZARD RWY 28 =
SPZO Feb2020-211330Z 00000KT 5000 RA BR SCT015 SCT036 OVC070 10/08 Q1033 NOSIG RMK CLNG BLW 1200M BIRD HAZARD RWY 28=
SPZO Feb2020-211400Z 00000KT 5000 RA BR SCT015 SCT036 OVC070 10/08 Q1033 NOSIG RMK CLNG BLW 1200M BIRD HAZARD RWY 28 PP054=
SPZO Feb2020-211430Z 00000KT 5000 -RA BR SCT015 SCT036 OVC070 11/07 Q1033 NOSIG RMK CLNG BLW 1200M BIRD HAZARD RWY 28=
SPZO Feb2020-211500Z 00000KT 5000 -RA BR SCT015 SCT036 OVC070 11/09 Q1033 NOSIG RMK CLNG BLW 1200M BIRD HAZARD RWY 28 PP018=
SPZO Feb2020-211530Z 00000KT 5000 -RA BR SCT015 SCT036 OVC070 11/08 Q1033 NOSIG RMK CLNG BLW 1200M BIRD HAZARD RWY 28=
SPZO Feb2020-211600Z 29002KT 6000 -RA SCT015 SCT036 OVC070 11/08 Q1033 NOSIG RMK BR CLNG BLW 1200M BIRD HAZARD RWY 28 PP018=
SPZO Feb2020-211630Z 26004KT 200V290 8000 -RA FEW020 SCT036 OVC070 12/07 Q1033 NOSIG RMK CLNG BLW 1200M BIRD HAZARD RWY 28=
SPZO Feb2020-211700Z 26005KT 210V300 9000 -RA FEW025 SCT040 OVC080 12/07 Q1033 NOSIG RMK BIRD HAZARD RWY 28 PP006=
SPZO Feb2020-211730Z 26003KT 190V280 9000 -RA FEW025 SCT040 OVC080 12/07 Q1033 NOSIG RMK BIRD HAZARD RWY 28=
SPZO Feb2020-211800Z 27004KT 200V310 9000 -RA FEW025 SCT040 OVC080 12/08 Q1032 NOSIG RMK BIRD HAZARD RWY 28 PP006=
SPZO Feb2020-211830Z 28006KT 9000 -RA FEW025 SCT040 OVC080 12/07 Q1032 NOSIG RMK BIRD HAZARD RWY 28=
SPZO Feb2020-211900Z 29005KT 9000 -RA FEW025 SCT040 OVC080 12/07 Q1032 NOSIG RMK BIRD HAZARD RWY 28 PP002=
SPZO Feb2020-211930Z 11006KT 8000 -RA FEW020 SCT040 OVC080 12/09 Q1031 NOSIG RMK BIRD HAZARD RWY 28=
SPZO Feb2020-212000Z 14002KT 8000 -DZ FEW020 SCT040 OVC080 12/08 Q1031 NOSIG RMK BIRD HAZARD RWY 28 PP002=
SPZO Feb2020-212030Z 00000KT 9999 FEW025 SCT040 OVC080 13/08 Q1030 NOSIG RMK BIRD HAZARD RWY 28=
SPZO Feb2020-212100Z 00000KT 9999 FEW030 SCT040 OVC080 14/08 Q1030 REDZ NOSIG RMK BIRD HAZARD RWY 28 PPTRZ=
SPZO Feb2020-212130Z 09005KT 060V150 9999 FEW030 SCT043 OVC080 14/08 Q1029 NOSIG RMK BIRD HAZARD RWY 28=
SPZO Feb2020-212200Z 10005KT 9999 FEW030 SCT043 OVC080 14/08 Q1030 NOSIG RMK TX14.3 BIRD HAZARD RWY 28 PP000=
SPZO Feb2020-212230Z 11005KT 090V180 9999 SCT043 OVC080 13/08 Q1030 NOSIG RMK BIRD HAZARD RWY 28=
SPZO Feb2020-212300Z 11004KT 080V180 9999 SCT043 OVC080 13/07 Q1030 NOSIG RMK BIRD HAZARD RWY 28 PP000=
SPZO Feb2020-212330Z 10005KT 9999 FEW040 SCT046 OVC080 12/08 Q1031 NOSIG RMK TCU QUAD S BIRD HAZARD RWY 28=
SPZO Feb2020-220000Z 11004KT 9999 -DZ FEW040 SCT046 OVC080 12/08 Q1031 NOSIG RMK TCU QUAD S BIRD HAZARD RWY 28 PPTRZ=
SPZO Feb2020-220030Z VRB01KT 9000 -DZ VCSH FEW040 SCT046 OVC070 11/08 Q1032 NOSIG RMK BIRD HAZARD RWY 28=
SPZO Feb2020-220100Z 00000KT 9000 -RA VCSH FEW040 SCT046 OVC070 11/08 Q1032 NOSIG RMK BIRD HAZARD RWY 28 PP012=
SPZO Feb2020-220130Z VRB02KT 9000 -RA VCSH FEW036 SCT040 OVC070 11/09 Q1032 NOSIG RMK BR BIRD HAZARD RWY 28=
SPZO Feb2020-220200Z VRB01KT 9000 -RA VCSH FEW030 SCT040 OVC070 11/09 Q1033 NOSIG RMK BR BIRD HAZARD RWY 28 PP006=
SPZO Feb2020-220230Z 29002KT 9000 DZ VCSH SCT033 OVC070 11/09 Q1033 NOSIG RMK BR BIRD HAZARD RWY 28=
SPZO Feb2020-220300Z 00000KT 9000 -RA VCSH SCT033 OVC070 11/08 Q1034 NOSIG RMK BR BIRD HAZARD RWY 28 PP006=
SPZO Feb2020-220400Z 00000KT 9000 -RA VCSH FEW020 SCT033 OVC070 10/08 Q1034 RMK BR PP036=
SPZO Feb2020-220500Z VRB01KT 9999 DZ FEW020 SCT033 OVC070 10/08 Q1033 RMK BR PP006=
SPZO Feb2020-220600Z VRB01KT 9999 -DZ FEW020 SCT033 OVC070 10/08 Q1033 RMK BR PP002=
SPZO Feb2020-220700Z 00000KT 9999 FEW020 SCT036 OVC080 10/08 Q1032 RMK BR PPTRZ=
SPZO Feb2020-220800Z 09002KT 9999 FEW020 SCT036 OVC080 10/08 Q1032 RMK BR PP000=
SPZO Feb2020-220900Z 00000KT 9999 FEW020 SCT036 OVC080 10/08 Q1031 RMK BR PP000=
SPZO Feb2020-221000Z 12002KT 9999 FEW020 SCT036 OVC080 10/07 Q1032 NOSIG RMK BR BIRD HAZARD RWY 28 PP000=
SPZO Feb2020-221030Z 09002KT 9999 FEW020 SCT036 OVC080 10/08 Q1032 NOSIG RMK BR BIRD HAZARD RWY 28=
SPZO Feb2020-221100Z VRB02KT 9999 FEW025 SCT036 OVC080 10/07 Q1033 NOSIG RMK BR BIRD HAZARD RWY 28 PP000=
SPZO Feb2020-221130Z 00000KT 9999 SCT040 BKN080 10/07 Q1033 NOSIG RMK BIRD HAZARD RWY 28=
SPZO Feb2020-221200Z 00000KT 9999 SCT040 BKN100 11/07 Q1033 NOSIG RMK TN09.7 BIRD HAZARD RWY 28 PP000=
SPZO Feb2020-221230Z 00000KT 9999 SCT043 BKN100 12/06 Q1034 NOSIG RMK BR QUAD NE BIRD HAZARD RWY 28=
SPZO Feb2020-221300Z 13002KT 9999 SCT040 OVC100 12/07 Q1034 NOSIG RMK BIRD BR QUAD NE HAZARD RWY 28 PP000=
SPZO Feb2020-221330Z 12003KT 060V180 9999 SCT040 BKN080 13/07 Q1034 NOSIG RMK BIRD HAZARD RWY 28=
SPZO Feb2020-221400Z 05002KT 9999 SCT040 OVC080 13/06 Q1034 NOSIG RMK BIRD HAZARD RWY 28 PP000=
SPZO Feb2020-221430Z 00000KT 9999 SCT040 OVC080 14/06 Q1034 NOSIG RMK BIRD HAZARD RWY 28=
SPZO Feb2020-221500Z 00000KT 9999 SCT040 OVC080 14/06 Q1034 NOSIG RMK BIRD HAZARD RWY 28 PP000=
SPZO Feb2020-221530Z 02003KT 9999 SCT043 OVC080 14/07 Q1034 NOSIG RMK BIRD HAZARD RWY 28=
SPZO Feb2020-221600Z 34002KT 9999 SCT043 BKN080 15/07 Q1034 NOSIG RMK BIRD HAZARD RWY 28 PP000=
SPZO Feb2020-221630Z 00000KT 9999 SCT043 BKN080 16/07 Q1033 NOSIG RMK BIRD HAZARD RWY 28=
SPZO Feb2020-221700Z 15002KT 9999 SCT046 BKN080 17/06 Q1033 NOSIG RMK BIRD HAZARD RWY 28 PP000=
SPZO Feb2020-221730Z VRB05KT 9999 SCT040 BKN100 17/07 Q1032 NOSIG RMK BIRD HAZARD RWY 28=
SPZO Feb2020-221800Z 05007KT 9999 SCT040 BKN100 17/08 Q1031 NOSIG RMK BIRD HAZARD RWY 28 PP000=
SPZO Feb2020-221830Z 36009KT 9999 SCT040 BKN100 17/06 Q1030 NOSIG RMK BIRD HAZARD RWY 28=
SPZO Feb2020-221900Z 01007KT 9999 SCT060 BKN100 18/07 Q1030 NOSIG RMK BIRD HAZARD RWY 28 PP000=
SPZO Feb2020-221930Z 04011KT 9999 SCT060 BKN100 18/06 Q1029 NOSIG RMK BIRD HAZARD RWY 28=
SPZO Feb2020-222000Z VRB06KT 9999 SCT060 BKN100 19/07 Q1029 NOSIG RMK BIRD HAZARD RWY 28 PP000=
SPZO Feb2020-222030Z 04009KT 360V080 9999 SCT060 BKN100 18/07 Q1029 NOSIG RMK BIRD HAZARD RWY 28=
SPZO Feb2020-222100Z 02009KT 9999 SCT060 BKN100 18/06 Q1029 NOSIG RMK BIRD HAZARD RWY 28 PP000=
SPZO Feb2020-222130Z 01010KT 9999 SCT060 BKN100 17/06 Q1029 NOSIG RMK BIRD HAZARD RWY 28=
SPZO Feb2020-222200Z 01006KT 9999 SCT060 BKN100 16/05 Q1029 NOSIG RMK TX20.00 BIRD HAZARD RWY 28 PP000=
SPZO Feb2020-222230Z 35005KT 9999 SCT060 BKN100 15/05 Q1030 NOSIG RMK BIRD HAZARD RWY 28=
SPZO Feb2020-222300Z 35006KT 9999 SCT060 BKN100 15/05 Q1030 NOSIG RMK BIRD HAZARD RWY 28 PP000=
SPZO Feb2020-222330Z 02006KT 9999 SCT060 BKN100 15/04 Q1031 NOSIG RMK BIRD HAZARD RWY 28=
SPZO Feb2020-230000Z 02006KT 9999 FEW040TCU SCT060 BKN100 15/05 Q1031 NOSIG RMK BIRD HAZARD RWY 28 PP000=
SPZO Feb2020-230030Z 36006KT 9999 FEW040TCU SCT060 BKN100 14/05 Q1032 NOSIG RMK BIRD HAZARD RWY 28=
SPZO Feb2020-230100Z 36002KT 9999 SCT060 BKN100 14/04 Q1032 NOSIG RMK BIRD HAZARD RWY 28 PP000=
SPZO Feb2020-230130Z VRB01KT 9999 SCT060 BKN100 14/04 Q1032 NOSIG RMK BIRD HAZARD RWY 28=
SPZO Feb2020-230200Z 14005KT 9999 SCT060 BKN100 14/06 Q1033 NOSIG RMK BIRD HAZARD RWY 28 PP000=
SPZO Feb2020-230300Z 11005KT 9999 SCT060 BKN100 13/06 Q1034 NOSIG RMK BIRD HAZARD RWY 28 PP000=
SPZO Feb2020-230400Z 100003KT 9999 SCT050 BKN100 13/06 Q1034 RMK BIRD HAZARD RWY 28 PP000=
SPZO Feb2020-230500Z 11004KT 9999 SCT050 BKN100 12/07 Q1033 RMK BIRD HAZARD RWY 28 PP000=
SPZO Feb2020-230600Z 13007KT 9999 SCT050 BKN100 12/07 Q1033 RMK BIRD HAZARD RWY 28 PP000=
SPZO Feb2020-230700Z VRB01KT 9999 -RA SCT050 BKN100 11/07 Q1032 RMK BIRD HAZARD RWY 28 PPTRZ=
SPZO Feb2020-230800Z 00000KT 9999 SCT050 BKN100 12/07 Q1034 RMK BIRD HAZARD RWY 28 PP000=
SPZO Feb2020-230900Z 26003KT 9999 SCT050 BKN100 11/07 Q1032 RMK BIRD HAZARD RWY 28 PP000=
SPZO Feb2020-231000Z 11005KT 9999 SCT050 BKN100 10/07 Q1032 NOSIG RMK BIRD HAZARD RWY 28 PP000=
SPZO Feb2020-231030Z 00000KT 9999 FEW020 SCT060 BKN100 10/07 Q1032 NOSIG RMK BIRD HAZARD RWY 28=
SPZO Feb2020-231100Z 29003KT 9999 FEW020 SCT060 BKN100 09/07 Q1033 NOSIG RMK BIRD HAZARD RWY 28 PP000=
SPZO Feb2020-231130Z 10002KT 9999 FEW030 SCT043 BKN100 10/08 Q1033 NOSIG RMK BIRD HAZARD RWY 28=
SPZO Feb2020-231200Z 09002KT 9999 FEW030 SCT040 BKN100 11/08 Q1033 NOSIG RMK TN09.1 BIRD HAZARD RWY 28 PP000=
SPZO Feb2020-231230Z 00000KT 9999 FEW030 SCT040 BKN100 14/08 Q1034 NOSIG RMK BIRD HAZARD RWY 28=
SPZO Feb2020-231300Z 28002KT 9999 FEW030 SCT040 BKN100 13/07 Q1034 NOSIG RMK BIRD HAZARD RWY 28 PP000=
SPZO Feb2020-231330Z 33003KT 260V010 9999 SCT040 SCT100 14/08 Q1034 NOSIG RMK BIRD HAZARD RWY 28=
SPZO Feb2020-231400Z 33002KT 9999 SCT040 BKN100 15/08 Q1034 NOSIG RMK BIRD HAZARD RWY 28 PP000=
SPZO Feb2020-231430Z 08002KT 9999 SCT040 BKN080 16/07 Q1034 NOSIG RMK BIRD HAZARD RWY 28=
SPZO Feb2020-231500Z 04002KT 9999 SCT040 BKN080 16/06 Q1033 NOSIG RMK BIRD HAZARD RWY 28 PP000=
SPZO Feb2020-231530Z 08003KT 9999 SCT043 BKN080 17/06 Q1033 NOSIG RMK BIRD HAZARD RWY 28=
SPZO Feb2020-231600Z 09003KT 020V150 9999 SCT043 BKN080 17/07 Q1033 NOSIG RMK BIRD HAZARD RWY 28 PP000=
SPZO Feb2020-231630Z 36003KT 300V060 9999 SCT043 BKN080 18/05 Q1032 NOSIG RMK BIRD HAZARD RWY 28=
SPZO Feb2020-231700Z 10002KT 9999 SCT046 BKN080 18/05 Q1032 NOSIG RMK BIRD HAZARD RWY 28 PP000=
SPZO Feb2020-231730Z VRB05KT 9999 SCT043 BKN080 20/06 Q1031 NOSIG RMK BIRD HAZARD RWY 28=
SPZO Feb2020-231800Z VRB06KT 9999 VCSH SCT043 BKN080 20/05 Q1030 NOSIG RMK BIRD HAZARD RWY 28 PP000=
SPZO Feb2020-231830Z VRB04KT 9999 SCT043 SCT080 21/05 Q1029 NOSIG RMK BIRD HAZARD RWY 28=
SPZO Feb2020-231900Z VRB03KT 9999 SCT050 SCT080 20/07 Q1028 NOSIG RMK BIRD HAZARD RWY 28 PP000=
SPZO Feb2020-231930Z VRB02KT 9999 SCT050 SCT080 21/08 Q1028 NOSIG RMK BIRD HAZARD RWY 28=
SPZO Feb2020-232000Z VRB03KT 9999 SCT050 SCT080 21/07 Q1027 NOSIG RMK TCU QUAD N BIRD HAZARD RWY 28 PP000=
SPZO Feb2020-232030Z 01008KT 9999 VCSH SCT050 SCT080 21/05 Q1027 NOSIG RMK TCU QUAD NW BIRD HAZARD RWY 28=
SPZO Feb2020-232100Z 36009KT 9999 VCSH SCT043 SCT080 20/06 Q1026 NOSIG RMK TCU QUAD NW BIRD HAZARD RWY 28 PP000=
SPZO Feb2020-232130Z 31006KT 260V020 9999 SCT043 SCT100 18/08 Q1026 NOSIG RMK BIRD HAZARD RWY 28=
SPZO Feb2020-232200Z 29008KT 9999 SCT043 SCT100 19/08 Q1026 NOSIG RMK TX22.1 BIRD HAZARD RWY 28 PP000=
SPZO Feb2020-232230Z 33007KT 280V020 9999 SCT046 SCT080 18/06 Q1027 NOSIG RMK TCU QUAD SE BIRD HAZARD RWY 28=
SPZO Feb2020-232300Z 33007KT 9999 SCT046 SCT080 17/06 Q1027 NOSIG RMK TCU QUAD SE BIRD HAZARD RWY 28 PP000=
SPZO Feb2020-232330Z 02007KT 350V090 9999 SCT046 BKN080 16/07 Q1028 NOSIG RMK BIRD HAZARD RWY 28=
SPZO Feb2020-240000Z 02005KT 300V060 9999 SCT046 BKN080 16/07 Q1029 NOSIG RMK BIRD HAZARD RWY 28 PP000=
SPZO Feb2020-240030Z 14002KT 9999 SCT046 BKN080 16/06 Q1029 NOSIG RMK BIRD HAZARD RWY 28=
SPZO Feb2020-240100Z 12005KT 9999 SCT046 BKN080 15/06 Q1030 NOSIG RMK BIRD HAZARD RWY 28 PP000=
SPZO Feb2020-240130Z 10005KT 9999 SCT046 BKN080 14/06 Q1030 NOSIG RMK BIRD HAZARD RWY 28=
SPZO Feb2020-240200Z 10003KT 030V150 9999 SCT046 SCT100 14/06 Q1031 NOSIG RMK BIRD HAZARD RWY 28 PP000=
SPZO Feb2020-240230Z 11002KT 9999 SCT046 SCT100 14/06 Q1031 NOSIG RMK BIRD HAZARD RWY 28=
SPZO Feb2020-240300Z 10003KT 9999 SCT046 SCT100 13/07 Q1031 RMK PP000=
SPZO Feb2020-240400Z 19008KT 120V230 9000 DZ SCT043 BKN080 13/05 Q1033 RMK PPTRZ=
SPZO Feb2020-240500Z 00000KT 7000 RA SCT040 OVC080 10/07 Q1033 RMK PP046=
SPZO Feb2020-240600Z 28003KT 8000 -RA SCT040 OVC080 10/08 Q1033 RMK PP004=
SPZO Feb2020-240700Z 29003KT 9000 DZ SCT040 OVC080 10/07 Q1032 RMK PPTRZ=
SPZO Feb2020-240800Z 26003KT 9000 -RA SCT040 OVC080 10/07 Q1031 RMK PP006=
SPZO Feb2020-240900Z 00000KT 8000 -RA FEW020 SCT036 OVC070 10/07 Q1031 RMK CLNG BLW 1200M BIRD HAZARD RWY 28 PP004=
SPZO Feb2020-241000Z 00000KT 8000 -RA FEW020 SCT036 OVC070 10/08 Q1031 NOSIG RMK CLNG BLW 1200M BIRD HAZARD RWY 28 PP002=
SPZO Feb2020-241030Z 00000KT 8000 -RA FEW020 SCT036 OVC070 10/08 Q1032 NOSIG RMK CLNG BLW 1200M BIRD HAZARD RWY 28=
SPZO Feb2020-241100Z 00000KT 8000 -RA FEW020 SCT036 OVC070 10/07 Q1032 NOSIG RMK CLNG BLW 1200M BIRD HAZARD RWY 28 PP004=
SPZO Feb2020-241130Z 00000KT 6000 -RA FEW020 SCT036 OVC080 10/07 Q1033 NOSIG RMK CLNG BLW 1200M BIRD HAZARD RWY 28=
SPZO Feb2020-241200Z 00000KT 8000 DZ FEW020 SCT036 OVC080 10/08 Q1033 NOSIG RMK TN9.5 CLNG BLW 1200M BIRD HAZARD RWY 28 PP026=
SPZO Feb2020-241230Z 10002KT 9999 FEW020 SCT036 BKN080 10/08 Q1033 NOSIG RMK BIRD HAZARD RWY 28=
SPZO Feb2020-241300Z 10003KT 9999 FEW020 SCT036 BKN080 11/08 Q1033 NOSIG RMK BIRD HAZARD RWY 28 PP000=
SPZO Feb2020-241330Z VRB01KT 9999 SCT036 BKN080 12/07 Q1034 NOSIG RMK BIRD HAZARD RWY 28=
SPZO Feb2020-241400Z VRB02KT 9999 SCT036 BKN080 14/08 Q1034 NOSIG RMK BIRD HAZARD RWY 28 PP000=
SPZO Feb2020-241430Z 09003KT 9999 SCT036 BKN080 15/08 Q1034 NOSIG RMK BIRD HAZARD RWY 28=
SPZO Feb2020-241500Z 09002KT 9999 SCT036 BKN080 15/08 Q1033 NOSIG RMK BIRD HAZARD RWY 28 PP000=
SPZO Feb2020-241530Z 32004KT 9999 SCT043 BKN080 17/09 Q1033 NOSIG RMK BIRD HAZARD RWY 28=
SPZO Feb2020-241600Z 33004KT 9999 SCT040 BKN100 17/07 Q1032 NOSIG RMK BIRD HAZARD RWY 28 PP000=
SPZO Feb2020-241630Z 31005KT 9999 SCT040 BKN100 18/06 Q1032 NOSIG RMK BIRD HAZARD RWY 28=
SPZO Feb2020-241700Z 34002KT 9999 SCT040 SCT100 19/08 Q1031 NOSIG RMK BIRD HAZARD RWY 28 PP000=
SPZO Feb2020-241730Z VRB03KT 9999 SCT043 SCT100 20/06 Q1030 NOSIG RMK BIRD HAZARD RWY 28=
SPZO Feb2020-241800Z 31003KT 9999 SCT043 SCT100 21/08 Q1029 NOSIG RMK BIRD HAZARD RWY 28 PP000=
SPZO Feb2020-241830Z VRB03KT 9999 BKN043 SCT100 21/06 Q1028 NOSIG RMK BIRD HAZARD RWY 28=
SPZO Feb2020-241900Z VRB04KT 9999 BKN043 SCT100 22/05 Q1027 NOSIG RMK TCU QUAD N BIRD HAZARD RWY 28 PP000=
SPZO Feb2020-241930Z 28007KT 260V360 9999 BKN043 BKN080 19/08 Q1026 NOSIG RMK TCU QUAD N BIRD HAZARD RWY 28=
SPZO Feb2020-242000Z 32008KT 280V020 9999 VCSH BKN043 BKN080 19/07 Q1027 TEMPO RA RMK TCU QUAD NE BIRD HAZARD RWY 28 PP000=
SPZO Feb2020-242030Z 02010KT 9999 VCSH SCT046 BKN080 17/06 Q1027 NOSIG RMK BIRD HAZARD RWY 28=
SPZO Feb2020-242100Z 36006KT 300V050 9999 SCT046 BKN080 16/06 Q1027 NOSIG RMK TCU QUAD S BIRD HAZARD RWY 28 PP000=
SPZO Feb2020-242130Z 36006KT 9999 SCT046 BKN080 16/06 Q1026 NOSIG RMK TCU QUAD S BIRD HAZARD RWY 28=
SPZO Feb2020-242200Z 11011KT 9999 SCT050 BKN080 15/07 Q1027 NOSIG RMK TCU QUAD SE TX21.7 BIRD HAZARD RWY 28 PP000=
SPZO Feb2020-242230Z 12007KT 090V180 9999 SCT050 SCT100 15/07 Q1027 NOSIG RMK BIRD HAZARD RWY 28=
SPZO Feb2020-242300Z 15004KT 090V190 9999 FEW050 SCT100 15/07 Q1027 NOSIG RMK BIRD HAZARD RWY 28 PP000=
SPZO Feb2020-242330Z 11004KT 9999 FEW050 13/07 Q1027 NOSIG RMK BIRD HAZARD RWY 28=
SPZO Feb2020-250000Z VRB02KT 9999 FEW050 13/07 Q1028 NOSIG RMK BIRD HAZARD RWY 28 PP000=
SPZO Feb2020-250030Z 07002KT 9999 FEW050 12/08 Q1029 NOSIG RMK BIRD HAZARD RWY 28=
SPZO Feb2020-250100Z 11003KT 9999 FEW050 13/08 Q1029 NOSIG RMK BIRD HAZARD RWY 28 PP000=
SPZO Feb2020-250130Z VRB01KT 9999 FEW050 BKN100 13/08 Q1029 NOSIG RMK BIRD HAZARD RWY 28=
SPZO Feb2020-250200Z 17002KT 9999 FEW050 BKN100 13/08 Q1030 NOSIG RMK BIRD HAZARD RWY 28 PP000=
SPZO Feb2020-250300Z 30005KT 9999 -RA VCSH SCT040 BKN100 12/08 Q1031 NOSIG RMK BIRD HAZARD RWY 28 PPTRZ=
SPZO Feb2020-250400Z 26002KT 9999 RA VCSH SCT040 BKN100 11/08 Q1032 RMK BIRD HAZARD RWY 28 PP014=
SPZO Feb2020-250500Z 10003KT 5000 RA VCSH FEW020 SCT030 OVC080 11/08 Q1033 RMK CLNG BLW 1200M BIRD HAZARD RWY 28 PP018=
SPZO Feb2020-250600Z 29002KT 5000 RA VCSH FEW020 SCT030 OVC080 11/08 Q1031 RMK CLNG BLW 1200M BIRD HAZARD RWY 28 PP014=
SPZO Feb2020-250700Z 31001KT 9999 VCSH FEW020 SCT030 OVC080 11/08 Q1030 RMK CLNG BLW 1200M BIRD HAZARD RWY 28 PP000=
SPZO Feb2020-250800Z 11003KT 7000 VCSH FEW020 SCT030 OVC080 10/08 Q1030 RMK CLNG BLW 1200M BIRD HAZARD RWY 28 PP000=
SPZO Feb2020-250900Z 10001KT 7000 VCSH FEW020 SCT030 OVC080 11/09 Q1030 RMK CLNG BLW 1200M BIRD HAZARD RWY 28 PP000=
SPZO Feb2020-251000Z 10002KT 9999 FEW020 SCT030 OVC080 11/09 Q1030 NOSIG RMK CLNG BLW 1200M BIRD HAZARD RWY 28 PP000=
SPZO Feb2020-251030Z 00000KT 9999 FEW020 SCT036 OVC100 11/08 Q1031 NOSIG RMK BIRD HAZARD RWY 28=
SPZO Feb2020-251100Z 00000KT 9999 FEW020 SCT036 OVC100 11/08 Q1031 NOSIG RMK BIRD HAZARD RWY 28 PP000=
SPZO Feb2020-251130Z 00000KT 9999 FEW025 SCT040 BKN100 12/09 Q1031 NOSIG RMK BIRD HAZARD RWY 28=
SPZO Feb2020-251200Z 09003KT 9999 FEW020 SCT040 BKN080 12/09 Q1031 NOSIG RMK TN9.8 BR BIRD HAZARD RWY 28 PP000=
SPZO Feb2020-251230Z 11005KT 9999 FEW020 SCT040 BKN080 12/09 Q1032 NOSIG RMK BR BIRD HAZARD RWY 28=
SPZO Feb2020-251300Z 10005KT 9999 SCT020 BKN080 12/09 Q1032 NOSIG RMK BR BIRD HAZARD RWY 28 PP000=
SPZO Feb2020-251330Z 05002KT 9999 SCT030 BKN080 16/07 Q1032 NOSIG RMK BIRD HAZARD RWY 28=
SPZO Feb2020-251400Z 00000KT 9999 SCT040 BKN080 15/06 Q1032 NOSIG RMK BIRD HAZARD RWY 28 PP000=
SPZO Feb2020-251430Z 00000KT 9999 SCT040 BKN080 16/07 Q1032 NOSIG RMK BIRD HAZARD RWY 28=
SPZO Feb2020-251500Z 28003KT 9999 VCSH SCT040 BKN080 16/07 Q1032 NOSIG RMK BIRD HAZARD RWY 28 PP000=
SPZO Feb2020-251530Z 25005KT 9999 VCSH SCT043 BKN080 16/07 Q1032 NOSIG RMK BIRD HAZARD RWY 28=
SPZO Feb2020-251600Z 28007KT 9999 SCT046 BKN080 18/08 Q1031 NOSIG RMK BIRD HAZARD RWY 28 PP000=
SPZO Feb2020-251630Z 30006KT 9999 SCT046 BKN080 19/09 Q1031 NOSIG RMK BIRD HAZARD RWY 28=
SPZO Feb2020-251700Z 27006KT 9999 SCT046 19/09 Q1030 NOSIG RMK BIRD HAZARD RWY 28 PP000=
SPZO Feb2020-251730Z 34003KT 9999 SCT050 BKN100 20/08 Q1029 NOSIG RMK BIRD HAZARD RWY 28=
SPZO Feb2020-251800Z 32004KT 9999 VCSH FEW040TCU SCT060 BKN100 20/06 Q1029 NOSIG RMK BIRD HAZARD RWY 28 PP000=
SPZO Feb2020-251830Z VRB03KT 9999 FEW040TCU SCT060 BKN100 19/06 Q1028 NOSIG RMK BIRD HAZARD RWY 28=
SPZO Feb2020-251900Z 35005KT 9999 VCSH FEW040TCU SCT060 BKN100 18/07 Q1028 NOSIG RMK BIRD HAZARD RWY 28 PP000=
SPZO Feb2020-251930Z 29007KT 9999 SCT060 BKN100 19/07 Q1027 NOSIG RMK BIRD HAZARD RWY 28=
SPZO Feb2020-252000Z 29011KT 9999 VCSH FEW040TCU SCT060 BKN100 19/09 Q1027 NOSIG RMK BIRD HAZARD RWY 28 PP000=
SPZO Feb2020-252030Z 31009KT 9999 FEW040TCU SCT060 BKN100 19/08 Q1027 NOSIG RMK BIRD HAZARD RWY 28=
SPZO Feb2020-252100Z 01007KT 9999 VCSH FEW040TCU SCT060 BKN100 17/06 Q1027 NOSIG RMK BIRD HAZARD RWY 28 PP000=
SPZO Feb2020-252130Z 30004KT 9999 VCSH SCT060 BKN100 16/07 Q1027 NOSIG RMK BIRD HAZARD RWY 28=
SPZO Feb2020-252200Z 28007KT 9999 SCT060 SCT100 16/08 Q1027 NOSIG RMK TX20.6 BIRD HAZARD RWY 28 PP000=
SPZO Feb2020-252230Z 29006KT 9999 SCT060 BKN100 16/07 Q1027 NOSIG RMK BIRD HAZARD RWY 28=
SPZO Feb2020-252300Z 27004KT 9999 SCT060 BKN100 16/08 Q1027 NOSIG RMK BIRD HAZARD RWY 28 PP000=
SPZO Feb2020-252330Z 30008KT 9999 SCT050 BKN100 15/08 Q1028 NOSIG RMK BIRD HAZARD RWY 28=
SPZO Feb2020-260000Z 31003KT 9999 FEW050 BKN100 14/08 Q1028 NOSIG RMK BIRD HAZARD RWY 28 PP000=
SPZO Feb2020-260030Z VRB02KT 9999 FEW050 BKN100 14/08 Q1029 NOSIG RMK BIRD HAZARD RWY 28=
SPZO Feb2020-260100Z 28006KT 9999 SCT050 BKN100 13/08 Q1029 NOSIG RMK BIRD HAZARD RWY 28 PP000=
SPZO Feb2020-260130Z 30004KT 9999 SCT050 BKN100 13/08 Q1030 NOSIG RMK BIRD HAZARD RWY 28=
SPZO Feb2020-260200Z 10002KT 9999 SCT050 BKN100 13/08 Q1030 NOSIG RMK BIRD HAZARD RWY 28 PP000=
SPZO Feb2020-260230Z 00000KT 9999 SCT050 BKN100 13/08 Q1030 NOSIG RMK BIRD HAZARD RWY 28=
SPZO Feb2020-260300Z 00000KT 9999 SCT046 BKN100 12/08 Q1031 NOSIG RMK BIRD HAZARD RWY 28 PP000=
SPZO Feb2020-260400Z 00000KT 9999 SCT046 BKN100 13/08 Q1031 RMK BIRD HAZARD RWY 28 PP000=
SPZO Feb2020-260500Z 25006KT 9999 SCT046 BKN100 13/06 Q1031 RMK BIRD HAZARD RWY 28 PP000=
SPZO Feb2020-260600Z 20004KT 9999 SCT046 BKN100 12/06 Q1031 RMK BIRD HAZARD RWY 28 PP000=
SPZO Feb2020-260700Z 24002KT 9999 FEW036 SCT046 BKN080 13/06 Q1030 RMK BIRD HAZARD RWY 28 PP000=
SPZO Feb2020-260800Z 00000KT 9999 FEW036 SCT046 BKN080 12/07 Q1030 RMK BIRD HAZARD RWY 28 PP000=
SPZO Feb2020-260900Z 26003KT 9999 FEW030 SCT046 BKN080 12/07 Q1030 RMK BIRD HAZARD RWY 28 PP000=
SPZO Feb2020-261000Z 30003KT 9999 FEW030 SCT043 BKN080 11/07 Q1030 NOSIG RMK BIRD HAZARD RWY 28 PP000=
SPZO Feb2020-261030Z 28003KT 9999 SCT040 BKN080 11/07 Q1031 NOSIG RMK BIRD HAZARD RWY 28=
SPZO Feb2020-261100Z 00000KT 9999 SCT040 BKN080 11/07 Q1031 NOSIG RMK BIRD HAZARD RWY 28 PP000=
SPZO Feb2020-261130Z VRB02KT 9999 FEW020 SCT060 OVC100 11/07 Q1031 NOSIG RMK BIRD HAZARD RWY 28=
SPZO Feb2020-261200Z 29003KT 9999 FEW020 SCT060 OVC100 11/07 Q1032 NOSIG RMK TN10.5 BIRD HAZARD RWY 28 PP000=
SPZO Feb2020-261230Z 30002KT 9999 FEW020 SCT060 OVC100 12/07 Q1032 NOSIG RMK BIRD HAZARD RWY 28=
SPZO Feb2020-261300Z 30006KT 9999 SCT060 BKN100 12/07 Q1032 NOSIG RMK BIRD HAZARD RWY 28 PP000=
SPZO Feb2020-261330Z 22002KT 9999 SCT060 BKN100 13/07 Q1033 NOSIG RMK BIRD HAZARD RWY 28=
SPZO Feb2020-261400Z VRB03KT 9999 SCT060 BKN100 14/07 Q1033 NOSIG RMK BIRD HAZARD RWY 28 PP000=
SPZO Feb2020-261430Z VRB03KT 9999 SCT060 BKN100 14/07 Q1033 NOSIG RMK BIRD HAZARD RWY 28=
SPZO Feb2020-261500Z 27007KT 9999 SCT060 BKN100 15/07 Q1033 NOSIG RMK BIRD HAZARD RWY 28 PP000=
SPZO Feb2020-261530Z 36003KT 9999 VCSH SCT060 BKN100 15/07 Q1033 NOSIG RMK BIRD HAZARD RWY 28=
SPZO Feb2020-261600Z 02011KT 9999 FEW040TCU SCT060 BKN100 14/05 Q1033 TEMPO 8000 RMK BIRD HAZARD RWY 28 PP000=
SPZO Feb2020-261630Z 06009KT 9999 VCSH FEW040TCU SCT060 BKN100 14/04 Q1033 NOSIG RMK BIRD HAZARD RWY 28=
SPZO Feb2020-261700Z VRB01KT 9999 VCSH FEW040TCU SCT060 BKN100 14/05 Q1033 NOSIG RMK BIRD HAZARD RWY 28 PP000=
SPZO Feb2020-261730Z 24005KT 180V290 9999 SCT046 BKN100 15/06 Q1032 NOSIG RMK BIRD HAZARD RWY 28=
SPZO Feb2020-261800Z 15003KT 9999 SCT046 BKN100 16/05 Q1032 NOSIG RMK BIRD HAZARD RWY 28 PP000=
SPZO Feb2020-261830Z 16004KT 9999 SCT046 BKN100 17/06 Q1031 NOSIG RMK BIRD HAZARD RWY 28=
SPZO Feb2020-261900Z 16003KT 9999 SCT046 BKN100 18/06 Q1030 NOSIG RMK BIRD HAZARD RWY 28 PP000=
SPZO Feb2020-261930Z 02006KT 300V060 9999 SCT046 BKN080 18/05 Q1030 NOSIG RMK BIRD HAZARD RWY 28=
SPZO Feb2020-262000Z 34004G14KT 9999 FEW040TCU SCT046 BKN080 19/07 Q1029 NOSIG RMK BIRD HAZARD RWY 28 PP000=
SPZO Feb2020-262030Z 24004KT 9999 SCT046 BKN080 18/06 Q1029 NOSIG RMK BIRD HAZARD RWY 28=
SPZO Feb2020-262100Z 29007KT 260V350 9999 SCT046 BKN100 19/05 Q1028 NOSIG RMK BIRD HAZARD RWY 28 PP000=
SPZO Feb2020-262130Z 32005KT 240V360 9999 SCT046 SCT100 19/03 Q1028 NOSIG RMK BIRD HAZARD RWY 28=
SPZO Feb2020-262200Z 32007KT 270V010 9999 SCT046 SCT100 17/03 Q1028 NOSIG RMK TX19.4 TCU QUAD W BIRD HAZARD RWY 28 PP000=
SPZO Feb2020-262230Z 30010KT 9999 SCT046 SCT100 17/05 Q1028 NOSIG RMK TCU QUAD S BIRD HAZARD RWY 28=
SPZO Feb2020-262300Z 29012KT 9999 SCT046 SCT100 16/06 Q1029 NOSIG RMK TCU QUAD S BIRD HAZARD RWY 28 PP000=
SPZO Feb2020-262330Z 28010KT 9999 SCT046 SCT100 15/07 Q1030 NOSIG RMK BIRD HAZARD RWY 28=
SPZO Feb2020-270000Z 28010KT 9999 SCT046 SCT100 14/07 Q1030 NOSIG RMK BIRD HAZARD RWY 28 PP000=
SPZO Feb2020-270030Z 28012KT 9999 SCT046 SCT100 14/07 Q1031 NOSIG RMK BIRD HAZARD RWY 28=
SPZO Feb2020-270100Z 28012KT 9999 SCT046 SCT100 13/07 Q1031 NOSIG RMK BIRD HAZARD RWY 28 PP000=
SPZO Feb2020-270130Z 27008KT 9999 SCT046 SCT080 13/06 Q1032 NOSIG RMK BIRD HAZARD RWY 28=
SPZO Feb2020-270200Z 28006KT 9999 SCT050 12/06 Q1032 NOSIG RMK BIRD HAZARD RWY 28 PP000=
SPZO Feb2020-270230Z VRB02KT 9999 SCT046 SCT080 11/06 Q1033 NOSIG RMK BIRD HAZARD RWY 28=
SPZO Feb2020-270300Z 00000KT 9999 SCT046 SCT080 11/07 Q1033 NOSIG RMK BIRD HAZARD RWY 28 PP000=
SPZO Feb2020-270330Z VRB02KT 9999 SCT046 SCT080 11/06 Q1033 NOSIG RMK BIRD HAZARD RWY 28=
SPZO Feb2020-270400Z 10002KT 9999 SCT046 BKN080 12/07 Q1034 NOSIG RMK BIRD HAZARD RWY 28 PP000=
SPZO Feb2020-270500Z 00000KT 9999 -DZ SCT040 OVC080 12/07 Q1033 RMK BIRD HAZARD RWY 28 PPTRZ=
SPZO Feb2020-270600Z 08005KT 9999 SCT040 OVC080 11/08 Q1033 RMK BIRD HAZARD RWY 28 PP000=
SPZO Feb2020-270700Z 12002KT 9999 -RA SCT040 OVC080 11/08 Q1032 RMK BIRD HAZARD RWY 28 PP014=
SPZO Feb2020-270800Z 10003KT 8000 -RA FEW020 SCT036 OVC080 10/08 Q1032 RMK CLNG BLW 1200M BIRD HAZARD RWY 28 PP006=
SPZO Feb2020-270900Z 12005KT 6000 RA FEW015 SCT036 OVC080 10/08 Q1032 RMK CLNG BLW 1200M BIRD HAZARD RWY 28 PP018=
SPZO Feb2020-271000Z 15001KT 8000 DZ FEW015 SCT036 OVC080 10/08 Q1032 RMK CLNG BLW 1200M BIRD HAZARD RWY 28 PP008=
SPZO Feb2020-271030Z 29003KT 9000 FEW020 SCT036 OVC080 10/08 Q1032 NOSIG RMK BIRD HAZARD RWY 28=
SPZO Feb2020-271100Z 27003KT 9000 -DZ VCSH FEW020 SCT036 OVC080 10/08 Q1033 NOSIG RMK CLNG BLW 1200M BIRD HAZARD RWY 28 PPTRZ=
SPZO Feb2020-271130Z 28004KT 7000 -DZ FEW015 SCT036 OVC070 10/08 Q1033 NOSIG RMK CLNG BLW 1200M BIRD HAZARD RWY 28=
SPZO Feb2020-271200Z 27003KT 7000 -DZ FEW015 SCT036 OVC070 10/08 1033 NOSIG RMK TN09.8 CLNG BLW 1200M BIRD HAZARD RWY 28 PP006=
SPZO Feb2020-271230Z 00000KT 9000 FEW020 SCT036 OVC080 11/08 Q1034 NOSIG RMK CLNG BLW 1200M BR BIRD HAZARD RWY 28=
SPZO Feb2020-271300Z 00000KT 9999 FEW025 SCT036 OVC080 12/08 Q1034 REDZ NOSIG RMK CLNG BLW 1200M BIRD HAZARD RWY 28 PPTRZ=
SPZO Feb2020-271330Z 00000KT 9999 FEW030 SCT036 OVC080 14/08 Q1034 NOSIG RMK BIRD HAZARD RWY 28=
SPZO Feb2020-271400Z 00000KT 9999 FEW030 SCT036 OVC080 15/09 Q1034 NOSIG RMK BIRD HAZARD RWY 28 PP000=
SPZO Feb2020-271430Z 29003KT 270V360 9999 SCT040 BKN080 16/07 Q1034 NOSIG RMK BIRD HAZARD RWY 28=
SPZO Feb2020-271500Z 28002KT 9999 SCT040 BKN080 17/06 Q1033 NOSIG RMK BIRD HAZARD RWY 28 PP000=
SPZO Feb2020-271530Z 00000KT 9999 SCT040 BKN080 16/07 Q1033 NOSIG RMK BIRD HAZARD RWY 28=
SPZO Feb2020-271600Z 05002KT 9999 SCT040 BKN080 16/07 Q1033 NOSIG RMK BIRD HAZARD RWY 28 PP000=
SPZO Feb2020-271630Z 10004KT 030V150 9999 SCT040 BKN080 18/08 Q1032 NOSIG RMK BIRD HAZARD RWY 28=
SPZO Feb2020-271700Z 12005KT 060V160 9999 SCT040 BKN080 19/09 Q1032 NOSIG RMK BIRD HAZARD RWY 28 PP000=
SPZO Feb2020-271730Z 09008KT 9999 SCT050 BKN100 19/08 Q1031 NOSIG RMK BIRD HAZARD RWY 28=
SPZO Feb2020-271800Z 01007KT 9999 SCT050 BKN100 18/08 Q1031 NOSIG RMK BIRD HAZARD RWY 28 PP000=
SPZO Feb2020-271830Z 02007KT 9999 FEW040TCU SCT050 BKN100 16/07 Q1030 NOSIG RMK BIRD HAZARD RWY 28=
SPZO Feb2020-271900Z 01008KT 9999 FEW040TCU SCT050 BKN100 19/07 Q1029 NOSIG RMK BIRD HAZARD RWY 28 PP000=
SPZO Feb2020-271930Z 30007KT 9999 SCT050 BKN100 19/07 Q1029 NOSIG RMK BIRD HAZARD RWY 28=
SPZO Feb2020-272000Z 29018KT 9999 SCT050 BKN100 15/07 Q1029 NOSIG RMK BIRD HAZARD RWY 28 PP000=
SPZO Feb2020-272030Z 29010KT 9999 SCT050 BKN100 15/07 Q1029 NOSIG RMK BIRD HAZARD RWY 28=
SPZO Feb2020-272100Z 28008KT 9999 FEW040TCU SCT050 BKN100 16/07 Q1029 NOSIG RMK BIRD HAZARD RWY 28 PP000=
SPZO Feb2020-272130Z 36003KT 9999 FEW040TCU SCT050 BKN100 16/06 Q1029 NOSIG RMK BIRD HAZARD RWY 28=
SPZO Feb2020-272200Z 29002KT 9999 SCT050 BKN100 16/06 Q1029 NOSIG RMK TX19.8 BIRD HAZARD RWY 28 PP000=
SPZO Feb2020-272230Z 10005KT 9999 VCSH SCT050 BKN100 15/07 Q1029 NOSIG RMK BIRD HAZARD RWY 28=
SPZO Feb2020-272300Z 28005KT 9999 SCT050 BKN100 14/08 Q1030 NOSIG RMK BIRD HAZARD RWY 28 PP000=
SPZO Feb2020-272330Z 09003KT 9999 SCT050 BKN100 14/07 Q1030 NOSIG RMK BIRD HAZARD RWY 28=
SPZO Feb2020-280000Z 11003KT 9999 SCT050 BKN100 14/07 Q1031 NOSIG RMK BIRD HAZARD RWY 28 PP000=
SPZO Feb2020-280030Z 11004KT 9999 SCT050 BKN100 14/07 Q1031 NOSIG RMK BIRD HAZARD RWY 28=
SPZO Feb2020-280100Z 12005KT 9999 SCT050 BKN100 14/08 Q1031 NOSIG RMK BIRD HAZARD RWY 28 PP000=
SPZO Feb2020-280130Z 09005KT 9999 SCT050 BKN100 13/08 Q1032 NOSIG RMK BIRD HAZARD RWY 28=
SPZO Feb2020-280200Z 11004KT 9999 SCT050 BKN100 13/07 Q1033 NOSIG RMK BIRD HAZARD RWY 28 PP000=
SPZO Feb2020-280230Z 10004KT 9999 SCT040 BKN100 13/07 Q1033 NOSIG RMK BIRD HAZARD RWY 28=
SPZO Feb2020-280300Z 11005KT 9999 SCT040 BKN100 13/07 Q1033 NOSIG RMK BIRD HAZARD RWY 28 PP000=
SPZO Feb2020-280400Z 10003KT 9999 SCT040 BKN100 17/07 Q1034 RMK BIRD HAZARD RWY 28 PP000=
SPZO Feb2020-280500Z 10003KT 9999 SCT040 BKN100 13/07 Q1033 RMK BIRD HAZARD RWY 28 PP000=
SPZO Feb2020-280600Z 13002KT 9999 SCT040 BKN100 13/07 Q1033 RMK BIRD HAZARD RWY 28 PP000=
SPZO Feb2020-280700Z 20002KT 9999 RA SCT040 BKN100 12/07 Q1033 RMK BIRD HAZARD RWY 28 PPTRZ=
SPZO Feb2020-280800Z 29004KT 9999 SCT040 BKN100 11/07 Q1031 RMK BIRD HAZARD RWY 28 PP000=
SPZO Feb2020-280900Z 34006KT 9999 SCT040 BKN100 11/07 Q1032 RMK BIRD HAZARD RWY 28 PP000=
SPZO Feb2020-281000Z 29005KT 9999 -DZ FEW030 SCT040 BKN100 10/08 Q1033 NOSIG RMK BIRD HAZARD RWY 28 PPTRZ=
SPZO Feb2020-281030Z 26003KT 9999 FEW030 SCT036 BKN100 10/07 Q1033 NOSIG RMK BIRD HAZARD RWY 28=
SPZO Feb2020-281100Z 30004KT 9999 FEW030 SCT040 BKN100 11/07 Q1033 NOSIG RMK BIRD HAZARD RWY 28 PP000=
SPZO Feb2020-281130Z 28003KT 9999 SCT036 BKN100 10/07 Q1033 NOSIG RMK BIRD HAZARD RWY 28=
SPZO Feb2020-281200Z 29002KT 9999 SCT036 BKN100 11/08 Q1034 NOSIG RMK TN9.9 BIRD HAZARD RWY 28 PP000=
SPZO Feb2020-281230Z 36001KT 9999 SCT036 BKN100 12/07 Q1034 NOSIG RMK BIRD HAZARD RWY 28=
SPZO Feb2020-281300Z 08001KT 9999 SCT036 BKN100 13/07 Q1034 NOSIG RMK BIRD HAZARD RWY 28 PP000=
SPZO Feb2020-281330Z 08001KT 9999 SCT036 BKN100 13/07 Q1035 NOSIG RMK BIRD HAZARD RWY 28=
SPZO Feb2020-281400Z 28003KT 9999 SCT040 BKN100 14/07 Q1035 NOSIG RMK BIRD HAZARD RWY 28 PP000=
SPZO Feb2020-281430Z 07001KT 9999 SCT040 BKN100 15/06 Q1034 NOSIG RMK BIRD HAZARD RWY 28=
SPZO Feb2020-281500Z 26002KT 9999 SCT040 BKN100 17/06 Q1034 NOSIG RMK BIRD HAZARD RWY 28 PP000=
SPZO Feb2020-281530Z 15003KT 9999 SCT046 SCT100 18/07 Q1034 NOSIG RMK BIRD HAZARD RWY 28=
SPZO Feb2020-281600Z VRB01KT 9999 SCT046 SCT100 18/05 Q1033 NOSIG RMK BIRD HAZARD RWY 28 PP000=
SPZO Feb2020-281630Z 35005KT 9999 SCT046 SCT100 18/08 Q1033 NOSIG RMK BIRD HAZARD RWY 28=
SPZO Feb2020-281700Z 08005KT 9999 SCT046 SCT100 19/08 Q1032 NOSIG RMK BIRD HAZARD RWY 28 PP000=
SPZO Feb2020-281730Z 02005KT 320V060 9999 VCSH SCT046 BKN080 19/07 Q1032 NOSIG RMK BIRD HAZARD RWY 28=
SPZO Feb2020-281800Z 11007KT 9999 060V160 VCSH SCT046 BKN080 18/07 Q1032 NOSIG RMK BIRD HAZARD RWY 28 PP000=
SPZO Feb2020-281830Z 36007KT 9999 VCSH SCT046 BKN080 18/07 Q1031 NOSIG RMK BIRD HAZARD RWY 28=
SPZO Feb2020-281900Z 01008KT 9999 SCT046 SCT100 19/06 Q1030 NOSIG RMK BIRD HAZARD RWY 28 PP000=
SPZO Feb2020-281930Z 04008KT 9999 SCT046 SCT080 19/07 Q1030 NOSIG RMK BIRD HAZARD RWY 28=
SPZO Feb2020-282000Z 10007KT 9999 SCT046 SCT100 18/07 Q1029 NOSIG RMK BIRD HAZARD RWY 28 PP000=
SPZO Feb2020-282030Z 30012KT 9999 VCSH FEW046TCU BKN080 17/09 Q1029 NOSIG RMK BIRD HAZARD RWY 28=
SPZO Feb2020-282100Z 29012KT 9999 -DZ VCSH FEW046TCU BKN080 16/08 Q1029 NOSIG RMK BIRD HAZARD RWY 28 PPTRZ=
SPZO Feb2020-282130Z 29008KT 9999 FEW046TCU BKN080 16/08 Q1029 NOSIG RMK BIRD HAZARD RWY 28=
SPZO Feb2020-282200Z 30008KT 9999 VCSH FEW046 BKN080 16/07 Q1030 NOSIG RMK TX20.8 BIRD HAZARD RWY 28 PP000=
SPZO Feb2020-282230Z 33007KT 9999 FEW050 SCT100 16/07 Q1030 NOSIG RMK BIRD HAZARD RWY 28=
SPZO Feb2020-282300Z 35007KT 9999 FEW050 SCT100 15/07 Q1030 NOSIG RMK BIRD HAZARD RWY 28 PP000=
SPZO Feb2020-282330Z 31006KT 270V010 9999 FEW050 SCT100 14/07 Q1030 NOSIG RMK BIRD HAZARD RWY 28=
SPZO Feb2020-290000Z 35005KT 280V020 9999 FEW050 SCT100 14/07 Q1031 NOSIG RMK BIRD HAZARD RWY 28 PP000=
SPZO Feb2020-290030Z 20002KT 9999 FEW050 SCT100 14/07 Q1032 NOSIG RMK BIRD HAZARD RWY 28=
SPZO Feb2020-290100Z 09002KT 9999 FEW050 SCT080 13/08 Q1032 NOSIG RMK BIRD HAZARD RWY 28 PP000=
SPZO Feb2020-290130Z 10004KT 050V120 9999 FEW050 SCT080 13/08 Q1033 NOSIG RMK BIRD HAZARD RWY 28=
SPZO Feb2020-290200Z 09002KT 9999 FEW050 SCT080 13/08 Q1033 NOSIG RMK BIRD HAZARD RWY 28 PP000=
SPZO Feb2020-290230Z 11003KT 9999 SCT046 SCT080 13/08 Q1034 NOSIG RMK BIRD HAZARD RWY 28=
SPZO Feb2020-290300Z 09003KT 9999 SCT046 SCT080 12/08 Q1034 RMK PP000=
SPZO Feb2020-290400Z 10002KT 9999 SCT046 SCT080 13/08 Q1034 RMK PP000=
SPZO Feb2020-290500Z 10004KT 9999 SCT046 SCT080 13/09 Q1034 RMK PP000=
SPZO Feb2020-290600Z 00000KT 9000 -RA SCT043 BKN080 13/08 Q1034 RMK PPTRZ=
SPZO Feb2020-290700Z 11004KT 9000 -DZ SCT043 BKN080 11/08 Q1034 RMK PP008=
SPZO Feb2020-290800Z 15002KT 9000 -DZ SCT043 BKN080 11/08 Q1033 RMK PP010=
SPZO Feb2020-290900Z 00000KT 9000 -DZ FEW030 SCT040 BKN080 10/08 Q1033 RMK BIRD HAZARD RWY 28 PP004=
SPZO Feb2020-291000Z 00000KT 9000 -DZ FEW030 SCT040 BKN080 10/08 Q1034 NOSIG RMK BIRD HAZARD RWY 28 PP002=
SPZO Feb2020-291030Z 12003KT 9999 SCT040 BKN080 10/08 Q1034 NOSIG RMK BIRD HAZARD RWY 28=
SPZO Feb2020-291100Z 09002KT 9999 SCT040 BKN080 09/07 Q1034 REDZ NOSIG RMK BIRD HAZARD RWY 28 PPTRZ=
SPZO Feb2020-291130Z 30003KT 9999 SCT040 BKN080 10/08 Q1034 NOSIG RMK BIRD HAZARD RWY 28=
SPZO Feb2020-291200Z 00000KT 9999 SCT040 BKN080 11/08 Q1035 NOSIG RMK TN9.3 BIRD HAZARD RWY 28 PP000=
SPZO Feb2020-291230Z 00000KT 9999 SCT040 BKN080 12/08 Q1036 NOSIG RMK BIRD HAZARD RWY 28=
SPZO Feb2020-291300Z 00000KT 9999 FEW030 SCT040 BKN080 13/08 Q1036 NOSIG RMK BIRD HAZARD RWY 28 PP000=
SPZO Feb2020-291330Z 00000KT 9999 FEW030 SCT040 BKN080 14/08 Q1036 NOSIG RMK BIRD HAZARD RWY 28=
SPZO Feb2020-291400Z 11003KT 9999 FEW030 SCT040 BKN080 14/09 Q1036 NOSIG RMK BIRD HAZARD RWY 28 PP000=
SPZO Feb2020-291430Z 00000KT 9999 SCT040 BKN080 15/08 Q1036 NOSIG RMK BIRD HAZARD RWY 28=
SPZO Feb2020-291500Z VRB04KT 9999 SCT040 BKN080 15/08 Q1036 NOSIG RMK BIRD HAZARD RWY 28 PP000=
SPZO Feb2020-291530Z 09004KT 9999 VCSH SCT040 BKN080 16/07 Q1035 NOSIG RMK BIRD HAZARD RWY 28=
SPZO Feb2020-291600Z VRB03KT 9999 SCT040 BKN080 16/06 Q1035 NOSIG RMK BIRD HAZARD RWY 28 PP000=
SPZO Feb2020-291630Z 35005KT 9999 SCT043 SCT100 19/08 Q1034 NOSIG RMK BIRD HAZARD RWY 28=
SPZO Feb2020-291700Z 36006KT 9999 SCT040 SCT100 19/06 Q1034 NOSIG RMK BIRD HAZARD RWY 28 PP000=
SPZO Feb2020-291730Z 33005KT 9999 SCT046 SCT100 19/08 Q1033 NOSIG RMK BIRD HAZARD RWY 28=
SPZO Feb2020-291800Z 11006KT 9999 SCT040 SCT080 20/08 Q1032 NOSIG RMK BIRD HAZARD RWY 28 PP000=
SPZO Feb2020-291830Z 36008KT 9999 VCSH FEW046 SCT100 20/07 Q1031 NOSIG RMK BIRD HAZARD RWY 28=
SPZO Feb2020-291900Z 30011KT 270V010 9999 FEW040 SCT080 19/09 Q1030 NOSIG RMK TCU QUAD SE BIRD HAZARD RWY 28 PP000=
SPZO Feb2020-291930Z 36011KT 9999 SCT050 20/06 Q1030 NOSIG RMK BIRD HAZARD RWY 28=
SPZO Feb2020-292000Z 01011KT 9999 SCT050 21/06 Q1029 NOSIG RMK BIRD HAZARD RWY 28 PP000=
SPZO Feb2020-292030Z 01008KT 9999 SCT050 20/03 Q1029 NOSIG RMK BIRD HAZARD RWY 28=
SPZO Feb2020-292100Z 02007KT 9999 SCT050 21/05 Q1029 NOSIG RMK BIRD HAZARD RWY 28 PP000=
SPZO Feb2020-292130Z 02009KT 9999 SCT050 20/05 Q1029 NOSIG RMK BIRD HAZARD RWY 28=
SPZO Feb2020-292200Z 03009KT 9999 FEW050 SCT080 18/05 Q1029 NOSIG RMK TX20.9 BIRD HAZARD RWY 28 PP000=
SPZO Feb2020-292230Z 03007KT 9999 VCSH FEW046 SCT080 17/06 Q1029 NOSIG RMK BIRD HAZARD RWY 28=
SPZO Feb2020-292300Z 02008KT 9999 SCT046 SCT080 16/06 Q1030 NOSIG RMK BIRD HAZARD RWY 28 PP000=
SPZO Feb2020-292330Z 28010KT 9999 SCT050 SCT080 15/07 Q1031 NOSIG RMK BIRD HAZARD RWY 28=
SPZO Feb2020-010000Z 36008KT 9999 SCT050 SCT100 15/07 Q1031 NOSIG RMK BIRD HAZARD RWY 28 PP000=
SPZO Mar2020-010000Z 36008KT 9999 SCT050 SCT100 15/07 Q1031 NOSIG RMK BIRD HAZARD RWY 28 PP000=
SPZO Mar2020-010030Z 36009KT 9999 SCT050 SCT100 15/06 Q1032 NOSIG RMK BIRD HAZARD RWY 28=
SPZO Mar2020-010100Z 08005KT 9999 SCT050 SCT100 15/07 Q1033 NOSIG RMK BIRD HAZARD RWY 28 PP000=
SPZO Mar2020-010130Z 05004KT 9999 SCT050 SCT100 15/07 Q1034 NOSIG RMK BIRD HAZARD RWY 28=
SPZO Mar2020-010200Z 04001KT 9999 SCT040 SCT100 14/07 Q1034 NOSIG RMK BIRD HAZARD RWY 28 PP000=
SPZO Mar2020-010230Z 14004KT 9999 SCT040 BKN100 14/07 Q1035 NOSIG RMK BIRD HAZARD RWY 28=
SPZO Mar2020-010300Z 00000KT 9999 SCT040 BKN100 13/07 Q1035 NOSIG RMK BIRD HAZARD RWY 28 PP000=
SPZO Mar2020-010400Z 28006KT 9999 -DZ SCT040 BKN100 11/08 Q1035 RMK BIRD HAZARD RWY 28 PP012=
SPZO Mar2020-010500Z 29006KT 9999 SCT040 BKN100 11/08 Q1035 RMK BIRD HAZARD RWY 28 PP000=
SPZO Mar2020-010600Z 35001KT 9999 SCT040 BKN100 12/08 Q1035 RMK BIRD HAZARD RWY 28 PP000=
SPZO Mar2020-010700Z 20003KT 9999 SCT040 BKN100 12/06 Q1034 RMK BIRD HAZARD RWY 28 PP000=
SPZO Mar2020-010800Z 26004KT 9999 SCT040 BKN100 10/07 Q1034 RMK BIRD HAZARD RWY 28 PP000=
SPZO Mar2020-010900Z 34005KT 9999 SCT040 BKN100 10/07 Q1034 RMK BIRD HAZARD RWY 28 PP000=
SPZO Mar2020-011000Z 12003KT 9999 SCT040 BKN100 10/07 Q1034 NOSIG RMK BIRD HAZARD RWY 28 PP000=
SPZO Mar2020-011030Z 11002KT 9999 SCT036 BKN080 10/07 Q1034 NOSIG RMK BIRD HAZARD RWY 28=
SPZO Mar2020-011100Z 11002KT 9999 SCT036 BKN080 10/07 Q1035 NOSIG RMK BIRD HAZARD RWY 28 PP000=
SPZO Mar2020-011130Z 10002KT 9999 SCT036 BKN080 10/07 Q1035 NOSIG RMK BIRD HAZARD RWY 28=
SPZO Mar2020-011200Z 09003KT 9999 SCT036 BKN080 11/07 Q1035 NOSIG RMK TN9.9 BIRD HAZARD RWY 28 PP004=
SPZO Mar2020-011230Z 08003KT 9999 SCT033 BKN080 12/07 Q1036 NOSIG RMK BIRD HAZARD RWY 28=
SPZO Mar2020-011300Z 00000KT 9999 SCT033 BKN080 13/07 Q1036 NOSIG RMK BIRD HAZARD RWY 28 PP000=
SPZO Mar2020-011330Z 00000KT 9999 SCT040 BKN100 14/07 Q1036 NOSIG RMK BIRD HAZARD RWY 28=
SPZO Mar2020-011400Z 12004KT 9999 SCT040 BKN100 14/07 Q1036 NOSIG RMK BIRD HAZARD RWY 28 PP000=
SPZO Mar2020-011430Z 10005KT 9999 SCT040 BKN080 15/07 Q1036 NOSIG RMK BIRD HAZARD RWY 28=
SPZO Mar2020-011500Z 08004KT 9999 VCSH SCT040 BKN080 15/07 Q1036 NOSIG RMK BIRD HAZARD RWY 28 PP000=
SPZO Mar2020-011530Z 12002KT 9999 SCT040 BKN080 17/07 Q1035 NOSIG RMK BIRD HAZARD RWY 28=
SPZO Mar2020-011600Z 08008KT 9999 SCT040 BKN080 16/08 Q1035 NOSIG RMK BIRD HAZARD RWY 28 PP000=
SPZO Mar2020-011630Z 09007KT 9999 SCT040 BKN080 17/07 Q1034 NOSIG RMK BIRD HAZARD RWY 28=
SPZO Mar2020-011700Z 11006KT 9999 SCT040 BKN080 17/07 Q1034 NOSIG RMK BIRD HAZARD RWY 28 PP000=
SPZO Mar2020-011730Z 10003KT 9999 SCT046 BKN080 18/07 Q1033 NOSIG RMK BIRD HAZARD RWY 28=
SPZO Mar2020-011800Z 29002KT 9999 SCT050 BKN100 19/07 Q1033 NOSIG RMK BIRD HAZARD RWY 28 PP000=
SPZO Mar2020-011830Z 20002KT 9999 SCT050 BKN100 19/07 Q1032 NOSIG RMK BIRD HAZARD RWY 28=
SPZO Mar2020-011900Z 25003KT 9999 SCT050 21/06 Q1031 NOSIG RMK BIRD HAZARD RWY 28 PP000=
SPZO Mar2020-011930Z 28003KT 9999 SCT050 22/09 Q1030 NOSIG RMK BIRD HAZARD RWY 28=
SPZO Mar2020-012000Z 29012KT 9999 SCT050 20/08 Q1030 NOSIG RMK BIRD HAZARD RWY 28 PP000=
SPZO Mar2020-012030Z 29017KT 9999 SCT050 19/07 Q1029 NOSIG RMK BIRD HAZARD RWY 28=
SPZO Mar2020-012100Z 27014KT 9999 SCT050 20/06 Q1029 NOSIG RMK BIRD HAZARD RWY 28 PP000=
SPZO Mar2020-012130Z 28010KT 9999 SCT050 20/05 Q1029 NOSIG RMK BIRD HAZARD RWY 28=
SPZO Mar2020-012200Z 06005KT 9999 SCT050 20/07 Q1029 NOSIG RMK TX21.9 BIRD HAZARD RWY 28 PP000=
SPZO Mar2020-012230Z 16004KT 9999 FEW050 18/06 Q1029 NOSIG RMK BIRD HAZARD RWY 28=
SPZO Mar2020-012300Z 10003KT 9999 SCT050 17/08 Q1030 NOSIG RMK BIRD HAZARD RWY 28 PP000=
SPZO Mar2020-012330Z 29005KT 9999 SCT050 16/07 Q1031 NOSIG RMK BIRD HAZARD RWY 28=
SPZO Mar2020-020000Z 29011KT 9999 SCT050 SCT080 15/08 Q1031 NOSIG RMK BIRD HAZARD RWY 28 PP000=
SPZO Mar2020-020030Z 02003KT 9999 SCT050 BKN080 15/07 Q1032 NOSIG RMK BIRD HAZARD RWY 28=
SPZO Mar2020-020100Z 30008KT 9999 SCT050 BKN080 15/06 Q1032 NOSIG RMK BIRD HAZARD RWY 28 PP000=
SPZO Mar2020-020130Z 30013KT 9999 SCT050 BKN080 14/07 Q1033 NOSIG RMK BIRD HAZARD RWY 28=
SPZO Mar2020-020200Z 29010KT 9999 SCT046 BKN080 14/07 Q1033 NOSIG RMK BIRD HAZARD RWY 28 PP000=
SPZO Mar2020-020230Z 28010KT 9999 SCT040 BKN080 14/07 Q1034 NOSIG RMK BIRD HAZARD RWY 28=
SPZO Mar2020-020300Z 30007KT 9999 SCT046 BKN080 13/06 Q1034 NOSIG RMK BIRD HAZARD RWY 28 PP000=
SPZO Mar2020-020400Z 10002KT 9999 SCT046 BKN080 13/06 Q1034 RMK BIRD HAZARD RWY 28 PP000=
SPZO Mar2020-020500Z 10005KT 9999 SCT046 BKN080 12/06 Q1034 RMK BIRD HAZARD RWY 28 PP000=
SPZO Mar2020-020600Z 26002KT 9999 SCT040 BKN080 12/07 Q1033 RMK BIRD HAZARD RWY 28 PP000=
SPZO Mar2020-020700Z 11004KT 9999 SCT040 BKN080 11/07 Q1033 RMK BIRD HAZARD RWY 28 PP000=
SPZO Mar2020-020800Z 09003KT 9999 SCT040 BKN080 11/07 Q1033 RMK BIRD HAZARD RWY 28 PP000=
SPZO Mar2020-020900Z 10003KT 9999 SCT036 BKN080 11/06 Q1033 RMK BIRD HAZARD RWY 28 PP000=
SPZO Mar2020-021000Z 11006KT 9999 SCT030 BKN080 11/06 Q1033 NOSIG RMK BIRD HAZARD RWY 28 PP000=
SPZO Mar2020-021030Z 12003KT 9999 SCT036 BKN080 11/06 Q1033 NOSIG RMK BIRD HAZARD RWY 28=
SPZO Mar2020-021100Z 09003KT 9999 SCT036 BKN080 11/06 Q1034 NOSIG RMK BIRD HAZARD RWY 28 PP000=
SPZO Mar2020-021130Z 12002KT 9999 SCT046 BKN080 11/06 Q1034 NOSIG RMK BIRD HAZARD RWY 28=
SPZO Mar2020-021200Z 13003KT 9999 SCT036 BKN080 11/06 Q1034 NOSIG RMK TN10.4 BIRD HAZARD RWY 28 PP000=
SPZO Mar2020-021230Z 10004KT 9999 SCT036 BKN080 12/06 Q1034 NOSIG RMK BIRD HAZARD RWY 28=
SPZO Mar2020-021300Z 13002KT 9999 SCT040 BKN080 12/06 Q1035 NOSIG RMK BIRD HAZARD RWY 28 PP000=
SPZO Mar2020-021330Z 04001KT 9999 SCT040 BKN080 14/06 Q1035 NOSIG RMK BIRD HAZARD RWY 28=
SPZO Mar2020-021400Z 10004KT 9999 SCT046 16/07 Q1035 NOSIG RMK BIRD HAZARD RWY 28 PP000=
SPZO Mar2020-021430Z 29002KT 9999 SCT046 17/06 Q1034 NOSIG RMK BIRD HAZARD RWY 28=
SPZO Mar2020-021500Z 30004KT 9999 FEW046 18/06 Q1034 NOSIG RMK BIRD HAZARD RWY 28 PP000=
SPZO Mar2020-021530Z 03004KT 9999 FEW050 18/04 Q1034 NOSIG RMK BIRD HAZARD RWY 28=
SPZO Mar2020-021600Z VRB01KT 9999 SCT050 19/03 Q1033 NOSIG RMK BIRD HAZARD RWY 28 PP000=
SPZO Mar2020-021630Z 09003KT 9999 SCT050 19/02 Q1033 NOSIG RMK BIRD HAZARD RWY 28=
SPZO Mar2020-021700Z 02003KT 9999 SCT050 20/03 Q1032 NOSIG RMK BIRD HAZARD RWY 28 PP000=
SPZO Mar2020-021730Z 26005KT 9999 FEW046 SCT080 21/04 Q1031 NOSIG RMK BIRD HAZARD RWY 28=
SPZO Mar2020-021800Z 36003KT 9999 FEW046 SCT080 21/06 Q1031 NOSIG RMK BIRD HAZARD RWY 28 PP000=
SPZO Mar2020-021830Z 11005KT 9999 FEW046 SCT100 21/05 Q1030 NOSIG RMK BIRD HAZARD RWY 28=
SPZO Mar2020-021900Z 32003KT 9999 FEW046 SCT080 22/03 Q1029 NOSIG RMK BIRD HAZARD RWY 28 PP000=
SPZO Mar2020-021930Z 30003G13KT 9999 FEW046 SCT080 23/02 Q1028 NOSIG RMK BIRD HAZARD RWY 28=
SPZO Mar2020-022000Z 07004KT 350V070 9999 SCT046 SCT080 20/04 Q1028 NOSIG RMK BIRD HAZARD RWY 28 PP000=
SPZO Mar2020-022030Z 01005KT 9999 SCT046 SCT080 21/04 Q1027 NOSIG RMK BIRD HAZARD RWY 28=
SPZO Mar2020-022100Z 30011KT 270V360 9999 FEW050 SCT080 22/05 Q1027 NOSIG RMK BIRD HAZARD RWY 28 PP000=
SPZO Mar2020-022130Z 02010KT 350V080 9999 FEW050 SCT080 20/05 Q1027 NOSIG RMK BIRD HAZARD RWY 28=
SPZO Mar2020-022200Z 01008KT 330V090 9999 FEW050 SCT080 20/05 Q1027 NOSIG RMK TX22.9 TCU QUAD W BIRD HAZARD RWY 28 PP000=
SPZO Mar2020-022230Z 01007KT 9999 FEW050 SCT100 17/05 Q1028 NOSIG RMK TCU QUAD SW BIRD HAZARD RWY 28=
SPZO Mar2020-022300Z 36007KT 300V040 9999 FEW050 SCT100 17/06 Q1028 NOSIG RMK BIRD HAZARD RWY 28 PP000=
SPZO Mar2020-022330Z VRB03KT 9999 SCT046 BKN080 16/06 Q1029 NOSIG RMK TCU QUAD S BIRD HAZARD RWY 28=
SPZO Mar2020-030000Z 11004KT 020V150 9999 SCT043 BKN080 16/06 Q1030 NOSIG=
SPZO Mar2020-030030Z 10007KT 9999 SCT043 BKN080 15/06 Q1031 NOSIG RMK BIRD HAZARD RWY 28=
SPZO Mar2020-030100Z 11010KT 9999 SCT043 SCT080 14/06 Q1031 NOSIG RMK BIRD HAZARD RWY 28 PP000=
SPZO Mar2020-030130Z 11014KT 9999 SCT043 SCT080 14/06 Q1032 NOSIG RMK BIRD HAZARD RWY 28=
SPZO Mar2020-030200Z 10009KT 9999 SCT043 SCT080 13/06 Q1032 NOSIG RMK BIRD HAZARD RWY 28 PP000=
SPZO Mar2020-030230Z 10011KT 9999 SCT043 BKN080 12/07 Q1033 NOSIG RMK BIRD HAZARD RWY 28=
SPZO Mar2020-030300Z 10008KT 9999 SCT043 BKN080 12/07 Q1034 NOSIG RMK BIRD HAZARD RWY 28 PP000=
SPZO Mar2020-030400Z VRB02KT 9000 RA SCT040 BKN070 11/07 Q1035 RMK TS QUAD N PP088=
SPZO Mar2020-030500Z 27005KT 9000 -RA SCT040 BKN070 11/08 Q1034 RMK PP008=
SPZO Mar2020-030600Z VRB02KT 9999 -DZ SCT040 BKN070 11/07 Q1034 RMK PP004=
SPZO Mar2020-030700Z VRB01KT 9999 SCT040 BKN080 11/07 Q1033 RMK PPTRZ=
SPZO Mar2020-030800Z 11006KT 9999 SCT036 BKN080 10/08 Q1033 RMK PP000=
SPZO Mar2020-030900Z 11008KT 9999 SCT036 BKN080 10/08 Q1033 RMK BR PP000=
SPZO Mar2020-031000Z 10005KT 9999 SCT036 BKN080 10/07 Q1033 NOSIG RMK BR BIRD HAZARD RWY 28 PP000=
SPZO Mar2020-031030Z 00000KT 9999 FEW020 SCT036 BKN080 10/07 Q1033 NOSIG RMK BR BIRD HAZARD RWY 28=
SPZO Mar2020-031100Z 00000KT 9999 SCT040 SCT080 09/07 Q1033 NOSIG RMK BR BIRD HAZARD RWY 28 PP000=
SPZO Mar2020-031130Z 00000KT 9999 FEW040 SCT080 10/06 Q1033 NOSIG RMK BIRD HAZARD RWY 28=
SPZO Mar2020-031200Z 27002KT 9999 FEW040 SCT080 10/07 Q1033 NOSIG RMK TN09.3 BIRD HAZARD RWY 28 PP000=
SPZO Mar2020-031230Z 10004KT 9999 FEW040 SCT100 11/08 Q1034 NOSIG RMK BIRD HAZARD RWY 28=
SPZO Mar2020-031300Z 10002KT 9999 SCT043 13/07 Q1034 NOSIG RMK BIRD HAZARD RWY 28 PP000=
SPZO Mar2020-031330Z 26002KT 9999 SCT043 14/06 Q1034 NOSIG RMK BIRD HAZARD RWY 28=
SPZO Mar2020-031400Z 08003KT 9999 SCT043 15/05 Q1034 NOSIG RMK BIRD HAZARD RWY 28 PP000=
SPZO Mar2020-031430Z 33003KT 9999 SCT043 16/06 Q1033 NOSIG RMK BIRD HAZARD RWY 28=
SPZO Mar2020-031500Z 13004KT 090V180 9999 FEW043 SCT100 17/06 Q1033 NOSIG RMK BIRD HAZARD RWY 28 PP000=
SPZO Mar2020-031530Z 10002KT 9999 FEW046 SCT100 18/07 Q1033 NOSIG RMK BIRD HAZARD RWY 28=
SPZO Mar2020-031600Z 25002KT 9999 FEW046 SCT100 19/08 Q1033 NOSIG RMK BIRD HAZARD RWY 28 PP000=
SPZO Mar2020-031630Z 35003KT 270V040 9999 SCT046 SCT100 19/07 Q1032 NOSIG RMK BIRD HAZARD RWY 28=
SPZO Mar2020-031700Z 30004KT 250V340 9999 SCT046 SCT100 20/08 Q1032 NOSIG RMK BIRD HAZARD RWY 28 PP000=
SPZO Mar2020-031730Z VRB03KT 9999 SCT050 20/06 Q1031 NOSIG RMK BIRD HAZARD RWY 28=
SPZO Mar2020-031830Z 03004KT 9999 SCT050 21/06 Q1029 NOSIG RMK BIRD HAZARD RWY 28=
SPZO Mar2020-031900Z 34005KT 9999 SCT050 SCT100 20/06 Q1028 NOSIG RMK BIRD HAZARD RWY 28 PP000=
SPZO Mar2020-031930Z 01011KT 9999 SCT050 SCT100 18/06 Q1028 NOSIG RMK BIRD HAZARD RWY 28=
SPZO Mar2020-032000Z 10012KT 9999 SCT050 SCT080 18/07 Q1028 NOSIG RMK BIRD HAZARD RWY 28 PP000=
SPZO Mar2020-032030Z 09005KT 9999 VCSH SCT050 BKN080 15/07 Q1028 NOSIG RMK BIRD HAZARD RWY 28=
SPZO Mar2020-032100Z 32001KT 9999 VCSH SCT050 BKN080 16/07 Q1028 NOSIG RMK BIRD HAZARD RWY 28 PP000=
SPZO Mar2020-032130Z 28002KT 9999 FEW050 SCT080 16/06 Q1028 NOSIG RMK BIRD HAZARD RWY 28=
SPZO Mar2020-032200Z 11006KT 9999 FEW050 SCT080 16/07 Q1028 NOSIG RMK TX21.4 BIRD HAZARD RWY 28 PP000=
SPZO Mar2020-032230Z 11007KT 9999 FEW050 SCT100 15/06 Q1028 NOSIG RMK BIRD HAZARD RWY 28=
SPZO Mar2020-032300Z 10007KT 9999 FEW050 SCT100 15/07 Q1029 NOSIG RMK BIRD HAZARD RWY 28 PP000=
SPZO Mar2020-032330Z 09008KT 9999 FEW050 14/07 Q1029 NOSIG RMK BIRD HAZARD RWY 28=
SPZO Mar2020-040000Z 12007KT 9999 FEW050 14/07 Q1030 NOSIG RMK BIRD HAZARD RWY 28 PP000=
SPZO Mar2020-040030Z 10006KT 9999 FEW050 13/06 Q1030 NOSIG RMK BIRD HAZARD RWY 28=
SPZO Mar2020-040100Z 28004KT 9999 FEW050 13/06 Q1031 NOSIG RMK BIRD HAZARD RWY 28 PP000=
SPZO Mar2020-040130Z 09005KT 9999 FEW050 11/07 Q1031 NOSIG RMK BIRD HAZARD RWY 28=
SPZO Mar2020-040200Z 10004KT 9999 FEW050 11/07 Q1034 NOSIG RMK BIRD HAZARD RWY 28 PP000=
SPZO Mar2020-040300Z 10004KT 9999 FEW050 11/07 Q1034 NOSIG RMK BIRD HAZARD RWY 28 PP000=
SPZO Mar2020-040400Z 00000KT 9999 FEW050 11/06 Q1034 RMK BIRD HAZARD RWY 28 PP000=
SPZO Mar2020-040500Z 35006KT 9999 FEW050 11/06 Q1034 RMK BIRD HAZARD RWY 28 PP000=
SPZO Mar2020-040600Z 26003KT 9999 FEW050 12/05 Q10322 RMK BIRD HAZARD RWY 28 PP000=
SPZO Mar2020-040700Z 30003KT 9999 FEW050 11/06 Q1032 RMK BIRD HAZARD RWY 28 PP000=
SPZO Mar2020-040800Z 30003KT 9999 FEW050 09/06 Q1032 RMK BIRD HAZARD RWY 28 PP000=
SPZO Mar2020-040900Z 00000KT 9999 FEW050 SCT100 10/06 Q1033 RMK BIRD HAZARD RWY 28 PP000=
SPZO Mar2020-041000Z 09005KT 9999 FEW050 SCT100 10/07 Q1033 NOSIG RMK BIRD HAZARD RWY 28 PP000=
SPZO Mar2020-041030Z 10002KT 9999 SCT050 BKN100 10/06 Q1033 NOSIG RMK BIRD HAZARD RWY 28=
SPZO Mar2020-041100Z 08002KT 9999 SCT050 BKN100 10/06 Q1033 NOSIG RMK BIRD HAZARD RWY 28 PP000=
SPZO Mar2020-041130Z 27001KT 9999 FEW050 SCT100 10/07 Q1037 NOSIG RMK BIRD HAZARD RWY 28=
SPZO Mar2020-041200Z 11002KT 9999 FEW050 SCT100 12/07 Q1034 NOSIG RMK TN9.1 BIRD HAZARD RWY 28 PP000=
SPZO Mar2020-041230Z VRB02KT 9999 SCT040 BKN100 12/07 Q1034 NOSIG RMK BIRD HAZARD RWY 28=
SPZO Mar2020-041300Z VRB01KT 9999 SCT040 BKN100 13/07 Q1035 NOSIG RMK BIRD HAZARD RWY 28 PP000=
SPZO Mar2020-041330Z 10005KT 9999 SCT040 BKN100 14/07 Q1035 NOSIG RMK BIRD HAZARD RWY 28=
SPZO Mar2020-041400Z 11005KT 9999 SCT040 BKN100 15/06 Q1035 NOSIG RMK BIRD HAZARD RWY 28 PP000=
SPZO Mar2020-041430Z 02003KT 9999 SCT040 BKN100 17/07 Q1035 NOSIG RMK BIRD HAZARD RWY 28=
SPZO Mar2020-041500Z 10005KT 9999 SCT040 BKN100 17/08 Q1034 NOSIG RMK BIRD HAZARD RWY 28 PP000=
SPZO Mar2020-041530Z 12002KT 9999 SCT040 BKN100 18/06 Q1034 NOSIG RMK BIRD HAZARD RWY 28=
SPZO Mar2020-041600Z 28004KT 9999 SCT046 BKN100 17/06 Q1034 NOSIG RMK BIRD HAZARD RWY 28 PP000=
SPZO Mar2020-041630Z 34007KT 9999 SCT046 BKN100 18/07 Q1033 NOSIG RMK BIRD HAZARD RWY 28=
SPZO Mar2020-041700Z 35005KT 9999 SCT050 BKN100 20/06 Q1033 NOSIG RMK BIRD HAZARD RWY 28 PP000=
SPZO Mar2020-041730Z 36005KT 9999 SCT050 SCT100 19/05 Q1032 NOSIG RMK BIRD HAZARD RWY 28=
SPZO Mar2020-041800Z 17005KT 9999 SCT050 SCT100 21/05 Q1031 NOSIG RMK BIRD HAZARD RWY 28 PP000=
SPZO Mar2020-041830Z 11008KT 9999 SCT050 SCT100 21/07 Q1030 NOSIG RMK BIRD HAZARD RWY 28=
SPZO Mar2020-041900Z VRB02KT 9999 SCT050 SCT100 21/04 Q1030 NOSIG RMK BIRD HAZARD RWY 28 PP000=
SPZO Mar2020-041930Z 36007KT 9999 SCT050 SCT100 21/06 Q1029 NOSIG RMK BIRD HAZARD RWY 28=
SPZO Mar2020-042000Z 01008KT 9999 SCT050 SCT100 20/05 Q1029 NOSIG RMK BIRD HAZARD RWY 28 PP000=
SPZO Mar2020-042030Z 02012KT 9999 SCT050 SCT100 17/08 Q1029 NOSIG RMK TCU BIRD HAZARD RWY 28=
SPZO Mar2020-042100Z 02012KT 9999 SCT050 SCT100 18/07 Q1029 NOSIG RMK BIRD HAZARD RWY 28 PP000=
SPZO Mar2020-042130Z 28005KT 9999 FEW046TCU BKN080 18/07 Q1029 NOSIG RMK BIRD HAZARD RWY 28=
SPZO Mar2020-042200Z 08003KT 9999 FEW046TCU BKN080 16/07 Q1029 NOSIG RMK TX21.4 BIRD HAZARD RWY 28 PP000=
SPZO Mar2020-042230Z 35006KT 9999 SCT050 15/06 Q1029 NOSIG RMK BIRD HAZARD RWY 28=
SPZO Mar2020-042300Z 36007KT 9999 SCT050 15/05 Q1030 NOSIG RMK BIRD HAZARD RWY 28 PP000=
SPZO Mar2020-042330Z 01006KT 9999 FEW046 SCT080 14/05 Q1031 NOSIG RMK BIRD HAZARD RWY 28=
SPZO Mar2020-050000Z 13004KT 9999 SCT046 SCT080 14/06 Q1032 NOSIG RMK BIRD HAZARD RWY 28 PP000=
SPZO Mar2020-050030Z 36003KT 9999 FEW046 SCT080 14/05 Q1032 NOSIG RMK BIRD HAZARD RWY 28=
SPZO Mar2020-050100Z 28004KT 240V330 9999 FEW046 SCT080 13/05 Q1033 NOSIG RMK BIRD HAZARD RWY 28 PP000=
SPZO Mar2020-050130Z 11005KT 9999 FEW046 SCT080 13/06 Q1034 NOSIG RMK BIRD HAZARD RWY 28=
SPZO Mar2020-050200Z 10005KT 9000 -RA SCT046 SCT080 13/06 Q1034 NOSIG RMK BIRD HAZARD RWY 28 PPTRZ=
SPZO Mar2020-050230Z 24003KT 9000 -RA SCT046 BKN080 12/07 Q1035 NOSIG RMK BIRD HAZARD RWY 28=
SPZO Mar2020-050300Z 33006KT 9000 -DZ SCT046 BKN080 12/07 Q1035 RMK PP002=
SPZO Mar2020-050400Z 27003KT 190V200 9999 SCT046 BKN080 12/06 Q1036 REDZ RMK PPTRZ=
SPZO Mar2020-050500Z 29006KT 9999 SCT046 BKN080 11/06 Q1035 RMK PP000=
SPZO Mar2020-050600Z 29004KT 9999 SCT046 BKN100 10/06 Q1035 RMK PP000=
SPZO Mar2020-050700Z 28010KT 9999 SCT046 BKN100 11/06 Q1034 RMK PP000=
SPZO Mar2020-050800Z 29002KT 9999 SCT046 BKN100 10/06 Q1034 RMK CB DSNT QUAD N PP000=
SPZO Mar2020-050900Z 00000KT 9999 SCT046 BKN080 10/06 Q1034 RMK BIRD HAZARD RWY 28 PP000=
SPZO Mar2020-051000Z 00000KT 9999 SCT046 BKN100 10/06 Q1034 NOSIG RMK BIRD HAZARD RWY 28 PP000=
SPZO Mar2020-051030Z 30003KT 270V010 9999 SCT046 BKN100 09/06 Q1034 NOSIG RMK BIRD HAZARD RWY 28=
SPZO Mar2020-051100Z 10003KT 9999 SCT046 BKN100 09/06 Q1034 NOSIG RMK BR QUAD NE BIRD HAZARD RWY 28 PP000=
SPZO Mar2020-051130Z 36002KT 9999 SCT040 BKN100 10/06 Q1035 NOSIG RMK BIRD HAZARD RWY 28=
SPZO Mar2020-051200Z VRB02KT 9999 SCT040 BKN100 10/06 Q1036 NOSIG RMK TN08.6 BIRD HAZARD RWY 28 PP000=
SPZO Mar2020-051230Z VRB01KT 9999 SCT040 SCT080 11/07 Q1036 NOSIG RMK BIRD HAZARD RWY 28=
SPZO Mar2020-051300Z VRB01KT 9999 SCT040 SCT080 12/06 Q1036 NOSIG RMK BIRD HAZARD RWY 28 PP000=
SPZO Mar2020-051330Z 09004KT 010V150 9999 SCT040 SCT080 13/07 Q1037 NOSIG RMK BIRD HAZARD RWY 28=
SPZO Mar2020-051400Z VRB03KT 9999 SCT040 SCT080 13/07 Q1037 NOSIG RMK BIRD HAZARD RWY 28 PP000=
SPZO Mar2020-051430Z VRB03KT 9999 SCT040 SCT080 15/07 Q1037 NOSIG RMK BIRD HAZARD RWY 28=
SPZO Mar2020-051500Z VRB03KT 9999 SCT040 SCT080 15/06 Q1036 NOSIG RMK BIRD HAZARD RWY 28 PP000=
SPZO Mar2020-051530Z VRB03KT 9999 SCT040 SCT080 16/05 Q1035 NOSIG RMK BIRD HAZARD RWY 28=
SPZO Mar2020-051600Z VRB02KT 9999 SCT043 BKN080 16/05 Q1035 NOSIG RMK BIRD HAZARD RWY 28 PP000=
SPZO Mar2020-051630Z VRB02KT 9999 SCT043 BKN080 17/05 Q1035 NOSIG RMK BIRD HAZARD RWY 28=
SPZO Mar2020-051700Z VRB03KT 9999 SCT043 BKN080 17/06 Q1035 NOSIG RMK BIRD HAZARD RWY 28 PP000=
SPZO Mar2020-051730Z VRB04KT 9999 SCT046 SCT100 19/06 Q1033 NOSIG RMK BIRD HAZARD RWY 28=
SPZO Mar2020-051800Z 05006KT 010V100 9999 SCT046 SCT100 20/07 Q1032 NOSIG RMK BIRD HAZARD RWY 28 PP000=
SPZO Mar2020-051830Z 30006KT 260V030 9999 BKN046 21/06 Q1031 NOSIG RMK BIRD HAZARD RWY 28=
SPZO Mar2020-051900Z VRB03KT 9999 BKN046 SCT080 21/04 Q1031 NOSIG RMK BIRD HAZARD RWY 28 PP000=
SPZO Mar2020-051930Z 33004KT 9999 BKN046 SCT080 20/05 Q1029 NOSIG RMK BIRD HAZARD RWY 28=
SPZO Mar2020-052000Z 02008KT 350V080 9999 SCT046 SCT080 20/06 Q1029 NOSIG RMK TCU QUAD SE BIRD HAZARD RWY 28 PP000=
SPZO Mar2020-052030Z 11013G23KT 9999 -DZ VCSH SCT046 BKN080 16/08 Q1030 NOSIG RMK TCU QUAD SE BIRD HAZARD RWY 28=
SPZO Mar2020-052100Z 11013KT 9999 VCSH SCT046 BKN080 16/07 Q1030 NOSIG RMK TCU QUAD N BIRD HAZARD RWY 28 PPTRZ=
SPZO Mar2020-052130Z 08005KT 010V120 9999 SCT046 BKN080 15/07 Q1030 NOSIG RMK TCU QUAD N BIRD HAZARD RWY 28=
SPZO Mar2020-052200Z 36005KT 340V060 9999 SCT046 BKN080 16/06 Q1030 NOSIG RMK TCU QUAD N TX21.9 BIRD HAZARD RWY 28 PP000=
SPZO Mar2020-052230Z 05004KT 9999 SCT046 BKN080 16/06 Q1030 NOSIG RMK BIRD HAZARD RWY 28=
SPZO Mar2020-052300Z 10008KT 9999 SCT046 BKN080 15/08 Q1030 NOSIG RMK BIRD HAZARD RWY 28 PP000=
SPZO Mar2020-052330Z 09007KT 9999 FEW046 SCT080 14/07 Q1031 NOSIG RMK BIRD HAZARD RWY 28=
SPZO Mar2020-060000Z 12006KT 9999 SCT100 14/07 Q1032 NOSIG RMK BIRD HAZARD RWY 28 PP000=
SPZO Mar2020-060030Z 08004KT 9999 SCT100 14/06 Q1033 NOSIG RMK BIRD HAZARD RWY 28=
SPZO Mar2020-060100Z 02004KT 9999 FEW040 SCT100 14/07 Q1033 NOSIG RMK BIRD HAZARD RWY 28 PP000=
SPZO Mar2020-060130Z 11002KT 9999 FEW040 BKN100 13/06 Q1034 NOSIG RMK BIRD HAZARD RWY 28=
SPZO Mar2020-060200Z 16001KT 9999 FEW040 BKN080 14/06 Q1034 NOSIG RMK BIRD HAZARD RWY 28 PP000=
SPZO Mar2020-060230Z 05004KT 9999 FEW040 BKN080 13/06 Q1035 NOSIG RMK BIRD HAZARD RWY 28=
SPZO Mar2020-060300Z VRB01KT 9999 FEW040 BKN080 13/06 Q1036 NOSIG RMK BIRD HAZARD RWY 28 PP000=
SPZO Mar2020-060400Z 32003KT 9999 SCT040 BKN100 12/06 Q1036 NOSIG RMK BIRD HAZARD RWY 28 PP000=
SPZO Mar2020-060500Z 29009KT 9999 SCT040 BKN100 11/06 Q1035 RMK BIRD HAZARD RWY 28 PP000=
SPZO Mar2020-060600Z 30008KT 9999 SCT040 BKN100 11/06 Q1034 RMK BIRD HAZARD RWY 28 PP000=
SPZO Mar2020-060700Z 31004KT 9999 SCT040 BKN100 11/06 Q1034 RMK BIRD HAZARD RWY 28 PP000=
SPZO Mar2020-060800Z 24002KT 9999 SCT040 BKN100 10/06 Q1033 RMK BIRD HAZARD RWY 28 PP000=
SPZO Mar2020-060900Z 11002KT 9999 SCT040 BKN100 10/06 Q1033 RMK BIRD HAZARD RWY 28 PP000=
SPZO Mar2020-061000Z 36001KT 9999 SCT050 BKN100 11/06 Q1034 NOSIG RMK BIRD HAZARD RWY 28 PP000=
SPZO Mar2020-061030Z 08001KT 9999 SCT050 BKN100 11/07 Q1034 NOSIG RMK BIRD HAZARD RWY 28=
SPZO Mar2020-061100Z VRB01KT 9999 SCT050 BKN100 10/07 Q1034 NOSIG RMK BIRD HAZARD RWY 28 PP000=
SPZO Mar2020-061130Z 09005KT 9999 SCT040 BKN100 10/07 Q1034 NOSIG RMK BIRD HAZARD RWY 28=
SPZO Mar2020-061200Z VRB01KT 9999 SCT040 BKN100 11/07 Q1034 NOSIG RMK TN09.5 BIRD HAZARD RWY 28 PP000=
SPZO Mar2020-061230Z 28004KT 9999 SCT040 BKN080 12/07 Q1035 NOSIG RMK BIRD HAZARD RWY 28=
SPZO Mar2020-061300Z 28004KT 9999 SCT040 BKN080 12/07 Q1035 NOSIG RMK BIRD HAZARD RWY 28 PP000=
SPZO Mar2020-061330Z 22001KT 9999 SCT040 SCT080 14/06 Q1035 NOSIG RMK BIRD HAZARD RWY 28=
SPZO Mar2020-061400Z 11003KT 060V180 9999 SCT040 SCT080 15/07 Q1035 NOSIG RMK BIRD HAZARD RWY 28 PP000=
SPZO Mar2020-061430Z 11004KT 9999 SCT040 SCT100 16/07 Q1035 NOSIG RMK BIRD HAZARD RWY 28=
SPZO Mar2020-061500Z VRB02KT 9999 SCT040 SCT100 17/06 Q1035 NOSIG RMK BIRD HAZARD RWY 28 PP000=
SPZO Mar2020-061530Z VRB03KT 9999 SCT043 SCT150 18/06 Q1034 NOSIG RMK BIRD HAZARD RWY 28=
SPZO Mar2020-061600Z 13005KT 090V190 9999 SCT043 SCT150 18/05 Q1034 NOSIG RMK BIRD HAZARD RWY 28 PP000=
SPZO Mar2020-061630Z 27005KT 190V330 9999 SCT046 SCT150 19/07 Q1033 NOSIG RMK BIRD HAZARD RWY 28=
SPZO Mar2020-061700Z VRB04KT 9999 SCT046 SCT150 20/04 Q1032 NOSIG RMK BIRD HAZARD RWY 28 PP000=
SPZO Mar2020-061730Z VRB02KT 9999 SCT050 SCT100 20/06 Q1032 NOSIG RMK BIRD HAZARD RWY 28=
SPZO Mar2020-061800Z VRB04KT 9999 SCT050 SCT100 20/06 Q1031 NOSIG RMK BIRD HAZARD RWY 28 PP000=
SPZO Mar2020-061830Z VRB03KT 9999 SCT050 SCT100 22/06 Q1030 NOSIG RMK BIRD HAZARD RWY 28=
SPZO Mar2020-061900Z VRB06KT 9999 VCSH FEW040TCU SCT060 BKN100 22/04 Q1029 NOSIG RMK BIRD HAZARD RWY 28 PP000=
SPZO Mar2020-061930Z 10016KT 9999 VCSH FEW040TCU SCT060 BKN100 18/05 Q1029 NOSIG RMK BIRD HAZARD RWY 28=
SPZO Mar2020-062000Z 02011KT 9999 VCSH FEW040TCU SCT060 SCT100 17/05 Q1029 NOSIG RMK BIRD HAZARD RWY 28 PP000=
SPZO Mar2020-062100Z 02011KT 9999 VCSH FEW040TCU SCT060 BKN100 16/05 Q1029 NOSIG RMK BIRD HAZARD RWY 28 PP000=
SPZO Mar2020-062200Z 05005KT 9999 FEW050 BKN100 16/05 Q1029 NOSIG RMK TX22.7 BIRD HAZARD RWY 28 PP000=
SPZO Mar2020-062230Z 01006KT 9999 SCT050 BKN100 16/04 Q1029 NOSIG RMK BIRD HAZARD RWY 28=
SPZO Mar2020-062300Z 35003KT 9999 SCT050 BKN100 16/04 Q1029 NOSIG RMK BIRD HAZARD RWY 28 PP000=
SPZO Mar2020-062330Z VRB03KT 9999 FEW050 SCT150 15/04 Q1031 NOSIG RMK BIRD HAZARD RWY 28=
SPZO Mar2020-070000Z 00000KT 9999 FEW050 SCT150 15/04 Q1031 NOSIG RMK BIRD HAZARD RWY 28 PP000=
SPZO Mar2020-070030Z 09002KT 9999 FEW050 BKN100 14/05 Q1032 NOSIG RMK BIRD HAZARD RWY 28=
SPZO Mar2020-070100Z VRB02KT 9999 FEW050 BKN100 14/05 Q1033 NOSIG RMK BIRD HAZARD RWY 28 PP000=
SPZO Mar2020-070130Z 10004KT 9999 FEW050 SCT100 13/05 Q1033 NOSIG RMK BIRD HAZARD RWY 28=
SPZO Mar2020-070200Z 10004KT 9999 BKN080 12/05 Q1034 NOSIG RMK BIRD HAZARD RWY 28 PP000=
SPZO Mar2020-070230Z VRB03KT 9999 FEW050 BKN080 13/05 Q1034 NOSIG RMK BIRD HAZARD RWY 28=
SPZO Mar2020-070300Z 11005KT 9999 FEW050 BKN080 12/06 Q1034 NOSIG RMK BIRD HAZARD RWY 28 PP000=
SPZO Mar2020-070400Z 10006KT 9999 SCT050 BKN080 11/05 Q1035 RMK BIRD HAZARD RWY 28 PP000=
SPZO Mar2020-070500Z 10003KT 9999 SCT050 BKN080 10/05 Q1034 RMK BIRD HAZARD RWY 28 PP000=
SPZO Mar2020-070600Z 10006KT 9999 FEW050 BKN080 09/05 Q1033 RMK BIRD HAZARD RWY 28 PP000=
SPZO Mar2020-070700Z 09004KT 9999 FEW050 SCT080 09/06 Q1033 RMK BIRD HAZARD RWY 28 PP000=
SPZO Mar2020-070800Z 11003KT 9999 FEW050 SCT100 09/05 Q1032 RMK BIRD HAZARD RWY 28 PP000=
SPZO Mar2020-070900Z 00000KT 9999 FEW043 SCT080 09/06 Q1032 RMK BR BIRD HAZARD RWY 28 PP000=
SPZO Mar2020-071000Z 00000KT 9999 FEW043 BKN080 09/06 Q1033 NOSIG RMK BIRD HAZARD RWY 28 PP000=
SPZO Mar2020-071030Z 00000KT 9999 FEW043 BKN080 08/05 Q1033 NOSIG RMK BIRD HAZARD RWY 28=
SPZO Mar2020-071100Z 00000KT 9999 FEW046 BKN080 08/05 Q1033 NOSIG RMK BIRD HAZARD RWY 28 PP000=
SPZO Mar2020-071130Z 00000KT 9999 FEW046 BKN100 08/05 Q1033 NOSIG RMK BIRD HAZARD RWY 28=
SPZO Mar2020-071200Z 10004KT 9999 SCT046 BKN100 09/06 Q1033 NOSIG RMK TN07.8 BIRD HAZARD RWY 28 PP000=
SPZO Mar2020-071230Z 10004KT 9999 SCT046 BKN100 10/06 Q1034 NOSIG RMK BIRD HAZARD RWY 28=
SPZO Mar2020-071300Z 09004KT 030V120 9999 SCT046 BKN100 11/07 Q1034 NOSIG RMK BIRD HAZARD RWY 28 PP000=
SPZO Mar2020-071330Z 09006KT 070V160 9999 SCT043 BKN100 12/07 Q1034 NOSIG RMK BIRD HAZARD RWY 28=
SPZO Mar2020-071400Z 10005KT 060V150 9999 SCT043 BKN100 14/06 Q1034 NOSIG RMK BIRD HAZARD RWY 28 PP000=
SPZO Mar2020-071430Z 05002KT 9999 SCT043 BKN100 15/05 Q1034 NOSIG RMK BIRD HAZARD RWY 28=
SPZO Mar2020-071500Z 10004KT 9999 SCT043 BKN100 15/05 Q1033 NOSIG RMK BIRD HAZARD RWY 28 PP000=
SPZO Mar2020-071530Z 09004KT 020V140 9999 SCT043 BKN100 16/04 Q1033 NOSIG RMK BIRD HAZARD RWY 28=
SPZO Mar2020-071600Z 32003KT 140V230 9999 SCT043 BKN100 18/04 Q1033 NOSIG RMK BIRD HAZARD RWY 28 PP000=
SPZO Mar2020-071630Z 15003KT 9999 SCT046 BKN100 18/03 Q1032 NOSIG RMK BIRD HAZARD RWY 28=
SPZO Mar2020-071700Z 08003KT 9999 SCT046 BKN100 18/06 Q1032 NOSIG RMK BIRD HAZARD RWY 28 PP000=
SPZO Mar2020-071730Z 16002KT 9999 SCT046 BKN100 19/05 Q1031 NOSIG RMK BIRD HAZARD RWY 28=
SPZO Mar2020-071800Z 13003KT 9999 SCT046 SCT080 20/06 Q1030 NOSIG RMK BIRD HAZARD RWY 28 PP000=
SPZO Mar2020-071830Z 05004KT 9999 SCT046 SCT080 21/05 Q1029 NOSIG RMK BIRD HAZARD RWY 28=
SPZO Mar2020-071900Z 06005KT 9999 SCT046 SCT080 20/06 Q1028 NOSIG RMK TCU QUAD N BIRD HAZARD RWY 28 PP000=
SPZO Mar2020-071930Z 09004KT 020V130 9999 VCSH FEW040TCU SCT046 BKN080 19/05 Q1027 NOSIG RMK BIRD HAZARD RWY 28=
SPZO Mar2020-072000Z 02010KT 340V060 9999 VCSH FEW040TCU SCT046 BKN080 19/03 Q1027 NOSIG RMK BIRD HAZARD RWY 28 PP000=
SPZO Mar2020-072030Z 01003KT 300V050 9999 FEW040TCU SCT046 BKN080 19/04 Q1027 NOSIG RMK BIRD HAZARD RWY 28=
SPZO Mar2020-072100Z 02008KT 330V060 9999 SCT046 SCT080 18/04 Q1027 NOSIG RMK TCU QUAD NW BIRD HAZARD RWY 28 PP000=
SPZO Mar2020-072130Z 02008KT 350V090 9999 SCT046 SCT080 19/05 Q1026 NOSIG RMK BIRD HAZARD RWY 28=
SPZO Mar2020-072200Z 02006KT 350V070 9999 SCT046 SCT080 18/05 Q1026 NOSIG RMK TX21.6 BIRD HAZARD RWY 28 PP000=
SPZO Mar2020-072230Z 01008KT 9999 VCSH FEW040TCU SCT050 BKN080 17/04 Q1027 NOSIG RMK BIRD HAZARD RWY 28=
SPZO Mar2020-072300Z 02007KT 300V040 9999 VCSH FEW040TCU SCT050 BKN080 17/05 Q1027 NOSIG RMK BIRD HAZARD RWY 28 PP000=
SPZO Mar2020-072330Z 27013KT 9999 -DZ VCSH SCT040 BKN070 14/06 Q1029 TEMPO RA RMK TCU QUAD S/N BIRD HAZARD RWY 28=
SPZO Mar2020-080000Z 27011KT 9999 SCT040 BKN070 14/06 Q1029 NOSIG RMK BIRD HAZARD RWY 28 PPTRZ=
SPZO Mar2020-080030Z 30013KT 260V010 9999 SCT040 BKN070 14/06 Q1031 NOSIG RMK BIRD HAZARD RWY 28=
SPZO Mar2020-080100Z 30010KT 9999 SCT040 BKN070 13/05 Q1031 NOSIG RMK BIRD HAZARD RWY 28 PP000=
SPZO Mar2020-080130Z 27006KT 9999 -DZ SCT040 BKN070 13/05 Q1032 NOSIG RMK BIRD HAZARD RWY 28=
SPZO Mar2020-080200Z VRB03KT 9999 SCT046 BKN080 13/06 Q1032 NOSIG RMK BIRD HAZARD RWY 28 PPTRZ=
SPZO Mar2020-080230Z VRB03KT 9999 SCT046 BKN080 13/07 Q1033 NOSIG RMK BIRD HAZARD RWY 28=
SPZO Mar2020-080300Z VRB03KT 9999 SCT046 BKN080 13/05 Q1033 NOSIG RMK BIRD HAZARD RWY 28 PP000=
SPZO Mar2020-080400Z 21004KT 150V280 9999 SCT046 BKN080 12/05 Q1034 RMK PP000=
SPZO Mar2020-080500Z 19004KT 120V270 9999 SCT043 BKN080 12/05 Q1034 RMK PP000=
SPZO Mar2020-080600Z 20004KT 120V270 9999 -DZ SCT043 BKN080 12/05 Q1034 RMK PPTRZ=
SPZO Mar2020-080700Z 31003KT 270V010 9999 -RA SCT043 BKN080 10/06 Q1033 RMK PPTRZ=
SPZO Mar2020-080800Z 28005KT 9999 SCT040 BKN080 10/05 Q1033 RMK PP002=
SPZO Mar2020-080900Z 29005KT 9999 SCT040 BKN080 10/05 Q1033 RMK PP000=
SPZO Mar2020-081000Z 29004KT 9999 SCT040 BKN080 10/05 Q1033 NOSIG RMK BIRD HAZARD RWY 28 PP000=
SPZO Mar2020-081030Z 00000KT 9999 SCT040 BKN080 10/04 Q1033 NOSIG RMK BIRD HAZARD RWY 28=
SPZO Mar2020-081100Z 29002KT 9999 SCT036 BKN080 10/05 Q1033 NOSIG RMK BIRD HAZARD RWY 28 PP000=
SPZO Mar2020-081130Z 14002KT 9999 SCT040 BKN080 11/05 Q1034 NOSIG RMK BIRD HAZARD RWY 28=
SPZO Mar2020-081200Z 06003KT 300V050 9999 SCT040 BKN080 12/05 Q1034 NOSIG RMK TN08.8 BIRD HAZARD RWY 28 PP000=
SPZO Mar2020-081230Z 26003KT 180V200 9999 SCT040 BKN100 12/05 Q1034 NOSIG RMK BIRD HAZARD RWY 28=
SPZO Mar2020-081300Z 27005KT 200V280 9999 SCT036 BKN100 13/05 Q1034 NOSIG RMK BIRD HAZARD RWY 28 PP000=
SPZO Mar2020-081330Z 03002KT 9999 SCT040 BKN100 14/05 Q1034 NOSIG RMK BIRD HAZARD RWY 28=
SPZO Mar2020-081400Z 08005KT 020V120 9999 SCT040 BKN100 15/04 Q1034 NOSIG RMK BIRD HAZARD RWY 28 PP000=
SPZO Mar2020-081430Z 12003KT 9999 SCT040 SCT100 16/05 Q1034 NOSIG RMK BIRD HAZARD RWY 28=
SPZO Mar2020-081500Z 07004KT 9999 FEW043 SCT080 17/05 Q1034 NOSIG RMK BIRD HAZARD RWY 28 PP000=
SPZO Mar2020-081530Z 14002KT 9999 FEW046 SCT080 18/06 Q1034 NOSIG RMK BIRD HAZARD RWY 28=
SPZO Mar2020-081600Z 08003KT 9999 FEW046 SCT080 18/04 Q1033 NOSIG RMK BIRD HAZARD RWY 28 PP000=
SPZO Mar2020-081630Z 28005KT 9999 FEW046 SCT080 19/06 Q1032 NOSIG RMK BIRD HAZARD RWY 28=
SPZO Mar2020-081700Z 11004KT 060V150 9999 FEW046 SCT080 19/05 Q1032 NOSIG RMK BIRD HAZARD RWY 28 PP000=
SPZO Mar2020-081730Z 09005KT 010V150 9999 FEW046 SCT080 21/04 Q1031 NOSIG RMK BIRD HAZARD RWY 28=
SPZO Mar2020-081800Z VRB04KT 9999 FEW046 SCT080 21/04 Q1030 NOSIG RMK BIRD HAZARD RWY 28 PP000=
SPZO Mar2020-081830Z 10006KT 9999 FEW046 SCT080 20/03 Q1029 NOSIG RMK BIRD HAZARD RWY 28=
SPZO Mar2020-081900Z 10005KT 080V180 9999 FEW046 BKN080 20/04 Q1029 NOSIG RMK BIRD HAZARD RWY 28 PP000=
SPZO Mar2020-081930Z 02011KT 9999 FEW040TCU SCT046 BKN080 18/01 Q1028 NOSIG RMK BIRD HAZARD RWY 28=
SPZO Mar2020-082000Z 02012G22KT 350V090 9999 FEW040TCU SCT046 BKN080 17/02 Q1028 NOSIG RMK BIRD HAZARD RWY 28 PP000=
SPZO Mar2020-082030Z 04009KT 9999 FEW040TCU SCT046 BKN080 17/02 Q1029 NOSIG RMK BIRD HAZARD RWY 28=
SPZO Mar2020-082100Z 06006KT 9999 SCT046 BKN080 17/02 Q1029 NOSIG RMK BIRD HAZARD RWY 28 PP000=
SPZO Mar2020-082130Z 02008G18KT 9999 SCT046 BKN080 17/03 Q1029 NOSIG RMK BIRD HAZARD RWY 28=
SPZO Mar2020-082200Z 04007KT 350V090 9999 FEW050 BKN080 17/02 Q1029 NOSIG RMK TX22.2 BIRD HAZARD RWY 28 PP000=
SPZO Mar2020-082230Z 02008KT 9999 FEW050 BKN080 17/04 Q1029 NOSIG RMK BIRD HAZARD RWY 28=
SPZO Mar2020-082300Z 02008KT 9999 FEW050 BKN080 16/03 Q1029 NOSIG RMK BIRD HAZARD RWY 28 PP000=
SPZO Mar2020-082330Z 05006KT 9999 FEW050 BKN090 16/03 Q1029 NOSIG RMK BIRD HAZARD RWY 28=
SPZO Mar2020-090000Z VRB03KT 9999 FEW050 BKN100 15/03 Q1030 NOSIG RMK BIRD HAZARD RWY 28 PP000=
SPZO Mar2020-090030Z VRB01KT 9999 FEW050 12/04 Q1031 NOSIG RMK BIRD HAZARD RWY 28=
SPZO Mar2020-090100Z 27004KT 9999 FEW050 13/04 Q1032 NOSIG RMK BIRD HAZARD RWY 28 PP000=
SPZO Mar2020-090130Z 28005KT 9999 FEW050 12/04 Q1033 NOSIG RMK BIRD HAZARD RWY 28=
SPZO Mar2020-090200Z 28005KT 9999 FEW050 12/05 Q1033 NOSIG RMK BIRD HAZARD RWY 28 PP000=
SPZO Mar2020-090230Z VRB01KT 9999 FEW050 11/05 Q1034 NOSIG RMK BIRD HAZARD RWY 28=
SPZO Mar2020-090300Z 09003KT 9999 FEW050 10/04 Q1034 NOSIG RMK BIRD HAZARD RWY 28 PP000=
SPZO Mar2020-090400Z 30003KT 9999 FEW050 09/05 Q1034 RMK BIRD HAZARD RWY 28 PP000=
SPZO Mar2020-090500Z VRB01KT 9999 FEW050 SCT100 10/05 Q1034 NOSIG RMK BIRD HAZARD RWY 28 PP000=
SPZO Mar2020-090600Z 10003KT 9999 FEW050 SCT100 09/05 Q1034 RMK PP000=
SPZO Mar2020-090700Z 09002KT 9999 SCT046 BKN100 09/05 Q1034 RMK PP000=
SPZO Mar2020-090800Z 11002KT 9999 SCT046 BKN100 09/06 Q1033 RMK PP000=
SPZO Mar2020-090900Z 10003KT 9999 SCT046 SCT100 09/06 Q1033 RMK BIRD HAZARD RWY 28 PP000=
SPZO Mar2020-091000Z 08003KT 9999 SCT043 SCT080 08/05 Q1033 NOSIG RMK BIRD HAZARD RWY 28 PP000=
SPZO Mar2020-091030Z 00000KT 9999 SCT040 SCT080 09/05 Q1034 NOSIG RMK BIRD HAZARD RWY 28=
SPZO Mar2020-091100Z 00000KT 9999 SCT040 SCT080 08/05 Q1034 NOSIG RMK BIRD HAZARD RWY 28 PP000=
SPZO Mar2020-091130Z 10004KT 9999 FEW050 SCT080 09/06 Q1035 NOSIG RMK BIRD HAZARD RWY 28=
SPZO Mar2020-091200Z VRB02KT 9999 FEW050 SCT120 10/06 Q1035 NOSIG RMK TN7.4 BIRD HAZARD RWY 28 PP000=
SPZO Mar2020-091230Z VRB01KT 9999 FEW050 13/06 Q1036 NOSIG RMK BIRD HAZARD RWY 28=
SPZO Mar2020-091300Z 07002KT 9999 FEW050 14/07 Q1036 NOSIG RMK BIRD HAZARD RWY 28 PP000=
SPZO Mar2020-091330Z VRB02KT 9999 FEW050 SCT100 15/05 Q1036 NOSIG RMK BIRD HAZARD RWY 28=
SPZO Mar2020-091400Z 02001KT 9999 FEW050 SCT100 16/06 Q1036 NOSIG RMK BIRD HAZARD RWY 28 PP000=
SPZO Mar2020-091430Z 04003KT 9999 FEW050 SCT100 17/05 Q1035 NOSIG RMK BIRD HAZARD RWY 28=
SPZO Mar2020-091500Z 25003KT 9999 FEW050 BKN100 18/04 Q1035 NOSIG RMK BIRD HAZARD RWY 28 PP000=
SPZO Mar2020-091530Z 27003KT 9999 FEW050 BKN100 18/05 Q1035 NOSIG RMK BIRD HAZARD RWY 28=
SPZO Mar2020-091600Z VRB01KT 9999 FEW050 BKN100 21/05 Q1034 NOSIG RMK BIRD HAZARD RWY 28 PP000=
SPZO Mar2020-091630Z VRB01KT 9999 SCT050 BKN100 20/05 Q1034 NOSIG RMK BIRD HAZARD RWY 28=
SPZO Mar2020-091700Z 16002KT 9999 SCT050 BKN100 19/04 Q1033 NOSIG RMK BIRD HAZARD RWY 28 PP000=
SPZO Mar2020-091730Z 05009KT 9999 SCT046 FEW050TCU BKN080 18/03 Q1033 NOSIG RMK BIRD HAZARD RWY 28=
SPZO Mar2020-091800Z 02007KT 9999 SCT046 BKN080 19/02 Q1032 NOSIG RMK TCU SW BIRD HAZARD RWY 28 PP000=
SPZO Mar2020-091830Z 25005KT 200V300 9999 SCT046 BKN080 20/02 Q1031 NOSIG RMK BIRD HAZARD RWY 28=
SPZO Mar2020-091900Z 01006KT 9999 SCT046 BKN080 20/04 Q1031 NOSIG RMK TCU N BIRD HAZARD RWY 28 PP000=
SPZO Mar2020-091930Z 02011KT 330V030 9999 SCT046 BKN080 18/03 Q1030 NOSIG RMK BIRD HAZARD RWY 28=
SPZO Mar2020-092000Z 02011KT 9999 SCT046 SCT080 20/03 Q1030 NOSIG RMK BIRD HAZARD RWY 28 PP000=
SPZO Mar2020-092030Z 35005KT 330V030 9999 SCT050 21/03 Q1029 NOSIG RMK BIRD HAZARD RWY 28=
SPZO Mar2020-092100Z 36006KT 9999 SCT050 21/04 Q1029 NOSIG RMK BIRD HAZARD RWY 28 PP000=
SPZO Mar2020-092130Z 02011KT 9999 SCT050 SCT100 19/04 Q1029 NOSIG RMK BIRD HAZARD RWY 28=
SPZO Mar2020-092200Z 02009KT 9999 SCT050 SCT080 18/04 Q1029 NOSIG RMK TX21.3 BIRD HAZARD RWY 28 PP000=
SPZO Mar2020-092230Z 02010KT 9999 FEW046TCU SCT080 17/04 Q1029 NOSIG RMK BIRD HAZARD RWY 28=
SPZO Mar2020-092300Z 02008KT 9999 -RA FEW046TCU SCT080 15/06 Q1030 NOSIG RMK BIRD HAZARD RWY 28 PP002=
SPZO Mar2020-092330Z 26006KT 200V280 9999 SCT046 SCT080 15/06 Q1030 NOSIG RMK BIRD HAZARD RWY 28=
SPZO Mar2020-100000Z 26004KT 180V270 9999 SCT046 SCT080 15/05 Q1031 RERA NOSIG RMK BIRD HAZARD RWY 28 PPTRZ=
SPZO Mar2020-100030Z 24004KT 200V280 9999 SCT046 SCT080 14/05 Q1032 NOSIG RMK BIRD HAZARD RWY 28=
SPZO Mar2020-100100Z 26003KT 9999 SCT046 SCT080 13/06 Q1033 NOSIG RMK BIRD HAZARD RWY 28 PP000=
SPZO Mar2020-100130Z 27003KT 230V310 9999 FEW046 SCT080 12/05 Q1033 NOSIG RMK BIRD HAZARD RWY 28=
SPZO Mar2020-100200Z 12006KT 090V180 9999 FEW046 SCT080 13/05 Q1034 NOSIG RMK BIRD HAZARD RWY 28 PP000=
SPZO Mar2020-100230Z 20008G29KT 150V260 9999 SCT046 BKN080 12/04 Q1036 NOSIG RMK BIRD HAZARD RWY 28=
SPZO Mar2020-100300Z 20005G15KT 9000 -RA SCT046 BKN080 09/04 Q1037 RMK CB QUAD N PP024=
SPZO Mar2020-100400Z 13003KT 090V190 9000 -RA SCT046 BKN080 09/05 Q1038 RMK PP016=
SPZO Mar2020-100500Z 11009KT 7000 RA FEW025 SCT036 OVC080 08/05 Q1038 RMK PP034=
SPZO Mar2020-100600Z 09005KT 8000 -DZ FEW025 SCT036 BKN080 07/05 Q1037 RMK CLNG BLW 1200M PP006=
SPZO Mar2020-100700Z 14002KT 9999 FEW025 SCT036 BKN080 08/04 Q1036 REDZ RMK CLNG BLW 1200M PP002=
SPZO Mar2020-100800Z 29002KT 9999 FEW030 SCT040 BKN080 08/04 Q1035 RMK PP000=
SPZO Mar2020-100900Z 26002KT 9999 SCT040 BKN080 08/04 Q1035 RMK BIRD HAZARD RWY 28 PP000=
SPZO Mar2020-101000Z 12003KT 090V180 9999 SCT040 BKN100 07/04 Q1035 NOSIG RMK BIRD HAZARD RWY 28 PP000=
SPZO Mar2020-101030Z 09002KT 9999 SCT040 BKN100 07/04 Q1036 NOSIG RMK BIRD HAZARD RWY 28=
SPZO Mar2020-101100Z 00000KT 9999 SCT040 BKN100 06/04 Q1036 NOSIG RMK BIRD HAZARD RWY 28 PP000=
SPZO Mar2020-101130Z 10005KT 9999 SCT036 BKN100 07/04 Q1036 NOSIG RMK BIRD HAZARD RWY 28=
SPZO Mar2020-101200Z 10002KT 9999 SCT036 BKN100 07/05 Q1036 NOSIG RMK TN5.9 BIRD HAZARD RWY 28 PP000=
SPZO Mar2020-101230Z 11002KT 9999 SCT036 BKN100 09/04 Q1037 NOSIG RMK BIRD HAZARD RWY 28=
SPZO Mar2020-101300Z VRB02KT 9999 SCT036 SCT100 11/05 Q1037 NOSIG RMK BIRD HAZARD RWY 28 PP000=
SPZO Mar2020-101330Z VRB03KT 9999 SCT036 SCT100 11/05 Q1037 NOSIG RMK BIRD HAZARD RWY 28=
SPZO Mar2020-101400Z 00000KT 9999 SCT036 SCT100 12/04 Q1037 NOSIG RMK BIRD HAZARD RWY 28 PP000=
SPZO Mar2020-101430Z VRB04KT 9999 SCT040 SCT100 14/06 Q1036 NOSIG RMK BIRD HAZARD RWY 28=
SPZO Mar2020-101500Z VRB03KT 9999 SCT040 BKN080 14/05 Q1036 NOSIG RMK BIRD HAZARD RWY 28 PP000=
SPZO Mar2020-101530Z 00000KT 9999 SCT040 16/02 Q1036 NOSIG RMK BIRD HAZARD RWY 28=
SPZO Mar2020-101600Z 06003KT 9999 SCT040 17/04 Q1035 NOSIG RMK BIRD HAZARD RWY 28 PP000=
SPZO Mar2020-101630Z 11002KT 9999 SCT046 17/06 Q1035 NOSIG RMK BIRD HAZARD RWY 28=
SPZO Mar2020-101700Z 06003KT 9999 SCT046 SCT080 18/05 Q1034 NOSIG RMK BIRD HAZARD RWY 28 PP000=
SPZO Mar2020-101730Z VRB02KT 9999 SCT046 SCT080 19/03 Q1033 NOSIG RMK BIRD HAZARD RWY 28=
SPZO Mar2020-101800Z VRB03KT 9999 SCT046 20/06 Q1033 NOSIG RMK BIRD HAZARD RWY 28 PP000=
SPZO Mar2020-101830Z VRB03KT 9999 SCT046 21/04 Q1031 NOSIG RMK BIRD HAZARD RWY 28=
SPZO Mar2020-101900Z VRB04KT 9999 SCT046 21/03 Q1031 NOSIG RMK BIRD HAZARD RWY 28 PP000=
SPZO Mar2020-101930Z VRB03KT 9999 SCT050 20/01 Q1029 NOSIG RMK BIRD HAZARD RWY 28=
SPZO Mar2020-102000Z 21005KT 150V270 9999 SCT050 SCT080 21/03 Q1029 NOSIG RMK BIRD HAZARD RWY 28 PP000=
SPZO Mar2020-102030Z 02010KT 350V070 9999 SCT050 SCT080 19/04 Q1028 NOSIG RMK BIRD HAZARD RWY 28=
SPZO Mar2020-102100Z 02011KT 9999 SCT050 SCT080 19/06 Q1028 NOSIG RMK TCU QUAD N BIRD HAZARD RWY 28 PP000=
SPZO Mar2020-102130Z 01010KT 9999 SCT050 SCT080 17/05 Q1028 NOSIG RMK TCU QUAD S BIRD HAZARD RWY 28=
SPZO Mar2020-102200Z 01009KT 9999 SCT050 SCT080 17/04 Q1028 NOSIG RMK TX21.4 BIRD HAZARD RWY 28 PP000=
SPZO Mar2020-102230Z 09009KT 9999 SCT050 SCT080 16/05 Q1029 NOSIG RMK TCU QUAD SW BIRD HAZARD RWY 28=
SPZO Mar2020-102300Z 01007KT 9999 SCT046 SCT080 16/05 Q1029 NOSIG RMK TCU QUAD SW BIRD HAZARD RWY 28 PP000=
SPZO Mar2020-102330Z 02006KT 9999 SCT050 15/05 Q1030 NOSIG RMK BIRD HAZARD RWY 28=
SPZO Mar2020-110000Z 04003KT 9999 RA SCT050 BKN100 13/06 Q1030 NOSIG RMK BIRD HAZARD RWY 28 PP006=
SPZO Mar2020-110030Z 35004KT 9999 SCT050 BKN100 13/07 Q1031 NOSIG RMK BIRD HAZARD RWY 28=
SPZO Mar2020-110100Z 23003KT 9999 FEW050 BKN100 13/07 Q1032 NOSIG RMK BIRD HAZARD RWY 28 PP000=
SPZO Mar2020-110130Z 33001KT 9999 FEW050 BKN100 13/06 Q1032 NOSIG RMK BIRD HAZARD RWY 28=
SPZO Mar2020-110200Z 28001KT 9999 FEW050 BKN100 13/07 Q1033 NOSIG RMK BIRD HAZARD RWY 28 PP000=
SPZO Mar2020-110230Z 34005KT 9999 FEW050 BKN100 13/05 Q1033 NOSIG RMK BIRD HAZARD RWY 28=
SPZO Mar2020-110300Z 35001KT 9999 RA SCT050 BKN100 13/05 Q1034 NOSIG RMK BIRD HAZARD RWY 28 PPTRZ=
SPZO Mar2020-110400Z 29004KT 9999 RA SCT050 BKN100 10/07 Q1035 RMK BIRD HAZARD RWY 28 PP030=
SPZO Mar2020-110500Z 10002KT 8000 RA SCT050 BKN100 08/06 Q1035 RMK BIRD HAZARD RWY 28 PP060=
SPZO Mar2020-110600Z 30005KT 8000 RA SCT050 BKN100 07/04 Q1035 RMK BIRD HAZARD RWY 28 PP056=
SPZO Mar2020-110700Z 07003KT 9999 RA SCT050 BKN100 07/04 Q1034 RMK BIRD HAZARD RWY 28 PP026=
SPZO Mar2020-110800Z 12001KT 9999 -RA SCT040 BKN100 07/04 Q1033 RMK BIRD HAZARD RWY 28 PP038=
SPZO Mar2020-110900Z 11003KT 9999 SCT040 BKN100 07/04 Q1033 NOSIG RERA RMK BIRD HAZARD RWY 28 PP002=
SPZO Mar2020-111000Z 11005KT 9999 SCT030 BKN100 07/05 Q1033 NOSIG RMK BIRD HAZARD RWY 28 PP000=
SPZO Mar2020-111030Z VRB01KT 9999 SCT030 BKN100 07/04 Q1033 NOSIG RMK BIRD HAZARD RWY 28=
SPZO Mar2020-111100Z 36001KT 9999 FEW020 SCT036 BKN100 07/04 Q1034 NOSIG RMK BIRD HAZARD RWY 28 PP000=
SPZO Mar2020-111130Z 10004KT 9999 SCT036 OVC080 07/04 Q1034 NOSIG RMK BR BIRD HAZARD RWY 28=
SPZO Mar2020-111200Z 11005KT 9999 SCT036 OVC080 08/05 Q1034 NOSIG RMK BR TN06.3 BIRD HAZARD RWY 28 PP000=
SPZO Mar2020-111230Z VRB02KT 9999 SCT036 BKN080 08/05 Q1034 NOSIG RMK BIRD HAZARD RWY 28=
SPZO Mar2020-111300Z 00000KT 9999 SCT036 BKN080 09/05 Q1034 NOSIG RMK BIRD HAZARD RWY 28 PP000=
SPZO Mar2020-111330Z 00000KT 9999 SCT036 SCT080 13/05 Q1034 NOSIG RMK BIRD HAZARD RWY 28=
SPZO Mar2020-111400Z VRB03KT 9999 SCT036 SCT080 12/05 Q1034 NOSIG RMK BIRD HAZARD RWY 28 PP000=
SPZO Mar2020-111430Z 09007KT 9999 SCT036 13/06 Q1034 NOSIG RMK BIRD HAZARD RWY 28=
SPZO Mar2020-111500Z VRB05KT 9999 SCT036 13/06 Q1034 NOSIG RMK BIRD HAZARD RWY 28 PP000=
SPZO Mar2020-111530Z 10001KT 9999 SCT040 16/04 Q1033 NOSIG RMK BIRD HAZARD RWY 28=
SPZO Mar2020-111600Z 08004KT 010V160 9999 SCT043 16/04 Q1033 NOSIG RMK BIRD HAZARD RWY 28 PP000=
SPZO Mar2020-111630Z 21005KT 150V280 9999 SCT043 SCT080 17/06 Q1032 NOSIG RMK BIRD HAZARD RWY 28=
SPZO Mar2020-111700Z 26004KT 9999 SCT043 SCT080 18/04 Q1031 NOSIG RMK BIRD HAZARD RWY 28 PP000=
SPZO Mar2020-111730Z 04003KT 9999 SCT040 SCT100 17/06 Q1031 NOSIG RMK BIRD HAZARD RWY 28=
SPZO Mar2020-111800Z 04003KT 9999 SCT040 BKN080 16/05 Q1030 NOSIG RMK BIRD HAZARD RWY 28 PP000=
SPZO Mar2020-111830Z 01008KT 9999 VCSH SCT040 SCT100 16/05 Q1030 NOSIG RMK BIRD HAZARD RWY 28=
SPZO Mar2020-111900Z 01001KT 9999 SCT050 BKN100 18/05 Q1029 NOSIG RMK BIRD HAZARD RWY 28 PP000=
SPZO Mar2020-111930Z 36006KT 9999 VCSH SCT040 BKN100 18/04 Q1028 NOSIG RMK BIRD HAZARD RWY 28=
SPZO Mar2020-112000Z 29009KT 9999 SCT050 SCT100 19/04 Q1028 NOSIG RMK BIRD HAZARD RWY 28 PP000=
SPZO Mar2020-112030Z 28011KT 9999 SCT040 SCT100 19/04 Q1027 NOSIG RMK BIRD HAZARD RWY 28=
SPZO Mar2020-112100Z 29010KT 9999 SCT050 SCT100 19/03 Q1027 NOSIG RMK BIRD HAZARD RWY 28 PP000=
SPZO Mar2020-112130Z 27011KT 9999 SCT050 SCT100 16/05 Q1027 NOSIG RMK BIRD HAZARD RWY 28=
SPZO Mar2020-112200Z 28010KT 9999 SCT050 SCT100 16/05 Q1027 NOSIG RMK TX 19.2 BIRD HAZARD RWY 28 PP000=
SPZO Mar2020-112230Z 28006KT 9999 VCSH SCT050 SCT100 16/05 Q1027 NOSIG RMK BIRD HAZARD RWY 28=
SPZO Mar2020-112300Z 27001KT 9999 SCT050 SCT100 17/05 Q1027 NOSIG RMK BIRD HAZARD RWY 28 PP000=
SPZO Mar2020-112330Z 11008KT 9999 SCT050 SCT100 13/06 Q1028 NOSIG RMK BIRD HAZARD RWY 28=
SPZO Mar2020-120000Z 12005KT 9999 FEW050 SCT100 14/06 Q1028 NOSIG RMK BIRD HAZARD RWY 28 PP000=
SPZO Mar2020-120030Z 09002KT 9999 FEW050 SCT100 12/06 Q1028 NOSIG RMK BIRD HAZARD RWY 28=
SPZO Mar2020-120100Z 00000KT 9999 FEW050 SCT100 12/06 Q1029 NOSIG RMK BIRD HAZARD RWY 28 PP000=
SPZO Mar2020-120130Z VRB02KT 9999 SCT050 10/06 Q1029 NOSIG RMK BIRD HAZARD RWY 28=
SPZO Mar2020-120200Z 00000KT 9999 SCT050 10/06 Q1030 NOSIG RMK BIRD HAZARD RWY 28 PP000=
SPZO Mar2020-120230Z VRB02KT 9999 SCT050 10/06 Q1030 NOSIG RMK BIRD HAZARD RWY 28=
SPZO Mar2020-120300Z 00000KT 9999 SCT050 BKN080 11/06 Q1031 NOSIG RMK BIRD HAZARD RWY 28 PP000=
SPZO Mar2020-120400Z 14003KT 9999 SCT046 BKN080 12/06 Q1031 NOSIG RMK BIRD HAZARD RWY 28 PP000=
SPZO Mar2020-120500Z 00000KT 9999 SCT040 BKN080 12/06 Q1031 NOSIG RMK BIRD HAZARD RWY 28 PP000=
SPZO Mar2020-120600Z 00000KT 9999 SCT040 BKN080 11/07 Q1031 NOSIG RMK BIRD HAZARD RWY 28 PP000=
SPZO Mar2020-120700Z 00000KT 9999 SCT040 BKN080 11/06 Q1030 NOSIG RMK BIRD HAZARD RWY 28 PP000=
SPZO Mar2020-120800Z 00000KT 9999 SCT040 BKN080 11/06 Q1030 NOSIG RMK BIRD HAZARD RWY 28 PP000=
SPZO Mar2020-120900Z 00000KT 9999 FEW033 SCT040 BKN080 11/07 Q1029 NOSIG RMK BIRD HAZARD RWY 28 PP000=
SPZO Mar2020-121000Z 10002KT 9999 FEW020 SCT040 BKN080 11/06 Q1030 NOSIG RMK BIRD HAZARD RWY 28 PP000=
SPZO Mar2020-121030Z 10003KT 9999 FEW025 SCT040 BKN080 10/07 Q1030 NOSIG RMK BIRD HAZARD RWY 28=
SPZO Mar2020-121100Z 00000KT 9999 SCT040 BKN080 10/07 Q1030 NOSIG RMK BIRD HAZARD RWY 28 PP000=
SPZO Mar2020-121130Z VRB01KT 9999 SCT040 BKN100 10/06 Q1031 NOSIG RMK BIRD HAZARD RWY 28=
SPZO Mar2020-121200Z VRB02KT 9999 FEW030 SCT050 BKN100 11/06 Q1031 NOSIG RMK TN 7.4 BIRD HAZARD RWY 28 PP000=
SPZO Mar2020-121230Z VRB01KT 9999 FEW030 SCT050 BKN100 12/06 Q1032 NOSIG RMK BIRD HAZARD RWY 28=
SPZO Mar2020-121300Z 00000KT 9999 FEW030 SCT050 BKN100 12/06 Q1032 NOSIG RMK BIRD HAZARD RWY 28 PP000=
SPZO Mar2020-121330Z VRB01KT 9999 SCT050 BKN100 14/07 Q1032 NOSIG RMK BIRD HAZARD RWY 28=
SPZO Mar2020-121400Z 30002KT 9999 SCT050 BKN100 14/05 Q1032 NOSIG RMK BIRD HAZARD RWY 28 PP000=
SPZO Mar2020-121430Z VRB01KT 9999 SCT050 BKN100 15/05 Q1033 NOSIG RMK BIRD HAZARD RWY 28=
SPZO Mar2020-121500Z VRB02KT 9999 SCT050 BKN100 15/05 Q1032 NOSIG RMK BIRD HAZARD RWY 28 PP000=
SPZO Mar2020-121530Z 17002KT 9999 FEW050 SCT100 18/06 Q1032 NOSIG RMK BIRD HAZARD RWY 28=
SPZO Mar2020-121600Z VRB04KT 9999 SCT050 SCT100 17/06 Q1032 NOSIG RMK BIRD HAZARD RWY 28 PP000=
SPZO Mar2020-121630Z VRB02KT 9999 SCT050 SCT100 18/06 Q1031 NOSIG RMK BIRD HAZARD RWY 28=
SPZO Mar2020-121700Z 13001KT 9999 FEW060 SCT100 20/05 Q1031 NOSIG RMK BIRD HAZARD RWY 28 PP000=
SPZO Mar2020-121730Z 10002KT 9999 FEW046 SCT080 20/03 Q1030 NOSIG RMK BIRD HAZARD RWY 28=
SPZO Mar2020-121800Z 20005KT 9999 FEW046 SCT080 21/04 Q1029 NOSIG RMK BIRD HAZARD RWY 28 PP000=
SPZO Mar2020-121830Z 05006KT 350V080 9999 SCT046 SCT080 19/02 Q1028 NOSIG RMK BIRD HAZARD RWY 28=
SPZO Mar2020-121900Z 03005G16KT 9999 FEW040TCU SCT046 BKN080 21/04 Q1028 NOSIG RMK BIRD HAZARD RWY 28 PP000=
SPZO Mar2020-121930Z 02010G20KT 300V050 9999 VCSH FEW040TCU SCT046 BKN080 21/03 Q1027 NOSIG RMK BIRD HAZARD RWY 28=
SPZO Mar2020-122000Z 01010KT 330V070 9999 SCT046 SCT080 19/02 Q1027 NOSIG RMK TCU QUAD S BIRD HAZARD RWY 28 PP000=
SPZO Mar2020-122030Z 02011KT 9999 SCT046 BKN100 19/03 Q1027 NOSIG RMK BIRD HAZARD RWY 28=
SPZO Mar2020-122100Z 01010KT 9999 SCT046 BKN100 18/04 Q1027 NOSIG RMK TCU QUAD S BIRD HAZARD RWY 28 PP000=
SPZO Mar2020-122130Z 35008KT 9999 SCT046 BKN100 17/03 Q1027 NOSIG RMK TCU QUAD S BIRD HAZARD RWY 28=
SPZO Mar2020-122200Z 35011KT 270V020 9999 FEW046 BKN100 16/02 Q1028 NOSIG RMK TX21.3 BIRD HAZARD RWY 28 PP000=
SPZO Mar2020-122230Z 02007KT 330V080 9999 FEW046 BKN100 16/03 Q1028 NOSIG RMK TCU QUAD S BIRD HAZARD RWY 28=
SPZO Mar2020-122300Z 35007KT 260V030 9999 FEW046 BKN100 15/04 Q1028 NOSIG RMK TCU QUAD S BIRD HAZARD RWY 28 PP000=
SPZO Mar2020-122330Z 27010KT 9999 SCT043 BKN080 15/05 Q1029 NOSIG RMK TCU QUAD SE BIRD HAZARD RWY 28=
SPZO Mar2020-130000Z 27006KT 9999 SCT043 BKN080 14/05 Q1029 NOSIG RMK BIRD HAZARD RWY 28 PP000=
SPZO Mar2020-130030Z 32003KT 280V030 9999 SCT043 SCT080 14/05 Q1030 NOSIG RMK BIRD HAZARD RWY 28=
SPZO Mar2020-130100Z 35004KT 9999 SCT043 SCT100 14/05 Q1033 NOSIG RMK BIRD HAZARD RWY 28 PP000=
SPZO Mar2020-130130Z 31006KT 280V020 9999 SCT043 SCT100 13/05 Q1031 NOSIG RMK BIRD HAZARD RWY 28=
SPZO Mar2020-130200Z VRB03KT 9999 SCT043 SCT100 12/05 Q1031 NOSIG RMK BIRD HAZARD RWY 28 PP000=
SPZO Mar2020-130230Z 28003KT 260V360 9999 SCT043 SCT100 11/05 Q1032 NOSIG RMK BIRD HAZARD RWY 28=
SPZO Mar2020-130300Z VRB02KT 9999 SCT043 SCT100 11/06 Q1032 NOSIG RMK BIRD HAZARD RWY 28 PP000=
SPZO Mar2020-130400Z 00000KT 9999 SCT050 11/06 Q1033 RMK PP000=
SPZO Mar2020-130500Z 11002KT 9999 SCT050 11/06 Q1033 RMK PP000=
SPZO Mar2020-130600Z 09004KT 9999 SCT050 11/06 Q1032 RMK PP000=
SPZO Mar2020-130700Z VRB02KT 9999 SCT050 10/06 Q1032 RMK PP000=
SPZO Mar2020-130800Z VRB01KT 9999 SCT050 09/05 Q1032 RMK PP000=
SPZO Mar2020-130900Z 10002KT 9999 SCT050 SCT100 09/06 Q1032 RMK PP000=
SPZO Mar2020-131000Z 30004KT 9999 SCT043 SCT100 07/04 Q1032 NOSIG RMK BIRD HAZARD RW 28 PP000=
SPZO Mar2020-131030Z 10005KT 9999 SCT043 SCT100 08/05 Q1033 NOSIG RMK BIRD HAZARD RWY 28=
SPZO Mar2020-131100Z 10003KT 9999 SCT040 SCT100 08/05 Q1033 NOSIG RMK BR BIRD HAZARD RW 28 PP000=
SPZO Mar2020-131130Z 35002KT 9999 FEW040 SCT100 08/05 Q1033 NOSIG RMK BIRD HAZARD RWY 28=
SPZO Mar2020-131200Z 12002KT 9999 FEW040 SCT100 10/05 Q1033 NOSIG RMK TN07.0 BR QUAD NE BIRD HAZARD RWY 28 PP000=
SPZO Mar2020-131230Z 00000KT 9999 FEW043 13/06 Q1034 NOSIG RMK BIRD HAZARD RWY 28=
SPZO Mar2020-131300Z 00000KT 9999 FEW043 14/06 Q1034 NOSIG RMK BIRD HAZARD RWY 28 PP000=
SPZO Mar2020-131330Z 10004KT 9999 SCT043 15/05 Q1034 NOSIG RMK BIRD HAZARD RWY 28=
SPZO Mar2020-131400Z 08005KT 010V110 9999 SCT043 14/05 Q1034 NOSIG RMK BIRD HAZARD RWY 28 PP000=
SPZO Mar2020-131430Z 04003KT 9999 SCT043 17/05 Q1034 NOSIG RMK BIRD HAZARD RWY 28=
SPZO Mar2020-131500Z 30003KT 9999 SCT046 SCT100 16/05 Q1034 NOSIG RMK BIRD HAZARD RWY 28 PP000=
SPZO Mar2020-131530Z 10006KT 060V150 9999 SCT046 SCT100 16/04 Q1034 NOSIG RMK BIRD HAZARD RWY 28=
SPZO Mar2020-131600Z 11005KT 080V170 9999 SCT046 BKN100 17/04 Q1033 NOSIG RMK BIRD HAZARD RWY 28 PP000=
SPZO Mar2020-131630Z 08004KT 010V120 9999 SCT046 BKN100 16/05 Q1033 NOSIG RMK BIRD HAZARD RWY 28=
SPZO Mar2020-131700Z 02006KT 350V090 9999 FEW040TCU SCT046 BKN080 16/04 Q1033 NOSIG RMK BIRD HAZARD RWY 28 PP000=
SPZO Mar2020-131730Z 08004KT 9999 VCSH SCT050 BKN100 17/06 Q1033 NOSIG RMK BIRD HAZARD RWY 28=
SPZO Mar2020-131800Z 36007KT 9999 SCT050 BKN100 17/06 Q1032 NOSIG RMK BIRD HAZARD RWY 28 PP000=
SPZO Mar2020-131830Z 35007KT 9999 SCT050 BKN100 18/06 Q1031 NOSIG RMK BIRD HAZARD RWY 28=
SPZO Mar2020-131900Z VRB04KT 9999 SCT050 BKN100 18/04 Q1030 NOSIG RMK BIRD HAZARD RWY 28 PP000=
SPZO Mar2020-131930Z 10007KT 9999 SCT050 BKN100 18/06 Q1030 NOSIG RMK BIRD HAZARD RWY 28=
SPZO Mar2020-132000Z 11009KT 9999 SCT050 BKN100 18/06 Q1030 NOSIG RMK BIRD HAZARD RWY 28 PP000=
SPZO Mar2020-132030Z 11007KT 9999 SCT050 BKN100 17/04 Q1029 NOSIG RMK BIRD HAZARD RWY 28=
SPZO Mar2020-132100Z 11007KT 9999 SCT050 BKN100 17/04 Q1029 NOSIG RMK BIRD HAZARD RWY 28 PP000=
SPZO Mar2020-132130Z 13006KT 9999 SCT050 BKN100 17/03 Q1029 NOSIG RMK BIRD HAZARD RWY 28=
SPZO Mar2020-132200Z 10004KT 9999 SCT050 BKN100 16/03 Q1029 NOSIG RMK TX19.2 BIRD HAZARD RWY 28 PP000=
SPZO Mar2020-132230Z 11008KT 9999 SCT050 BKN100 15/05 Q1030 NOSIG RMK BIRD HAZARD RWY 28=
SPZO Mar2020-132300Z 11006KT 9999 SCT050 BKN100 15/05 Q1031 NOSIG RMK BIRD HAZARD RWY 28 PP000=
SPZO Mar2020-140000Z 12005KT 9999 SCT050 BKN100 14/05 Q1031 NOSIG RMK BIRD HAZARD RWY 28 PP000=
SPZO Mar2020-140030Z VRB02KT 9999 SCT050 BKN100 13/05 Q1032 NOSIG RMK BIRD HAZARD RWY 28=
SPZO Mar2020-140100Z 00000KT 9999 SCT050 BKN100 12/05 Q1033 NOSIG RMK BIRD HAZARD RWY 28 PP000=
SPZO Mar2020-140130Z 00000KT 9999 SCT050 BKN100 12/05 Q1033 NOSIG RMK BIRD HAZARD RWY 28=
SPZO Mar2020-140200Z 09002KT 9999 SCT050 BKN100 12/05 Q1034 NOSIG RMK BIRD HAZARD RWY 28 PP000=
SPZO Mar2020-140300Z 11004KT 9999 SCT050 BKN100 11/05 Q1035 NOSIG RMK BIRD HAZARD RWY 28 PP000=
SPZO Mar2020-140400Z 10003KT 9999 SCT050 BKN100 10/05 Q1035 RMK BIRD HAZARD RWY 28 PP000=
SPZO Mar2020-140500Z 11003KT 9999 SCT050 BKN100 10/05 Q1035 RMK BIRD HAZARD RWY 28 PP000=
SPZO Mar2020-140600Z 09003KT 9999 SCT050 BKN100 10/05 Q1035 RMK BIRD HAZARD RWY 28 PP000=
SPZO Mar2020-140700Z 11007KT 9999 SCT050 BKN100 09/05 Q1034 RMK BIRD HAZARD RWY 28 PP000=
SPZO Mar2020-140800Z 09002KT 9999 SCT050 BKN100 08/04 Q1034 RMK BIRD HAZARD RWY 28 PP000=
SPZO Mar2020-140900Z 28007KT 9999 SCT050 BKN100 09/05 Q1034 RMK BIRD HAZARD RWY 28 PP000=
SPZO Mar2020-141000Z 00000KT 9999 SCT050 BKN100 09/05 Q1034 NOSIG RMK BIRD HAZARD RWY 28 PP000=
SPZO Mar2020-141030Z 11003KT 9999 SCT050 BKN080 09/06 Q1034 NOSIG RMK BIRD HAZARD RWY 28=
SPZO Mar2020-141100Z VRB01KT 9999 SCT050 BKN100 09/05 Q1034 NOSIG RMK BIRD HAZARD RWY 28 PP000=
SPZO Mar2020-141130Z 10002KT 9999 FEW050 SCT100 09/06 Q1035 NOSIG RMK BIRD HAZARD RWY 28=
SPZO Mar2020-141200Z 10003KT 9999 FEW060 09/06 Q1035 NOSIG RMK BIRD HAZARD RWY 28 PP000=
SPZO Mar2020-141230Z VRB02KT 9999 FEW050 12/06 Q1036 NOSIG RMK BIRD HAZARD RWY 28=
SPZO Mar2020-141300Z 09002KT 9999 FEW060 13/06 Q1036 NOSIG RMK BIRD HAZARD RWY 28 PP000=
SPZO Mar2020-141330Z VRB03KT 9999 FEW060 15/06 Q1036 NOSIG RMK BIRD HAZARD RWY 28=
SPZO Mar2020-141400Z VRB03KT 9999 FEW060 15/06 Q1036 NOSIG RMK BIRD HAZARD RWY 28 PP000=
SPZO Mar2020-141430Z 09003KT 9999 FEW060 17/06 Q1036 NOSIG RMK BIRD HAZARD RWY 28=
SPZO Mar2020-141500Z 30003KT 9999 SCT080 17/07 Q1036 NOSIG RMK BIRD HAZARD RWY 28 PP000=
SPZO Mar2020-141530Z VRB06KT 9999 SCT100 18/04 Q1035 NOSIG RMK BIRD HAZARD RWY 28=
SPZO Mar2020-141600Z 00000KT 9999 SCT100 18/07 Q1035 NOSIG RMK BIRD HAZARD RWY 28 PP000=
SPZO Mar2020-141630Z VRB05KT 9999 BKN100 18/06 Q1034 NOSIG RMK BIRD HAZARD RWY 28=
SPZO Mar2020-141700Z VRB05KT 9999 BKN100 18/05 Q1034 NOSIG RMK BIRD HAZARD RWY 28 PP000=
SPZO Mar2020-141730Z VRB03KT 9999 FEW050 SCT100 20/06 Q1032 NOSIG RMK BIRD HAZARD RWY 28=
SPZO Mar2020-141800Z VRB04KT 9999 SCT050 21/04 Q1032 NOSIG RMK BIRD HAZARD RWY 28 PP000=
SPZO Mar2020-141830Z 09001KT 9999 SCT050 21/03 Q1030 NOSIG RMK BIRD HAZARD RWY 28=
SPZO Mar2020-141900Z 05002KT 9999 FEW046 SCT080 20/04 Q1030 NOSIG RMK BIRD HAZARD RWY 28 PP000=
SPZO Mar2020-141930Z 03011KT 9999 SCT050 SCT080 20/03 Q1029 NOSIG RMK BIRD HAZARD RWY 28=
SPZO Mar2020-142000Z 02014KT 9999 SCT050 SCT100 19/03 Q1029 NOSIG RMK BIRD HAZARD RWY 28 PP000=
SPZO Mar2020-142030Z 04009KT 9999 SCT050 SCT080 18/02 Q1029 NOSIG RMK BIRD HAZARD RWY 28=
SPZO Mar2020-142100Z VRB03KT 9999 FEW046TCU SCT100 18/03 Q1029 NOSIG RMK BIRD HAZARD RWY 28 PP000=
SPZO Mar2020-142130Z 05003KT 9999 SCT050 SCT100 18/05 Q1029 NOSIG RMK BIRD HAZARD RWY 28=
SPZO Mar2020-142200Z 09004KT 9999 SCT046 SCT100 18/05 Q1029 NOSIG RMK TX21.5 BIRD HAZARD RWY 28 PP000=
SPZO Mar2020-142230Z 29012KT 9999 SCT050 SCT100 15/06 Q1030 NOSIG RMK BIRD HAZARD RWY 28=
SPZO Mar2020-142300Z 28011KT 9999 FEW046 SCT100 15/05 Q1030 NOSIG RMK BIRD HAZARD RWY 28 PP000=
SPZO Mar2020-142330Z 28007KT 9999 SCT046 SCT100 14/05 Q1030 NOSIG RMK BIRD HAZARD RWY 28=
SPZO Mar2020-150000Z 28008KT 9999 SCT046 SCT100 15/06 Q1031 NOSIG RMK BIRD HAZARD RWY 28 PP000=
SPZO Mar2020-150030Z 29008KT 9999 SCT046 SCT100 14/06 Q1032 NOSIG RMK BIRD HAZARD RWY 28=
SPZO Mar2020-150100Z 28007KT 260V350 9999 SCT046 SCT100 14/06 Q1032 NOSIG RMK BIRD HAZARD RWY 28 PP000=
SPZO Mar2020-150130Z 33006KT 270V360 9999 SCT046 SCT100 15/06 Q1033 NOSIG RMK BIRD HAZARD RWY 28=
SPZO Mar2020-150200Z 11002KT 9999 SCT046 SCT100 14/06 Q1033 NOSIG RMK BIRD HAZARD RWY 28 PP000=
SPZO Mar2020-150230Z 29008KT 9999 SCT046 SCT100 14/06 Q1033 NOSIG RMK BIRD HAZARD RWY 28=
SPZO Mar2020-150300Z 30007KT 280V030 9999 SCT046 BKN080 14/06 Q1034 RMK PP000=
SPZO Mar2020-150400Z 29011KT 9999 SCT046 BKN080 14/07 Q1034 RMK PP000=
SPZO Mar2020-150500Z 08011KT 8000 -RA SCT043 BKN080 10/07 Q1034 RMK PP014=
SPZO Mar2020-150600Z 12004KT 090V200 7000 -RA FEW020 SCT040 BKN080 09/07 Q1035 RMK PP036=
SPZO Mar2020-150700Z 07002KT 7000 -RA FEW020 SCT040 BKN080 09/06 Q1034 RMK PP028=
SPZO Mar2020-150800Z 09004KT 6000 -RA SCT015 SCT036 OVC080 09/07 Q1034 RMK CLNG BLW 1200M PP008=
SPZO Mar2020-150900Z 10003KT 5000 -RA BR SCT015 SCT036 OVC070 09/07 Q1034 RMK CLNG BLW 1200M BIRD HAZARD RWY 28 PP022=
SPZO Mar2020-151000Z 10005KT 5000 -RA BR SCT015 SCT036 OVC070 09/07 Q1034 NOSIG RMK CLNG BLW 1200M BIRD HAZARD RWY 28 PP010=
SPZO Mar2020-151030Z 10002KT 5000 -RA BR SCT015 SCT036 OVC070 09/07 Q1034 NOSIG RMK CLNG BLW 1200M BIRD HAZARD RWY 28=
SPZO Mar2020-151100Z 00000KT 5000 -RA BR SCT015 SCT036 OVC070 09/07 Q1035 NOSIG RMK CLNG BLW 1200M BIRD HAZARD RWY 28 PP014=
SPZO Mar2020-151130Z 09003KT 5000 -RA BR SCT015 SCT036 OVC070 09/07 Q1035 NOSIG RMK CLNG BLW 1200M BIRD HAZARD RWY 28=
SPZO Mar2020-151200Z 00000KT 7000 -DZ FEW015 SCT036 OVC080 09/07 Q1035 NOSIG RMK TN8.6 CLNG BLW 1200M BIRD HAZARD RWY 28 PP006=
SPZO Mar2020-151230Z 00000KT 9000 FEW015 SCT036 OVC080 09/07 Q1035 NOSIG RMK CLNG BLW 1200M BIRD HAZARD RWY 28=
SPZO Mar2020-151300Z VRB02KT 9999 FEW015 SCT033 BKN080 10/08 Q1035 NOSIG RMK BIRD HAZARD RWY 28 PP006=
SPZO Mar2020-151330Z 32002KT 9999 FEW015 SCT030 BKN080 11/06 Q1036 NOSIG RMK BIRD HAZARD RWY 28=
SPZO Mar2020-151400Z VRB02KT 9999 SCT030 BKN080 13/07 Q1036 NOSIG RMK BIRD HAZARD RWY 28 PP000=
SPZO Mar2020-151430Z 09002KT 9999 SCT030 BKN080 14/07 Q1036 NOSIG RMK BIRD HAZARD RWY 28=
SPZO Mar2020-151500Z 05003KT 9999 SCT036 BKN100 15/06 Q1036 NOSIG RMK BIRD HAZARD RWY 28 PP000=
SPZO Mar2020-151530Z 00000KT 9999 SCT036 BKN100 16/08 Q1035 NOSIG RMK BIRD HAZARD RWY 28=
SPZO Mar2020-151600Z VRB02KT 9999 SCT040 BKN100 16/08 Q1035 NOSIG RMK BIRD HAZARD RWY 28 PP000=
SPZO Mar2020-151630Z VRB02KT 9999 SCT040 BKN100 17/07 Q1034 NOSIG RMK BIRD HAZARD RWY 28=
SPZO Mar2020-151700Z 00000KT 9999 SCT046 BKN100 18/06 Q1034 NOSIG RMK BIRD HAZARD RWY 28 PP000=
SPZO Mar2020-151730Z VRB03KT 9999 SCT046 SCT100 19/06 Q1032 NOSIG RMK BIRD HAZARD RWY 28=
SPZO Mar2020-151800Z VRB04KT 9999 SCT046 SCT100 19/05 Q1032 NOSIG RMK BIRD HAZARD RWY 28 PP000=
SPZO Mar2020-151830Z 01006KT 280V060 9999 SCT046 SCT100 19/05 Q1031 NOSIG RMK BIRD HAZARD RWY 28=
SPZO Mar2020-151900Z VRB03KT 9999 SCT050 SCT100 20/05 Q1030 NOSIG RMK BIRD HAZARD RWY 28 PP000=
SPZO Mar2020-151930Z VRB03KT 9999 SCT050 21/07 Q1029 NOSIG RMK BIRD HAZARD RWY 28=
SPZO Mar2020-152000Z 31005KT 270V360 9999 SCT050 21/06 Q1028 NOSIG RMK BIRD HAZARD RWY 28 PP000=
SPZO Mar2020-152030Z 22002KT 9999 SCT050 SCT100 21/06 Q1028 NOSIG RMK BIRD HAZARD RWY 28=
SPZO Mar2020-152100Z 11004KT 080V170 9999 SCT050 SCT100 20/05 Q1027 NOSIG RMK BIRD HAZARD RWY 28 PP000=
SPZO Mar2020-152130Z 29003KT 260V010 9999 SCT050 SCT100 19/07 Q1027 NOSIG RMK BIRD HAZARD RWY 28=
SPZO Mar2020-152200Z 35006KT 270V030 9999 SCT050 SCT100 20/05 Q1027 NOSIG RMK TX21.6 BIRD HAZARD RWY 28 PP000=
SPZO Mar2020-152230Z 01007KT 9999 SCT050 SCT100 19/06 Q1027 NOSIG RMK BIRD HAZARD RWY 28=
SPZO Mar2020-152300Z 02010KT 9999 SCT050 SCT100 17/05 Q1028 NOSIG RMK BIRD HAZARD RWY 28 PP000=
SPZO Mar2020-152330Z 01009KT 9999 FEW040TCU SCT060 BKN100 16/03 Q1029 NOSIG RMK BIRD HAZARD RWY 28=
SPZO Mar2020-160000Z 34010KT 9999 TS FEW040CB SCT050TCU BKN100 16/03 Q1029 NOSIG RMK BIRD HAZARD RWY 28 PP000=
SPZO Mar2020-160030Z VRB03KT 9999 SCT050 BKN100 15/02 Q1030 NOSIG RMK BIRD HAZARD RWY 28=
SPZO Mar2020-160100Z 09005KT 9999 SCT050 BKN100 14/05 Q1031 NOSIG RMK BIRD HAZARD RWY 28 PP000=
SPZO Mar2020-160130Z 10007KT 9999 SCT050 BKN100 14/05 Q1032 NOSIG RMK BIRD HAZARD RWY 28=
SPZO Mar2020-160200Z 09005KT 9999 SCT050 BKN100 13/05 Q1033 NOSIG RMK BIRD HAZARD RWY 28 PP000=
SPZO Mar2020-160300Z 12003KT 9999 SCT050 BKN100 13/05 Q1033 NOSIG RMK BIRD HAZARD RWY 28 PP000=
SPZO Mar2020-160400Z VRB04KT 9999 SCT050 BKN100 12/05 Q1034 RMK BIRD HAZARD RWY 28 PP000=
SPZO Mar2020-160500Z 10004KT 9999 SCT050 BKN100 11/05 Q1033 RMK BIRD HAZARD RWY 28 PP000=
SPZO Mar2020-160600Z 09002KT 9999 SCT050 BKN100 11/06 Q1033 RMK BIRD HAZARD RWY 28 PP000=
SPZO Mar2020-160700Z 11002KT 9999 SCT050 BKN100 11/07 Q1032 RMK BIRD HAZARD RWY 28 PP000=
SPZO Mar2020-160800Z 10003KT 9999 SCT050 BKN100 11/07 Q1032 RMK BIRD HAZARD RWY 28 PP000=
SPZO Mar2020-160900Z 09002KT 9999 SCT050 BKN100 10/08 Q1032 RMK BIRD HAZARD RWY 28 PP000=
SPZO Mar2020-161000Z 00000KT 9999 SCT050 BKN100 10/08 Q1032 NOSIG RMK BIRD HAZARD RWY 28 PP000=
SPZO Mar2020-161030Z 10003KT 9999 SCT050 BKN100 10/08 Q1032 NOSIG RMK BIRD HAZARD RWY 28=
SPZO Mar2020-161100Z 09003KT 9999 SCT030 SCT060 BKN100 10/08 Q1033 NOSIG RMK BIRD HAZARD RWY 28 PP000=
SPZO Mar2020-161130Z 10003KT 9000 -DZ FEW020 SCT033 OVC060 10/08 Q1033 NOSIG RMK BR BIRD HAZARD RWY 28=
SPZO Mar2020-161200Z 12005KT 090V180 8000 DZ VCSH FEW020 SCT033 OVC060 10/08 Q1034 NOSIG RMK BR TN08.9 BIRD HAZARD RWY 28 PP004=
SPZO Mar2020-161220Z 10005KT 6000 DZ VCSH SCT015 SCT033 OVC060 10/08 Q1034 NOSIG RMK BR CLNG BLW 1200M BIRD HAZARD RWY 28=
SPZO Mar2020-161230Z 10004KT 6000 DZ VCSH SCT015 SCT030 OVC060 10/08 Q1034 NOSIG RMK BR CLNG BLW 1200M BIRD HAZARD RWY 28=
SPZO Mar2020-161300Z 10006KT 6000 -RA VCSH SCT010 SCT030 OVC060 10/08 Q1034 NOSIG RMK BR CLNG BLW 1200M BIRD HAZARD RWY 28 PP012=
SPZO Mar2020-161330Z 11009KT 6000 -RA VCSH SCT010 SCT030 OVC060 10/07 Q1035 NOSIG RMK BR CLNG BLW 1200M BIRD HAZARD RWY 28=
SPZO Mar2020-161400Z 12008KT 8000 -RA VCSH SCT010 SCT030 OVC070 10/07 Q1035 NOSIG RMK BR CLNG BLW 1200M BIRD HAZARD RWY 28 PP010=
SPZO Mar2020-161430Z 11008KT 090V180 9000 -RA FEW015 SCT036 OVC070 10/07 Q1035 NOSIG RMK BR BIRD HAZARD RWY 28=
SPZO Mar2020-161500Z 12007KT 100V180 9000 DZ FEW015 SCT036 OVC070 10/06 Q1035 NOSIG RMK BIRD HAZARD RWY 28 PP008=
SPZO Mar2020-161530Z 11007KT 9000 DZ VCSH FEW015 SCT036 OVC070 11/07 Q1035 NOSIG RMK BIRD HAZARD RWY 28=
SPZO Mar2020-161600Z 09008KT 9000 -DZ FEW015 SCT036 OVC070 11/08 Q1035 NOSIG RMK BIRD HAZARD RWY 28 PP002=
SPZO Mar2020-161630Z 11009KT 9999 -DZ FEW020 SCT036 OVC070 12/06 Q1034 NOSIG RMK VIS 9000 QUAD E BIRD HAZARD RWY 28=
SPZO Mar2020-161700Z 12007KT 090V190 9999 -DZ FEW025 SCT036 OVC070 13/08 Q1034 NOSIG RMK BIRD HAZARD RWY 28 PPTRZ=
SPZO Mar2020-161730Z 10005KT 9999 FEW020 SCT040 OVC100 13/06 Q1033 NOSIG RMK BIRD HAZARD RWY 28=
SPZO Mar2020-161800Z 11005KT FEW020 SCT040 OVC100 13/06 Q1033 NOSIG RMK BIRD HAZARD RWY 28 PP000=
SPZO Mar2020-161830Z VRB01KT 9999 FEW020 SCT040 OVC100 14/05 Q1032 NOSIG RMK BIRD HAZARD RWY 28=
SPZO Mar2020-161900Z VRB02KT 9999 FEW020 SCT040 OVC100 14/06 Q1031 NOSIG RMK BIRD HAZARD RWY 28 PP000=
SPZO Mar2020-161930Z 13001KT 9999 FEW020 SCT040 OVC100 16/07 Q1030 NOSIG RMK BIRD HAZARD RWY 28=
SPZO Mar2020-162000Z VRB02KT 9999 SCT060 BKN100 16/07 Q1029 NOSIG RMK BIRD HAZARD RWY 28 PP000=
SPZO Mar2020-162030Z VRB01KT 9999 SCT060 SCT100 17/07 Q1029 NOSIG RMK BIRD HAZARD RWY 28=
SPZO Mar2020-162100Z 30001KT 9999 SCT060 BKN100 17/05 Q1028 NOSIG RMK BIRD HAZARD RWY 28 PP000=
SPZO Mar2020-162130Z 10003KT 9999 SCT060 SCT100 17/04 Q1028 NOSIG RMK BIRD HAZARD RWY 28=
SPZO Mar2020-162200Z VRB01KT 9999 SCT060 SCT100 17/04 Q1028 NOSIG RMK TX 17.8 BIRD HAZARD RWY 28 PP000=
SPZO Mar2020-162230Z 10002KT 9999 SCT040 SCT100 16/05 Q1028 NOSIG RMK BIRD HAZARD RWY 28=
SPZO Mar2020-162300Z VRB03KT 9999 SCT040 SCT100 16/06 Q1028 NOSIG RMK BIRD HAZARD RWY 28 PP000=
SPZO Mar2020-162330Z 00000KT 9999 FEW040 SCT100 13/07 Q1029 NOSIG RMK BIRD HAZARD RWY 28=
SPZO Mar2020-170000Z 28003KT 9999 FEW040 SCT100 13/07 Q1030 NOSIG RMK BIRD HAZARD RWY 28 PP000=
SPZO Mar2020-170030Z 28006KT 9999 FEW040 BKN100 13/08 Q1030 NOSIG RMK BIRD HAZARD RWY 28=
SPZO Mar2020-170100Z 29005KT 9999 SCT046 BKN080 12/07 Q1030 NOSIG RMK BIRD HAZARD RWY 28 PP000=
SPZO Mar2020-170130Z 05002KT 9999 SCT046 SCT080 12/07 Q1031 NOSIG RMK BIRD HAZARD RWY 28=
SPZO Mar2020-170200Z 03003KT 9999 SCT046 SCT080 12/07 Q1031 NOSIG RMK BIRD HAZARD RWY 28 PP000=
SPZO Mar2020-170230Z 00000KT 9999 SCT046 BKN100 11/07 Q1031 NOSIG RMK BIRD HAZARD RWY 28=
SPZO Mar2020-170300Z 28005KT 9999 SCT046 BKN100 11/07 Q1031 NOSIG RMK BIRD HAZARD RWY 28 PP000=
SPZO Mar2020-170400Z 03001KT 9999 SCT046 BKN100 12/06 Q1032 RMK BIRD HAZARD RWY 28 PP000=
SPZO Mar2020-170500Z 03005KT 9000 -RA SCT040 BKN080 12/08 Q1032 RMK BIRD HAZARD RWY 28 PP016=
SPZO Mar2020-170600Z 11012KT 6000 +RA FEW020 SCT036 OVC080 08/06 Q1033 RMK BIRD HAZARD RWY 28 PP062=
SPZO Mar2020-170700Z 11006KT 7000 RA FEW020 SCT033 OVC080 06/04 Q1032 RMK CLNG BLW 1200M BIRD HAZARD RWY 28 PP036=
SPZO Mar2020-170800Z 11006KT 7000 RA FEW020 SCT033 OVC080 06/04 Q1032 RMK CLNG BLW 1200M BIRD HAZARD RWY 28 PP036=
SPZO Mar2020-170900Z 11007KT 9000 FEW020 SCT033 OVC080 06/04 Q1032 RMK CLNG BLW 1200M BIRD HAZARD RWY 28 PP000=
SPZO Mar2020-171000Z 11006KT 9000 FEW020 SCT033 OVC080 06/04 Q1033 RMK BIRD HAZARD RWY 28 PP000=
SPZO Mar2020-171030Z 10004KT 9999 FEW020 SCT040 OVC100 06/04 Q1033 NOSIG RMK BR BIRD HAZARD RWY 28=
SPZO Mar2020-171100Z 10003KT 9999 FEW020 SCT050 OVC100 06/04 Q1033 NOSIG RMK BIRD HAZARD RWY 28 PP000=
SPZO Mar2020-171130Z 00000KT 9999 SCT040 BKN100 07/04 Q1033 NOSIG RMK BR BIRD HAZARD RWY 28=
SPZO Mar2020-171200Z 11003KT 9999 SCT040 BKN100 07/04 Q1034 NOSIG RMK BIRD HAZARD RWY 28 PP000=
SPZO Mar2020-171230Z 14001KT 9999 SCT040 BKN100 08/04 Q1034 NOSIG RMK BR BIRD HAZARD RWY 28=
SPZO Mar2020-171300Z 00000KT 9999 SCT040 BKN100 09/04 Q1035 NOSIG RMK BIRD HAZARD RWY 28 PP000=
SPZO Mar2020-171330Z 07003KT 9999 SCT040 BKN100 09/04 Q1033 NOSIG RMK BIRD HAZARD RWY 28=
SPZO Mar2020-171400Z 06001KT 9999 SCT040 BKN100 11/05 Q1035 NOSIG RMK BIRD HAZARD RWY 28 PP000=
SPZO Mar2020-171430Z 17001KT 9999 SCT040 BKN100 12/06 Q1035 NOSIG RMK BIRD HAZARD RWY 28=
SPZO Mar2020-171500Z 12002KT 9999 FEW050 SCT100 13/07 Q1035 NOSIG RMK BIRD HAZARD RWY 28 PP000=
SPZO Mar2020-171530Z VRB03KT 9999 FEW050 SCT100 14/06 Q1034 NOSIG RMK BIRD HAZARD RWY 28=
SPZO Mar2020-171600Z VRB02KT 9999 FEW050 SCT100 15/05 Q1034 NOSIG RMK BIRD HAZARD RWY 28 PP000=
SPZO Mar2020-171630Z 08003KT 9999 FEW050 SCT100 16/07 Q1033 NOSIG RMK BIRD HAZARD RWY 28=
SPZO Mar2020-171700Z VRB05KT 9999 FEW050 SCT100 16/06 Q1032 NOSIG RMK BIRD HAZARD RWY 28 PP000=
SPZO Mar2020-171730Z 10005KT 9999 SCT050 BKN100 17/04 Q1032 NOSIG RMK BIRD HAZARD RWY 28=
SPZO Mar2020-171800Z 10005KT 9999 SCT050 BKN100 17/04 Q1032 NOSIG RMK BIRD HAZARD RWY 28 PP000=
SPZO Mar2020-171830Z 14003KT 9999 SCT050 BKN100 18/04 Q1030 NOSIG RMK BIRD HAZARD RWY 28=
SPZO Mar2020-171900Z 11006KT 9999 SCT050 BKN100 18/02 Q1029 NOSIG RMK BIRD HAZARD RWY 28 PP000=
SPZO Mar2020-171930Z 13005KT 9999 SCT050 BKN100 19/05 Q1029 NOSIG RMK BIRD HAZARD RWY 28=
SPZO Mar2020-172000Z VRB02KT 9999 SCT050 BKN100 19/05 Q1028 NOSIG RMK BIRD HAZARD RWY 28 PP000=
SPZO Mar2020-172030Z 08001KT 9999 SCT050 BKN100 19/05 Q1028 NOSIG RMK BIRD HAZARD RWY 28=
SPZO Mar2020-172100Z 28003KT 9999 SCT050 BKN100 20/05 Q1027 NOSIG RMK BIRD HAZARD RWY 28 PP000=
SPZO Mar2020-172130Z 01008KT 9999 FEW050 BKN100 19/03 Q1027 NOSIG RMK BIRD HAZARD RWY 28=
SPZO Mar2020-172200Z 02009KT 9999 FEW050 BKN100 18/03 Q1027 NOSIG RMK TX20.2 BIRD HAZARD RWY 28 PP000=
SPZO Mar2020-172230Z 02011KT 9999 FEW050 BKN100 17/02 Q1027 NOSIG RMK BIRD HAZARD RWY 28=
SPZO Mar2020-172300Z 02011KT 9999 BKN120 16/03 Q1028 NOSIG RMK BIRD HAZARD RWY 28 PP000=
SPZO Mar2020-180000Z 26002KT 9999 FEW043 SCT080 15/02 Q1029 RMK PP000=
SPZO Mar2020-180030Z 26003KT 9999 FEW043 SCT080 14/05 Q1029 RMK BIRD HAZARD RWY 28=
SPZO Mar2020-180100Z 10005KT 9999 SCT060 12/06 Q1030 RMK BIRD HAZARD RWY 28 PP000=
SPZO Mar2020-180130Z 12001KT 9999 SCT060 11/05 Q1031 RMK BIRD HAZARD RWY 28=
SPZO Mar2020-180200Z VRB02KT 9999 SCT060 11/05 Q1031 RMK BIRD HAZARD RWY 28 PP000=
SPZO Mar2020-180230Z VRB01KT 9999 SCT060 10/05 Q1031 RMK BIRD HAZARD RWY 28=
SPZO Mar2020-180300Z 09003KT 9999 SCT060 10/05 Q1032 RMK BIRD HAZARD RWY 28 PP000=
SPZO Mar2020-180400Z 29005KT 9999 SCT060 08/04 Q1032 RMK PP000=
SPZO Mar2020-180500Z 00000KT 9999 SCT060 09/05 Q1032 RMK PP000=
SPZO Mar2020-180600Z VRB02KT 9999 FEW050 SCT100 10/06 Q1031 RMK PP000=
SPZO Mar2020-180700Z 11001KT 9999 FEW050 SCT100 09/06 Q1031 RMK PP000=
SPZO Mar2020-180800Z 10003KT 9999 FEW050 SCT100 09/06 Q1031 RMK PP000=
SPZO Mar2020-180900Z 09002KT 9999 SCT043 SCT080 08/05 Q1031 RMK PP000=
SPZO Mar2020-181000Z VRB01KT 9999 SCT043 BKN080 09/06 Q1031 RMK BIRD HAZARD RWY 28 PP000=
SPZO Mar2020-181030Z 29002KT 9999 SCT043 BKN080 08/05 Q1031 RMK BR BIRD HAZARD RWY 28=
SPZO Mar2020-181100Z 10004KT 9999 SCT040 BKN080 08/06 Q1032 RMK BR BIRD HAZARD RWY 28 PP000=
SPZO Mar2020-181130Z VRB02KT 9999 SCT040 BKN080 09/06 Q1032 RMK BR BIRD HAZARD RWY 28=
SPZO Mar2020-181200Z 17002KT 9999 SCT046 BKN100 10/06 Q1033 NOSIG RMK BIRD HAZARD RWY 28 PP000=
SPZO Mar2020-181230Z 00000KT 9999 SCT046 BKN100 11/06 Q1033 NOSIG RMK BR BIRD HAZARD RWY 28=
SPZO Mar2020-181300Z 00000KT 9999 SCT046 BKN100 11/06 Q1033 NOSIG RMK BIRD HAZARD RWY 28 PP000=
SPZO Mar2020-181330Z 33002KT 9999 SCT046 BKN100 13/04 Q1034 NOSIG RMK BIRD HAZARD RWY 28=
SPZO Mar2020-181400Z 00000KT 9999 SCT046 BKN100 14/06 Q1034 NOSIG RMK BIRD HAZARD RWY 28 PP000=
SPZO Mar2020-181430Z 00000KT 9999 SCT040 BKN100 14/07 Q1034 NOSIG RMK BIRD HAZARD RWY 28=
SPZO Mar2020-181500Z 00000KT 9999 SCT040 BKN100 15/07 Q1034 NOSIG RMK BIRD HAZARD RWY 28 PP000=
SPZO Mar2020-181530Z 00000KT 9999 SCT040 BKN100 15/05 Q1033 NOSIG RMK BIRD HAZARD RWY 28=
SPZO Mar2020-181600Z 14002KT 9999 SCT040 BKN100 15/06 Q1033 NOSIG RMK BIRD HAZARD RWY 28 PP000=
SPZO Mar2020-181630Z VRB02KT 9999 VCSH SCT043 BKN100 16/08 Q1033 NOSIG RMK BIRD HAZARD RWY 28=
SPZO Mar2020-181700Z 09004KT 360V150 9999 VCSH SCT040 FEW050TCU BKN100 16/06 Q1032 NOSIG RMK BIRD HAZARD RWY 28 PP000=
SPZO Mar2020-181730Z 13006KT 9999 VCSH SCT050 BKN100 17/07 Q1032 NOSIG RMK BIRD HAZARD RWY 28=
SPZO Mar2020-181800Z 11005KT 9999 SCT050 BKN100 15/08 Q1031 NOSIG RMK BIRD HAZARD RWY 28 PP000=
SPZO Mar2020-181830Z 11006KT 9999 SCT050 BKN100 16/08 Q1030 NOSIG RMK BIRD HAZARD RWY 28=
SPZO Mar2020-181900Z 14005KT 9999 SCT050 BKN100 18/08 Q1030 NOSIG RMK BIRD HAZARD RWY 28 PP000=
SPZO Mar2020-181930Z 10008KT 9999 SCT050 BKN100 19/06 Q1029 NOSIG RMK BIRD HAZARD RWY 28=
SPZO Mar2020-182000Z 06009KT 9999 SCT050 BKN100 17/05 Q1029 NOSIG RMK BIRD HAZARD RWY 28 PP000=
SPZO Mar2020-182030Z 05007KT 9999 FEW050 BKN100 17/05 Q1029 NOSIG RMK BIRD HAZARD RWY 28=
SPZO Mar2020-182100Z 05004KT 9999 FEW050 BKN100 17/06 Q1029 NOSIG RMK BIRD HAZARD RWY 28 PP000=
SPZO Mar2020-182130Z VRB04KT 9999 FEW050 SCT100 17/06 Q1029 NOSIG RMK BIRD HAZARD RWY 28=
SPZO Mar2020-182200Z 11008KT 9999 FEW050 SCT100 15/06 Q1029 NOSIG RMK BIRD HAZARD RWY 28 PP000=
SPZO Mar2020-182230Z 12008KT 9999 FEW100 15/06 Q1029 NOSIG RMK BIRD HAZARD RWY 28=
SPZO Mar2020-182300Z 11007KT 9999 NSC 14/06 Q1029 NOSIG RMK BIRD HAZARD RWY 28 PP000=
SPZO Mar2020-191200Z 00000KT 9999 SCT043 BKN080 09/06 Q1034 NOSIG RMK TN06.6 BIRD HAZARD RWY 28 PP000=
SPZO Mar2020-191230Z VRB01KT 9999 SCT043 BKN080 10/06 Q1034 NOSIG RMK BIRD HAZARD RWY 28=
SPZO Mar2020-191300Z VRB01KT 9999 SCT043 BKN080 11/06 Q1034 NOSIG RMK BIRD HAZARD RWY 28 PP000=
SPZO Mar2020-191330Z VRB02KT 9999 SCT043 BKN080 14/07 Q1034 NOSIG RMK BIRD HAZARD RWY 28=
SPZO Mar2020-191400Z 31002KT 9999 SCT043 SCT080 15/06 Q1034 NOSIG RMK BIRD HAZARD RWY 28 PP000=
SPZO Mar2020-191430Z VRB01KT 9999 SCT043 SCT080 15/06 Q1034 NOSIG RMK BIRD HAZARD RWY 28=
SPZO Mar2020-191500Z 08001KT 9999 SCT043 17/06 Q1034 NOSIG RMK BIRD HAZARD RWY 28 PP000=
SPZO Mar2020-191530Z 07005KT 010V120 9999 SCT043 16/06 Q1033 NOSIG RMK BIRD HAZARD RWY 28=
SPZO Mar2020-191600Z 08001KT 9999 SCT046 SCT100 17/05 Q1033 NOSIG RMK BIRD HAZARD RWY 28 PP000=
SPZO Mar2020-191630Z VRB02KT 9999 SCT046 SCT100 18/06 Q1031 NOSIG RMK BIRD HAZARD RWY 28=
SPZO Mar2020-191700Z 18001KT 9999 SCT046 SCT100 20/05 Q1031 NOSIG RMK BIRD HAZARD RWY 28 PP000=
SPZO Mar2020-191730Z VRB02KT 9999 SCT046 SCT100 19/06 Q1030 NOSIG RMK BIRD HAZARD RWY 28=
SPZO Mar2020-191800Z 03006KT 360V100 9999 SCT046 SCT100 21/06 Q1029 NOSIG RMK BIRD HAZARD RWY 28 PP000=
SPZO Mar2020-191830Z 36007KT 350V090 9999 SCT046 SCT100 22/05 Q1028 NOSIG RMK TCU NW BIRD HAZARD RWY 28=
SPZO Mar2020-191900Z 09012KT 9999 SCT046 SCT080 22/07 Q1028 NOSIG RMK TCU QUAD S BIRD HAZARD RWY 28 PP000=
SPZO Mar2020-191930Z 17010KT 090V210 9999 SCT046 SCT080 18/06 Q1027 NOSIG RMK BIRD HAZARD RWY 28=
SPZO Mar2020-192000Z 18009KT 110V210 9999 SCT046 BKN080 18/06 Q1027 NOSIG RMK TCU QUAD SW BIRD HAZARD RWY 28 PP000=
SPZO Mar2020-192030Z VRB03KT 9999 SCT046 BKN080 18/06 Q1027 NOSIG RMK TCU QUAD SW BIRD HAZARD RWY 28=
SPZO Mar2020-192100Z 27004KT 190V300 9999 SCT046 SCT080 20/06 Q1027 NOSIG RMK BIRD HAZARD RWY 28 PP000=
SPZO Mar2020-192130Z 27009KT 9999 SCT046 SCT100 18/06 Q1027 NOSIG RMK BIRD HAZARD RWY 28=
SPZO Mar2020-192200Z 34006KT 280V030 9999 SCT046 SCT100 18/05 Q1027 NOSIG RMK TX22.8 BIRD HAZARD RWY 28 PP000=
SPZO Mar2020-192230Z 36005KT 280V020 9999 SCT046 SCT100 18/04 Q1028 NOSIG RMK BIRD HAZARD RWY 28=
SPZO Mar2020-192300Z VRB02KT 9999 FEW050 SCT100 17/04 Q1028 NOSIG RMK BIRD HAZARD RWY 28 PP000=
SPZO Mar2020-201300Z VRB01KT 9999 SCT100 12/06 Q1033 NOSIG RMK BIRD HAZARD RWY 28 PP000=
SPZO Mar2020-201330Z 10002KT 9999 SCT100 10/06 Q1033 NOSIG RMK BIRD HAZARD RWY 28=
SPZO Mar2020-201400Z 28001KT 9999 FEW100 14/05 Q1033 NOSIG RMK BIRD HAZARD RWY 28 PP000=
SPZO Mar2020-201430Z 05001KT 9999 FEW100 17/06 Q1032 NOSIG RMK BIRD HAZARD RWY 28=
SPZO Mar2020-201500Z 09002KT 9999 FEW100 17/06 Q1032 NOSIG RMK BIRD HAZARD RWY 28 PP000=
SPZO Mar2020-201530Z VRB02KT 9999 BKN100 17/07 Q1032 NOSIG RMK BIRD HAZARD RWY 28=
SPZO Mar2020-201600Z VRB02KT 9999 FEW040 BKN080 17/05 Q1031 NOSIG RMK BIRD HAZARD RWY 28 PP000=
SPZO Mar2020-201630Z 10003KT 9999 VCSH FEW040 SCT050 BKN100 17/06 Q1031 NOSIG RMK BIRD HAZARD RWY 28=
SPZO Mar2020-201700Z 09004KT 9999 VCSH FEW040 SCT050 BKN100 17/07 Q1030 NOSIG RMK BIRD HAZARD RWY 28 PP000=
SPZO Mar2020-201730Z 08007KT 9999 FEW040TCU SCT050 BKN100 17/04 Q1029 NOSIG RMK BIRD HAZARD RWY 28=
SPZO Mar2020-201800Z 10006KT 9999 FEW040TCU SCT050 BKN100 18/06 Q1029 NOSIG RMK BIRD HAZARD RWY 28 PP000=
SPZO Mar2020-201830Z 35006KT 9999 VCSH FEW040TCU SCT050 BKN100 16/06 Q1029 NOSIG RMK BIRD HAZARD RWY 28=
SPZO Mar2020-201900Z 28012KT 9999 VCSH FEW040TCU SCT050 BKN100 16/06 Q1029 NOSIG RMK BIRD HAZARD RWY 28 PP000=
SPZO Mar2020-201930Z 28006KT 9999 VCSH SCT050 BKN100 17/05 Q1027 NOSIG RMK BIRD HAZARD RWY 28=
SPZO Mar2020-202000Z VRB03KT 9999 SCT050 BKN100 19/03 Q1027 NOSIG RMK BIRD HAZARD RWY 28 PP000=
SPZO Mar2020-202030Z 32004KT 9999 SCT050 SCT100 20/05 Q1026 NOSIG RMK BIRD HAZARD RWY 28=
SPZO Mar2020-202100Z 02010KT 9999 SCT050 BKN100 18/05 Q1026 NOSIG RMK BIRD HAZARD RWY 28 PP000=
SPZO Mar2020-202130Z 28009KT 9999 SCT050 BKN100 16/06 Q1026 NOSIG RMK BIRD HAZARD RWY 28=
SPZO Mar2020-202200Z 28006KT 9999 SCT050 BKN100 16/05 Q1026 NOSIG RMK BIRD HAZARD RWY 28 PP000=
SPZO Mar2020-202230Z 33004KT 9999 BKN100 16/04 Q1026 NOSIG RMK BIRD HAZARD RWY 28=
SPZO Mar2020-202300Z 35004KT 9999 BKN100 15/06 Q1027 NOSIG RMK BIRD HAZARD RWY 28 PP000=
SPZO Mar2020-211200Z 17001KT 9999 FEW020 OVC100 09/06 Q1032 NOSIG RMK BIRD HAZARD RWY 28 PP030=
SPZO Mar2020-211230Z 26002KT 9999 SCT020 OVC100 09/06 Q1032 NOSIG RMK BIRD HAZARD RWY 28=
SPZO Mar2020-211300Z 30002KT 9999 SCT020 OVC100 10/06 Q1032 NOSIG RMK BIRD HAZARD RWY 28 PP000=
SPZO Mar2020-211330Z 00000KT 9999 SCT025 BKN100 11/07 Q1032 NOSIG RMK BIRD HAZARD RWY 28=
SPZO Mar2020-211400Z 25002KT 9999 FEW025 BKN100 12/05 Q1032 NOSIG RMK BIRD HAZARD RWY 28 PP000=
SPZO Mar2020-211430Z 07002KT 9999 FEW025 BKN100 13/05 Q1032 NOSIG RMK BIRD HAZARD RWY 28=
SPZO Mar2020-211500Z 04002KT 9999 FEW025 BKN120 15/06 Q1032 NOSIG RMK BIRD HAZARD RWY 28 PP000=
SPZO Mar2020-211530Z 09005KT 9999 FEW030 BKN100 14/05 Q1031 NOSIG RMK BIRD HAZARD RWY 28=
SPZO Mar2020-211600Z 10004KT 9999 FEW030 BKN100 14/05 Q1031 NOSIG RMK BIRD HAZARD RWY 28 PP000=
SPZO Mar2020-211630Z 10004KT 9999 SCT040 BKN100 14/05 Q1030 NOSIG RMK BIRD HAZARD RWY 28=
SPZO Mar2020-211700Z 08002KT 9999 SCT040 BKN100 14/07 Q1030 NOSIG RMK BIRD HAZARD RWY 28 PP000=
SPZO Mar2020-211730Z 00000KT 9999 SCT040 BKN100 15/05 Q1029 NOSIG RMK TCU QUAD NW BIRD HAZARD RWY 28=
SPZO Mar2020-211800Z 15003KT 9999 SCT040 BKN100 16/06 Q1029 NOSIG RMK TCU QUAD NW BIRD HAZARD RWY 28 PP000=
SPZO Mar2020-211830Z 00000KT 9999 SCT040 BKN080 16/07 Q1028 NOSIG RMK BIRD HAZARD RWY 28=
SPZO Mar2020-211900Z 05002KT 9999 SCT043 BKN080 16/07 Q1028 NOSIG RMK BIRD HAZARD RWY 28 PP000=
SPZO Mar2020-211930Z 10006KT 9999 SCT046 BKN080 16/06 Q1027 NOSIG RMK BIRD HAZARD RWY 28=
SPZO Mar2020-212000Z 12004KT 9999 VCSH SCT043 BKN080 16/06 Q1027 NOSIG RMK BIRD HAZARD RWY 28 PP000=
SPZO Mar2020-212030Z 11009KT 9999 VCSH SCT046 BKN080 16/07 Q1026 NOSIG RMK BIRD HAZARD RWY 28=
SPZO Mar2020-212100Z 09005KT 030V110 9999 VCSH SCT046 BKN080 15/08 Q1026 NOSIG RMK BIRD HAZARD RWY 28 PP000=
SPZO Mar2020-212130Z 15004KT 9999 SCT046 BKN100 15/06 Q1026 NOSIG RMK BIRD HAZARD RWY 28=
SPZO Mar2020-212200Z 11003KT 9999 SCT046 BKN120 14/07 Q1026 NOSIG RMK TX16.6 BIRD HAZARD RWY 28 PP000=
SPZO Mar2020-212230Z 31004KT 9999 FEW046 BKN120 14/06 Q1027 NOSIG RMK BIRD HAZARD RWY 28=
SPZO Mar2020-212300Z 09005KT 9999 SCT046 BKN120 14/08 Q1027 NOSIG RMK BIRD HAZARD RWY 28 PP000=
SPZO Mar2020-221200Z VRB01KT CAVOK 12/08 Q1028 RMK PP000=
SPZO Mar2020-221230Z 09002KT 9999 SCT036 BKN080 11/08 Q1032 NOSIG RMK BIRD HAZARD RWY 28=
SPZO Mar2020-221300Z 36001KT 9999 SCT036 BKN080 12/08 Q1032 NOSIG RMK BIRD HAZARD RWY 28 PP000=
SPZO Mar2020-221330Z 21002KT 9999 SCT036 BKN080 14/06 Q1032 NOSIG RMK BIRD HAZARD RWY 28=
SPZO Mar2020-221400Z 04002KT 9999 SCT036 15/07 Q1032 NOSIG RMK BIRD HAZARD RWY 28 PP000=
SPZO Mar2020-221430Z 12001KT 9999 SCT036 15/07 Q1032 NOSIG RMK BIRD HAZARD RWY 28=
SPZO Mar2020-221500Z 02004KT 9999 SCT040 16/06 Q1032 NOSIG RMK BIRD HAZARD RWY 28 PP000=
SPZO Mar2020-221530Z 07002KT 9999 SCT046 17/06 Q1031 NOSIG RMK BIRD HAZARD RWY 28=
SPZO Mar2020-221600Z 08003KT 9999 SCT046 17/06 Q1031 NOSIG RMK BIRD HAZARD RWY 28 PP000=
SPZO Mar2020-221630Z 10003KT 9999 SCT050 17/07 Q1030 NOSIG RMK BIRD HAZARD RWY 28=
SPZO Mar2020-221700Z VRB01KT 9999 SCT050 18/06 Q1029 NOSIG RMK BIRD HAZARD RWY 28 PP000=
SPZO Mar2020-221730Z 12004KT 9999 SCT050 20/05 Q1029 NOSIG RMK BIRD HAZARD RWY 28=
SPZO Mar2020-221800Z 22005KT 9999 SCT050 20/07 Q1028 NOSIG RMK BIRD HAZARD RWY 28 PP000=
SPZO Mar2020-221830Z 01013KT 9999 SCT050 20/05 Q1028 NOSIG RMK BIRD HAZARD RWY 28=
SPZO Mar2020-221900Z 03017KT 9999 SCT050 20/05 Q1027 NOSIG RMK BIRD HAZARD RWY 28 PP000=
SPZO Mar2020-221930Z 02011KT 9999 SCT050 20/06 Q1027 NOSIG RMK BIRD HAZARD RWY 28=
SPZO Mar2020-222000Z 02013KT 9999 SCT050 20/04 Q1027 NOSIG RMK BIRD HAZARD RWY 28 PP000=
SPZO Mar2020-222030Z 02009KT 9999 SCT050 20/06 Q1027 NOSIG RMK BIRD HAZARD RWY 28=
SPZO Mar2020-222100Z 01012KT 9999 SCT050 19/06 Q1027 NOSIG RMK BIRD HAZARD RWY 28 PP000=
SPZO Mar2020-222130Z 02010KT 9999 SCT050 17/05 Q1027 NOSIG RMK BIRD HAZARD RWY 28=
SPZO Mar2020-222200Z 08005KT 9999 SCT050 16/05 Q1028 NOSIG RMK TX20.8 BIRD HAZARD RWY 28 PP000=
SPZO Mar2020-222230Z 05003KT 9999 SCT050 16/05 Q1028 NOSIG RMK BIRD HAZARD RWY 28=
SPZO Mar2020-222300Z 02008KT 9999 SCT050 16/05 Q1029 NOSIG RMK BIRD HAZARD RWY 28 PP000=
SPZO Mar2020-231200Z 10003KT 9999 SCT040 BKN080 11/08 Q1034 NOSIG RMK TN09.9 BIRD HAZARD RWY 28 PP000=
SPZO Mar2020-231230Z 00000KT 9999 SCT040 BKN080 12/08 Q1035 NOSIG RMK BIRD HAZARD RWY 28=
SPZO Mar2020-231300Z 00000KT 9999 VCSH SCT040 BKN080 12/08 Q1035 NOSIG RMK BIRD HAZARD RWY 28 PP000=
SPZO Mar2020-231330Z 10005KT 9999 VCSH SCT036 BKN080 13/07 Q1036 NOSIG RMK BIRD HAZARD RWY 28=
SPZO Mar2020-231400Z VRB01KT 9999 SCT036 BKN080 14/08 Q1036 NOSIG RMK BIRD HAZARD RWY 28 PP000=
SPZO Mar2020-231430Z 00000KT 9999 SCT036 BKN080 14/07 Q1036 NOSIG RMK BIRD HAZARD RWY 28=
SPZO Mar2020-231500Z 00000KT 9999 SCT040 BKN080 15/07 Q1035 NOSIG RMK BIRD HAZARD RWY 28 PP000=
SPZO Mar2020-231530Z VRB02KT 9999 VCSH SCT040 BKN080 17/08 Q1035 NOSIG RMK BIRD HAZARD RWY 28=
SPZO Mar2020-231600Z 15004KT 100V200 9999 VCSH SCT040 BKN080 17/06 Q1035 NOSIG RMK BIRD HAZARD RWY 28 PP000=
SPZO Mar2020-231630Z 07004KT 010V100 9999 SCT040 BKN080 18/07 Q1034 NOSIG RMK BIRD HAZARD RWY 28=
SPZO Mar2020-231700Z 08003KT 320V120 9999 SCT043 BKN080 19/08 Q1034 NOSIG RMK BIRD HAZARD RWY 28 PP000=
SPZO Mar2020-231730Z 09005KT 9999 SCT043 BKN080 18/05 Q1033 NOSIG RMK BIRD HAZARD RWY 28=
SPZO Mar2020-231800Z 02005KT 340V090 9999 SCT043 SCT080 19/08 Q1033 NOSIG RMK BIRD HAZARD RWY 28 PP000=
SPZO Mar2020-231830Z VRB04KT 9999 SCT043 SCT080 20/04 Q1032 NOSIG RMK BIRD HAZARD RWY 28=
SPZO Mar2020-231900Z 09008KT 020V120 9999 BKN046 20/04 Q1032 NOSIG RMK BIRD HAZARD RWY 28 PP000=
SPZO Mar2020-231930Z 08010KT 9999 BKN046 19/06 Q1031 NOSIG RMK BIRD HAZARD RWY 28=
SPZO Mar2020-232000Z 09010KT 9999 BKN046 20/05 Q1031 NOSIG RMK BIRD HAZARD RWY 28 PP000=
SPZO Mar2020-232030Z 07006KT 010V100 9999 SCT046 SCT100 18/04 Q1030 NOSIG RMK BIRD HAZARD RWY 28=
SPZO Mar2020-232100Z 35006KT 290V010 9999 SCT046 SCT100 18/04 Q1030 NOSIG RMK BIRD HAZARD RWY 28 PP000=
SPZO Mar2020-232130Z 34007KT 9999 SCT046 SCT080 18/04 Q1030 NOSIG RMK TCU QUAD SW BIRD HAZARD RWY 28=
SPZO Mar2020-232200Z 33005KT 260V010 9999 SCT046 SCT080 17/05 Q1030 NOSIG RMK TX20.4 BIRD HAZARD RWY 28 PP000=
SPZO Mar2020-232230Z 01008KT 9999 SCT050 SCT100 16/05 Q1030 NOSIG RMK BIRD HAZARD RWY 28=
SPZO Mar2020-232300Z 36007KT 9999 SCT050 SCT100 16/05 Q1031 NOSIG RMK BIRD HAZARD RWY 28 PP000=
SPZO Mar2020-241230Z 05002KT 9999 FEW036 SCT050 11/07 Q1035 NOSIG RMK BIRD HAZARD RWY 28=
SPZO Mar2020-241300Z 27001KT 9999 FEW036 SCT050 12/07 Q1035 NOSIG RMK BIRD HAZARD RWY 28 PP000=
SPZO Mar2020-241330Z 15004KT 9999 SCT050 14/07 Q1035 NOSIG RMK BIRD HAZARD RWY 28=
SPZO Mar2020-241400Z 09003KT 9999 SCT050 15/07 Q1035 NOSIG RMK BIRD HAZARD RWY 28 PP000=
SPZO Mar2020-241430Z VRB02KT 9999 SCT050 17/08 Q1035 NOSIG RMK BIRD HAZARD RWY 28=
SPZO Mar2020-241500Z VRB01KT 9999 SCT050 17/06 Q1035 NOSIG RMK BIRD HAZARD RWY 28 PP000=
SPZO Mar2020-241530Z VRB03KT 9999 SCT050 19/09 Q1034 NOSIG RMK BIRD HAZARD RWY 28=
SPZO Mar2020-241600Z 08004KT 9999 SCT050 19/07 Q1034 NOSIG RMK BIRD HAZARD RWY 28 PP000=
SPZO Mar2020-241630Z VRB03KT 9999 SCT050 20/06 Q1033 NOSIG RMK BIRD HAZARD RWY 28=
SPZO Mar2020-241700Z 02003KT 9999 VCSH FEW046TCU SCT050 19/04 Q1032 NOSIG RMK BIRD HAZARD RWY 28 PP000=
SPZO Mar2020-241730Z 03011KT 9999 -DZ FEW046TCU SCT050 BKN100 15/08 Q1032 NOSIG RMK BIRD HAZARD RWY 28=
SPZO Mar2020-241800Z VRB05KT 9999 -RA FEW046TCU SCT050 BKN100 16/03 Q1031 NOSIG RMK BIRD HAZARD RWY 28 PP000=
SPZO Mar2020-241830Z VRB03KT 9999 SCT050 BKN100 18/06 Q1030 NOSIG RMK BIRD HAZARD RWY 28=
SPZO Mar2020-241900Z 02005KT 9999 SCT050 BKN100 18/06 Q1030 NOSIG RMK BIRD HAZARD RWY 28 PP000=
SPZO Mar2020-241930Z 05008KT 9999 SCT050 BKN100 19/06 Q1030 NOSIG RMK BIRD HAZARD RWY 28=
SPZO Mar2020-242000Z 02006KT 9999 SCT050 BKN100 20/06 Q1029 NOSIG RMK BIRD HAZARD RWY 28 PP000=
SPZO Mar2020-242030Z 02013KT 9999 SCT050 SCT100 20/04 Q1029 NOSIG RMK BIRD HAZARD RWY 28=
SPZO Mar2020-242100Z 36009KT 9999 SCT050 SCT100 19/05 Q1029 NOSIG RMK BIRD HAZARD RWY 28 PP000=
SPZO Mar2020-242130Z 35006KT 9999 SCT050 SCT100 19/05 Q1029 NOSIG RMK BIRD HAZARD RWY 28=
SPZO Mar2020-242200Z 30015KT 9999 SCT050 SCT100 18/07 Q1029 NOSIG RMK TX 20.5 BIRD HAZARD RWY 28 PP000=
SPZO Mar2020-242230Z 29014KT 9999 SCT100 17/06 Q1029 NOSIG RMK BIRD HAZARD RWY 28=
SPZO Mar2020-242300Z 29013KT 9999 SCT100 17/06 Q1029 NOSIG RMK BIRD HAZARD RWY 28 PP000=
SPZO Mar2020-251230Z 11005KT 9999 SCT020 SCT080 11/08 Q1034 NOSIG RMK BIRD HAZARD RWY 28=
SPZO Mar2020-251300Z 11004KT 9999 SCT025 SCT080 12/08 Q1034 NOSIG RMK BIRD HAZARD RWY 28 PP022=
SPZO Mar2020-251330Z 08004KT 9999 SCT030 SCT080 14/08 Q1034 NOSIG RMK BIRD HAZARD RWY 28=
SPZO Mar2020-251400Z 04002KT 9999 FEW030 BKN080 15/08 Q1034 NOSIG RMK BIRD HAZARD RWY 28 PP022=
SPZO Mar2020-251430Z 02003KT 9999 SCT036 SCT080 16/06 Q1034 NOSIG RMK BIRD HAZARD RWY 28=
SPZO Mar2020-251500Z 03003KT 9999 SCT040 SCT080 17/07 Q1034 NOSIG RMK BIRD HAZARD RWY 28 PP000=
SPZO Mar2020-251530Z VRB03KT 9999 SCT040 SCT080 16/08 Q1033 NOSIG RMK BIRD HAZARD RWY 28=
SPZO Mar2020-251600Z 21003KT 9999 SCT046 SCT080 18/06 Q1033 NOSIG RMK BIRD HAZARD RWY 28 PP000=
SPZO Mar2020-251630Z 35004KT 9999 SCT046 18/07 Q1032 NOSIG RMK BIRD HAZARD RWY 28=
SPZO Mar2020-251700Z 33005KT 9999 SCT050 19/08 Q1031 NOSIG RMK BIRD HAZARD RWY 28 PP000=
SPZO Mar2020-251730Z VRB01KT 9999 FEW050 SCT080 19/05 Q1030 NOSIG RMK BIRD HAZARD RWY 28=
SPZO Mar2020-251800Z 36005KT 9999 FEW050 SCT080 20/06 Q1029 NOSIG RMK BIRD HAZARD RWY 28 PP000=
SPZO Mar2020-251830Z 29003KT 9999 FEW050 SCT080 21/06 Q1028 NOSIG RMK TCU QUAD NE BIRD HAZARD RWY 28=
SPZO Mar2020-251900Z 08008KT 9999 FEW046TCU BKN080 19/05 Q1028 NOSIG RMK BIRD HAZARD RWY 28 PP000=
SPZO Mar2020-251930Z 01008KT 9999 VCSH FEW046TCU BKN080 17/06 Q1028 NOSIG RMK BIRD HAZARD RWY 28=
SPZO Mar2020-252000Z 36008KT 9999 FEW046 BKN080 17/07 Q1027 NOSIG RMK BIRD HAZARD RWY 28 PP000=
SPZO Mar2020-252030Z 03004KT 9999 FEW046 BKN100 19/06 Q1027 NOSIG RMK BIRD HAZARD RWY 28=
SPZO Mar2020-252100Z 04008KT 9999 FEW046 BKN100 19/06 Q1027 NOSIG RMK TCU QUAD E BIRD HAZARD RWY 28 PP000=
SPZO Mar2020-252130Z 02007KT 9999 FEW050 BKN100 17/05 Q1027 NOSIG RMK BIRD HAZARD RWY 28=
SPZO Mar2020-252200Z 11006KT 9999 FEW050 BKN100 17/06 Q1028 NOSIG RMK TX22.0 BIRD HAZARD RWY 28 PP000=
SPZO Mar2020-252230Z 02005KT 9999 FEW050 BKN100 16/05 Q1028 NOSIG RMK BIRD HAZARD RWY 28=
SPZO Mar2020-252300Z 08005KT 9999 FEW050 BKN100 16/05 Q1028 NOSIG RMK BIRD HAZARD RWY 28 PP000=
SPZO Mar2020-261230Z 08001KT 9999 SCT040 BKN060 10/07 Q1031 NOSIG RMK BIRD HAZARD RWY 28=
SPZO Mar2020-261300Z 10003KT 9999 SCT040 BKN070 11/07 Q1032 NOSIG RMK BIRD HAZARD RWY 28 PP000=
SPZO Mar2020-261330Z 16003KT 9999 SCT036 BKN070 12/07 Q1032 NOSIG RMK BIRD HAZARD RWY 28=
SPZO Mar2020-261400Z 35003KT 9999 SCT036 15/07 Q1032 NOSIG RMK BIRD HAZARD RWY 28 PP000=
SPZO Mar2020-261430Z VRB01KT 9999 SCT036 16/07 Q1032 NOSIG RMK BIRD HAZARD RWY 28=
SPZO Mar2020-261500Z VRB03KT 9999 SCT040 17/08 Q1031 NOSIG RMK BIRD HAZARD RWY 28 PP000=
SPZO Mar2020-261530Z 03002KT 9999 FEW050 18/06 Q1031 NOSIG RMK BIRD HAZARD RWY 28=
SPZO Mar2020-261600Z 29003KT 9999 FEW050 19/07 Q1031 NOSIG RMK BIRD HAZARD RWY 28 PP000=
SPZO Mar2020-261630Z 12008KT 9999 SCT050 18/07 Q1031 NOSIG RMK BIRD HAZARD RWY 28=
SPZO Mar2020-261700Z VRB01KT 9999 SCT050 21/06 Q1030 NOSIG RMK BIRD HAZARD RWY 28 PP000=
SPZO Mar2020-261730Z 10007KT 9999 SCT050 22/06 Q1029 NOSIG RMK BIRD HAZARD RWY 28=
SPZO Mar2020-261800Z 10006KT 9999 SCT050 21/06 Q1028 NOSIG RMK BIRD HAZARD RWY 28 PP000=
SPZO Mar2020-261830Z 19004KT 9999 SCT050 22/04 Q1027 NOSIG RMK BIRD HAZARD RWY 28=
SPZO Mar2020-261900Z VRB03KT 9999 SCT050 22/03 Q1026 NOSIG RMK BIRD HAZARD RWY 28 PP000=
SPZO Mar2020-261930Z 10006KT 9999 FEW050 21/05 Q1025 NOSIG RMK BIRD HAZARD RWY 28=
SPZO Mar2020-262000Z 11008KT 9999 FEW050 22/05 Q1025 NOSIG RMK BIRD HAZARD RWY 28 PP000=
SPZO Mar2020-262030Z 02013KT 9999 FEW050 21/05 Q1024 NOSIG RMK BIRD HAZARD RWY 28=
SPZO Mar2020-262100Z 02009KT 9999 FEW050 21/04 Q1024 NOSIG RMK BIRD HAZARD RWY 28 PP000=
SPZO Mar2020-262130Z 02009KT 9999 FEW050 19/04 Q1025 NOSIG RMK BIRD HAZARD RWY 28=
SPZO Mar2020-262200Z 01007KT 9999 FEW050 19/05 Q1024 NOSIG RMK TX22.5 BIRD HAZARD RWY 28 PP000=
SPZO Mar2020-262230Z 36004KT 9999 FEW050 18/05 Q1025 NOSIG RMK BIRD HAZARD RWY 28=
SPZO Mar2020-262300Z 29010KT 9999 FEW050 16/05 Q1026 NOSIG RMK BIRD HAZARD RWY 28 PP000=
SPZO Mar2020-271200Z 12004KT 9000 FEW015 SCT033 OVC070 09/07 Q1030 NOSIG RMK BR TN08.8 RA NOCHE BIRD HAZARD RWY 28 PP014=
SPZO Mar2020-271230Z 10003KT 9000 FEW015 SCT033 OVC070 10/07 Q1030 NOSIG RMK BR BIRD HAZARD RWY 28=
SPZO Mar2020-271300Z VRB01KT 9000 FEW015 SCT033 BKN080 11/08 Q1030 NOSIG RMK BIRD HAZARD RWY 28 PP000=
SPZO Mar2020-271330Z 12003KT 9999 FEW020 SCT036 BKN080 13/07 Q1031 NOSIG RMK BIRD HAZARD RWY 28=
SPZO Mar2020-271400Z 11003KT 080V180 9999 FEW020 SCT036 BKN100 14/08 Q1031 NOSIG RMK BIRD HAZARD RWY 28 PP000=
SPZO Mar2020-271430Z 10007KT 9999 FEW020 SCT036 BKN100 15/07 Q1030 NOSIG RMK BIRD HAZARD RWY 28=
SPZO Mar2020-271500Z 08005KT 020V110 9999 SCT036 BKN100 15/07 Q1030 NOSIG RMK BIRD HAZARD RWY 28 PP000=
SPZO Mar2020-271530Z 13003KT 100V180 9999 SCT040 BKN100 16/07 Q1030 NOSIG RMK BIRD HAZARD RWY 28=
SPZO Mar2020-271600Z VRB02KT 9999 SCT040 BKN100 17/08 Q1030 NOSIG RMK BIRD HAZARD RWY 28 PP000=
SPZO Mar2020-271630Z 02005KT 9999 SCT040 BKN100 18/06 Q1029 NOSIG RMK BIRD HAZARD RWY 28=
SPZO Mar2020-271700Z VRB01KT 9999 SCT043 BKN100 20/07 Q1028 NOSIG RMK BIRD HAZARD RWY 28 PP000=
SPZO Mar2020-271730Z 11013KT 9999 SCT043 BKN080 18/08 Q1028 NOSIG RMK TCU QUAD N BIRD HAZARD RWY 28=
SPZO Mar2020-271800Z 11009KT 9999 SCT043 BKN080 18/07 Q1027 NOSIG RMK TCU QUAD N/S BIRD HAZARD RWY 28 PP000=
SPZO Mar2020-271830Z 09004KT 020V130 9999 VCSH SCT043 BKN080 19/06 Q1027 NOSIG RMK TCU QUAD N /S BIRD HAZARD RWY 28=
SPZO Mar2020-271900Z 28006KT 9999 VCSH SCT043 BKN080 18/08 Q1026 NOSIG RMK TCU QUAD N BIRD HAZARD RWY 28 PP000=
SPZO Mar2020-271930Z 34009KT 9999 SCT043 BKN080 18/08 Q1026 NOSIG RMK TCU QUAD N BIRD HAZARD RWY 28=
SPZO Mar2020-272000Z 31004KT 280V010 9999 SCT050 BKN100 18/04 Q1025 NOSIG RMK BIRD HAZARD RWY 28 PP000=
SPZO Mar2020-272030Z 26004KT 9999 SCT050 BKN100 19/06 Q1024 NOSIG RMK BIRD HAZARD RWY 28=
SPZO Mar2020-272100Z 23004KT 180V270 9999 SCT050 BKN100 19/05 Q1024 NOSIG RMK BIRD HAZARD RWY 28 PP000=
SPZO Mar2020-272130Z VRB01KT 9999 SCT050 BKN100 19/05 Q1024 NOSIG RMK BIRD HAZARD RWY 28=
SPZO Mar2020-272200Z 17004KT 9999 SCT046 BKN100 18/06 Q1024 NOSIG RMK TX20.2 BIRD HAZARD RWY 28 PP000=
SPZO Mar2020-272230Z 11006KT 9999 SCT046 BKN100 16/08 Q1025 NOSIG RMK BIRD HAZARD RWY 28=
SPZO Mar2020-272300Z 11008KT 9999 SCT046 SCT100 15/08 Q1025 NOSIG RMK BIRD HAZARD RWY 28 PP000=
SPZO Mar2020-281200Z 12002KT 9999 FEW020 BKN100 10/08 Q1030 NOSIG RMK TN9.1 BIRD HAZARD RWY 28 PP000=
SPZO Mar2020-281230Z 11002KT 9999 FEW020 SCT060 10/08 Q1030 NOSIG RMK BIRD HAZARD RWY 28=
SPZO Mar2020-281300Z 09003KT 9999 FEW020 SCT060 12/08 Q1031 NOSIG RMK BIRD HAZARD RWY 28 PP000=
SPZO Mar2020-281330Z 10005KT 9999 FEW020 SCT060 13/09 Q1031 NOSIG RMK BIRD HAZARD RWY 28=
SPZO Mar2020-281400Z 10006KT 9999 SCT030 BKN00 14/08 Q1031 NOSIG RMK BIRD HAZARD RWY 28 PP000=
SPZO Mar2020-281430Z 06004KT 9999 SCT040 BKN100 15/07 Q1030 NOSIG RMK BIRD HAZARD RWY 28=
SPZO Mar2020-281500Z 16004KT 9999 SCT040 BKN100 16/07 Q1030 NOSIG RMK BIRD HAZARD RWY 28 PP000=
SPZO Mar2020-281530Z 27004KT 9999 SCT040 BKN100 18/08 Q1030 NOSIG RMK BIRD HAZARD RWY 28=
SPZO Mar2020-281600Z 24003KT 9999 SCT040 BKN100 18/06 Q1029 NOSIG RMK BIRD HAZARD RWY 28 PP000=
SPZO Mar2020-281630Z 27004KT 9999 SCT040 BKN120 18/05 Q1029 NOSIG RMK BIRD HAZARD RWY 28=
SPZO Mar2020-281700Z VRB04KT 9999 SCT050 BKN120 20/05 Q1028 NOSIG RMK BIRD HAZARD RWY 28 PP000=
SPZO Mar2020-281730Z 10008KT 9999 VCSH SCT050 BKN100 19/06 Q1027 NOSIG RMK BIRD HAZARD RWY 28=
SPZO Mar2020-281800Z 11012KT 9999 VCSH SCT050 BKN100 16/06 Q1029 NOSIG RMK TS QUAD S BIRD HAZARD RWY 28 PP000=
SPZO Mar2020-281830Z 12007KT 9999 SCT050 BKN100 16/04 Q1027 NOSIG RMK BIRD HAZARD RWY 28=
SPZO Mar2020-281900Z 09004KT 9999 SCT050 BKN100 17/05 Q1027 NOSIG RMK BIRD HAZARD RWY 28 PP000=
SPZO Mar2020-281930Z 01013KT 9999 FEW050 BKN100 16/06 Q1027 NOSIG RMK BIRD HAZARD RWY 28=
SPZO Mar2020-282000Z 02010KT 9999 FEW050 BKN100 15/04 Q1027 NOSIG RMK BIRD HAZARD RWY 28 PP000=
SPZO Mar2020-282030Z 31007KT 9999 FEW050 BKN100 16/06 Q1027 NOSIG RMK BIRD HAZARD RWY 28=
SPZO Mar2020-282100Z 29013KT 9999 VCSH FEW050 BKN100 14/06 Q1027 NOSIG RMK BIRD HAZARD RWY 28 PP000=
SPZO Mar2020-282130Z 29011KT 9999 VCSH FEW030 BKN100 12/07 Q1028 NOSIG RMK BIRD HAZARD RWY 28=
SPZO Mar2020-282200Z 28009KT 9999 VCSH FEW030 BKN100 12/08 Q1028 NOSIG RMK TX20.2 BIRD HAZARD RWY 28 PP000=
SPZO Mar2020-282230Z 28006KT 9999 FEW030 BKN100 12/08 Q1028 NOSIG RMK BIRD HAZARD RWY 28=
SPZO Mar2020-282300Z 29009KT 9999 FEW030 BKN100 11/07 Q1029 NOSIG RMK BIRD HAZARD RWY 28 PP000=
SPZO Mar2020-291200Z 11002KT 9999 SCT036 BKN100 10/08 Q1032 NOSIG RMK TX9.1 BIRD HAZARD RWY 28 PP020=
SPZO Mar2020-291230Z 09001KT 9999 SCT020 BKN080 11/08 Q1032 NOSIG RMK BCFG BIRD HAZARD RWY 28=
SPZO Mar2020-291300Z 09002KT 9999 SCT020 BKN080 11/08 Q1033 NOSIG RMK BIRD HAZARD RWY 28 PP000=
SPZO Mar2020-291330Z 11002KT 9999 FEW020 BKN080 12/08 Q1033 NOSIG RMK BIRD HAZARD RWY 28=
SPZO Mar2020-291400Z VRB02KT 9999 FEW020 BKN080 13/07 Q1033 NOSIG RMK BIRD HAZARD RWY 28 PP000=
SPZO Mar2020-291430Z 1005KT 9999 FEW025 BKN080 14/06 Q1033 NOSIG RMK BIRD HAZARD RWY 28=
SPZO Mar2020-291500Z 11005KT 9999 FEW025 BKN080 14/07 Q1033 NOSIG RMK BIRD HAZARD RWY 28 PP000=
SPZO Mar2020-291530Z 10003KT 9999 FEW036 BKN080 15/07 Q1033 NOSIG RMK BIRD HAZARD RWY 28=
SPZO Mar2020-291600Z 08003KT 9999 SCT040 BKN080 15/08 Q1032 NOSIG RMK BIRD HAZARD RWY 28 PP000=
SPZO Mar2020-291630Z 13008KT 9999 SCT040 BKN080 16/06 Q1032 NOSIG RMK BIRD HAZARD RWY 28=
SPZO Mar2020-291700Z 16007KT 9999 SCT040 BKN080 16/07 Q1032 NOSIG RMK BIRD HAZARD RWY 28 PP000=
SPZO Mar2020-291730Z 17008KT 9999 SCT040 BKN080 17/06 Q1031 NOSIG RMK BIRD HAZARD RWY 28=
SPZO Mar2020-291800Z 12008KT 9999 SCT043 BKN080 16/06 Q1030 NOSIG RMK BIRD HAZARD RWY 28 PP000=
SPZO Mar2020-291830Z 13006KT 9999 SCT043 BKN080 17/06 Q1030 NOSIG RMK BIRD HAZARD RWY 28=
SPZO Mar2020-291900Z 12008KT 9999 SCT046 SCT080 18/07 Q1029 NOSIG RMK BIRD HAZARD RWY 28 PP000=
SPZO Mar2020-291930Z 07003KT 9999 FEW046 SCT080 18/06 Q1029 NOSIG RMK BIRD HAZARD RWY 28=
SPZO Mar2020-292000Z VRB02KT 9999 FEW046 SCT080 18/06 Q1028 NOSIG RMK BIRD HAZARD RWY 28 PP000=
SPZO Mar2020-301200Z 10002KT 9999 SCT040 BKN080 11/08 Q1033 NOSIG RMK TN9.8 BIRD HAZARD RWY 28 PP000=
SPZO Mar2020-301230Z 12001KT 9999 SCT040 BKN080 12/07 Q1034 NOSIG RMK BIRD HAZARD RWY 28=
SPZO Mar2020-301300Z 14002KT 9999 SCT040 BKN080 13/07 Q1034 NOSIG RMK BIRD HAZARD RWY 28 PP000=
SPZO Mar2020-301330Z 10005KT 9999 SCT040 BKN080 13/06 Q1034 NOSIG RMK BIRD HAZARD RWY 28=
SPZO Mar2020-301400Z 08004KT 9999 SCT040 BKN080 14/06 Q1034 NOSIG RMK BIRD HAZARD RWY 28 PP000=
SPZO Mar2020-301430Z VRB01KT 9999 SCT040 SCT080 15/06 Q1034 NOSIG RMK BIRD HAZARD RWY 28=
SPZO Mar2020-301500Z 18002KT 9999 SCT040 SCT080 16/05 Q1034 NOSIG RMK BIRD HAZARD RWY 28 PP000=
SPZO Mar2020-301530Z 14003KT 9999 VCSH SCT040 BKN080 15/06 Q1034 NOSIG RMK BIRD HAZARD RWY 28=
SPZO Mar2020-301600Z 11006KT 9999 VCSH SCT040 BKN080 15/07 Q1034 NOSIG RMK BIRD HAZARD RWY 28 PP000=
SPZO Mar2020-301630Z 12005KT 9999 VCSH SCT040 BKN080 15/08 Q1034 NOSIG RMK BIRD HAZARD RWY 28=
SPZO Mar2020-301700Z 12012KT 9999 -DZ SCT040 BKN080 13/07 Q1034 NOSIG RMK BIRD HAZARD RWY 28 PP000=
SPZO Mar2020-301730Z 13005KT 9999 -DZ SCT040 BKN080 13/07 Q1033 NOSIG RMK BIRD HAZARD RWY 28=
SPZO Mar2020-301800Z 29003KT 9999 SCT040 BKN080 13/06 Q1033 REDZ NOSIG RMK BIRD HAZARD RWY 28 PP016=
SPZO Mar2020-301830Z 29003KT 9999 FEW040 SCT080 16/07 Q1031 NOSIG RMK BIRD HAZARD RWY 28=
SPZO Mar2020-301900Z 27005KT 9999 FEW040 SCT100 18/08 Q1031 NOSIG RMK BIRD HAZARD RWY 28 PP000=
SPZO Mar2020-301930Z 21004KT 9999 FEW050 17/06 Q1030 NOSIG RMK BIRD HAZARD RWY 28=
SPZO Mar2020-302000Z 26006KT 9999 FEW050 17/06 Q1030 NOSIG RMK BIRD HAZARD RWY 28 PP000=
SPZO Mar2020-311200Z 09003KT 9999 SCT036 BKN080 09/06 Q1034 NOSIG RMK TN08.1 RA NOCHE BIRD HAZARD RWY 28 PP016=
SPZO Mar2020-311230Z VRB02KT 9999 VCSH SCT036 BKN070 10/06 Q1034 NOSIG RMK BIRD HAZARD RWY 28=
SPZO Mar2020-311300Z VRB01KT 9999 SCT036 BKN070 10/06 Q1034 NOSIG RMK BIRD HAZARD RWY 28 PP000=
SPZO Mar2020-311330Z 00000KT 9999 SCT036 BKN070 11/05 Q1035 NOSIG RMK BIRD HAZARD RWY 28=
SPZO Mar2020-311400Z 00000KT 9999 SCT036 BKN070 12/05 Q1035 NOSIG RMK BIRD HAZARD RWY 28 PP000=
SPZO Mar2020-311430Z 08003KT 020V110 9999 SCT036 BKN070 13/05 Q1035 NOSIG RMK BIRD HAZARD RWY 28=
SPZO Mar2020-311500Z 09005KT 9999 SCT036 BKN080 13/06 Q1035 NOSIG RMK BIRD HAZARD RWY 28 PP000=
SPZO Mar2020-311530Z 35003KT 300V070 9999 SCT036 BKN080 14/06 Q1034 NOSIG RMK BIRD HAZARD RWY 28=
SPZO Mar2020-311600Z 31003KT 280V010 9999 SCT040 SCT080 15/05 Q1034 NOSIG RMK BIRD HAZARD RWY 28 PP000=
SPZO Mar2020-311630Z VRB01KT 9999 SCT040 SCT080 17/06 Q1033 NOSIG RMK BIRD HAZARD RWY 28=
SPZO Mar2020-311700Z VRB02KT 9999 SCT040 SCT080 18/06 Q1032 NOSIG RMK BIRD HAZARD RWY 28 PP000=
SPZO Mar2020-311730Z 36005KT 290V030 9999 SCT046 SCT080 19/09 Q1032 NOSIG RMK BIRD HAZARD RWY 28=
SPZO Mar2020-311800Z VRB02KT 9999 SCT046 18/05 Q1031 NOSIG RMK BIRD HAZARD RWY 28 PP000=
SPZO Mar2020-311830Z VRB03KT 9999 SCT046 19/04 Q1030 NOSIG RMK BIRD HAZARD RWY 28=
SPZO Mar2020-311900Z 36006KT 9999 SCT050 20/06 Q1029 NOSIG RMK BIRD HAZARD RWY 28 PP000=
SPZO Mar2020-311930Z 01005KT 270V060 9999 SCT050 20/03 Q1028 NOSIG RMK BIRD HAZARD RWY 28=
SPZO Mar2020-312000Z 02011KT 9999 SCT050 SCT100 20/05 Q1028 NOSIG RMK BIRD HAZARD RWY 28 PP000=
