SPZO 010000Z 27007KT 240V300 9999 BKN040 14/07 Q1027 PP000= 
SPZO 010100Z 27011KT 9999 BKN040 13/07 Q1028 RMK PP000= 
SPZO 010200Z 26007KT 230V290 9999 BKN040 13/07 Q1029 PP000= 
SPZO 010300Z 27007KT 240V300 9999 BKN040 11/06 Q1030 PP000= 
SPZO 010400Z 25004KT 230V300 9999 BKN040 10/06 Q1030 PP000= 
SPZO 010500Z 00000KT 9999 BKN040 10/07 Q1030 RMK PP000= 
SPZO 010600Z 00000KT 9999 BKN040 10/08 Q1029 RMK PP000= 
SPZO 010700Z 00000KT 9999 BKN040 10/07 Q1029 RMK PP000= 
SPZO 010800Z 00000KT 9999 BKN040 08/06 Q1029 RMK PP000= 
SPZO 010400Z 25004KT 230V300 9999 BKN040 10/06 Q1030 PP000= 
SPZO 010500Z 00000KT 9999 BKN040 10/07 Q1030 RMK PP000= 
SPZO 010600Z 00000KT 9999 BKN040 10/08 Q1029 RMK PP000= 
SPZO 010700Z 00000KT 9999 BKN040 10/07 Q1029 RMK PP000= 
SPZO 010800Z 00000KT 9999 BKN040 08/06 Q1029 RMK PP000= 
SPZO 010900Z 00000KT 9999 BKN040 09/06 Q1029 RMK PP000= 
SPZO 011000Z 00000KT 9999 BKN040 09/07 Q1030 RMK PP000= 
SPZO 011100Z 00000KT 9999 SCT040 08/06 Q1031 RMK PP000= 
SPZO 011200Z 00000KT 9999 SCT060 11/07 Q1032 NOSIG RMK PP000= 
SPZO 011300Z VRB02KT 9999 FEW043 13/06 Q1032 NOSIG RMK PP000= 
SPZO 011400Z 11004KT 030V190 9999 SCT043 14/06 Q1032 NOSIG RMK PP000= 
SPZO 011500Z VRB02KT 9999 FEW040 SCT047 15/05 Q1032 NOSIG RMK PP000= 
SPZO 011600Z VRB03KT 9999 FEW040 SCT047 17/05 Q1031 NOSIG RMK PP000= 
SPZO 011700Z VRB03KT 9999 FEW040 SCT047 17/05 Q1030 NOSIG RMK PP000= 
SPZO 011800Z 25005KT 140V320 9999 SCT043 19/03 Q1029 NOSIG RMK PP000= 
SPZO 011900Z 27008KT 210V330 9999 FEW043TCU SCT050 21/06 Q1027 TEMPO VCSH RMK PP000 RWY10 30016KT= 
SPZO 012000Z 31008KT 280V350 9999 SCT040TCU SCT050 18/04 Q1026 TEMPO RA RMK PP000= 
SPZO 012100Z VRB02KT 9999 SCT050 18/06 Q1025 NOSIG RMK PP000= 
SPZO 012200Z 33009KT 9999 SCT050 20/05 Q1025 NOSIG RMK PP000= 
SPZO 012100Z VRB02KT 9999 SCT050 18/06 Q1025 NOSIG RMK PP000 TMAX:20.8= 
SPZO 012300Z 03004KT 350V080 9999 SCT050 17/05 Q1026 NOSIG RMK PP000= 
SPZO 020000Z 20003KT 120V280 9999 BKN040 15/07 Q1027 PP000= 
SPZO 020100Z 27002KT 200V340 9999 BKN040 15/06 Q1029 PP000= 
SPZO 020200Z VRB02KT 9999 BKN040 13/07 Q1030 RMK PP000= 
SPZO 020300Z VRB02KT 9999 BKN040 10/07 Q1031 RMK PP000= 
SPZO 020400Z 28002KT 9999 BKN040 10/07 Q1032 RMK PP000= 
SPZO 020500Z 29004KT 9999 BKN040 10/07 Q1031 RMK PP000= 
SPZO 020600Z 08004KT 060V140 9999 BKN040 11/08 Q1031 PP000= 
SPZO 020700Z VRB03KT 9999 BKN040 10/07 Q1031 RMK PP000= 
SPZO 020800Z VRB03KT 9999 BKN040 11/07 Q1030 RMK PP000= 
SPZO 020900Z 00000KT 9999 BKN040 10/07 Q1031 RMK PP000= 
SPZO 021000Z 00000KT 9999 BKN040 09/07 Q1031 RMK PP000= 
SPZO 021030Z 00000KT 9999 SCT040 09/06 Q1032= 
SPZO 021030Z 00000KT 9999 SCT040 09/06 Q1032= 
SPZO 021100Z 00000KT 9999 SCT040 09/07 Q1032 RMK PP000= 
SPZO 021200Z VRB01KT 9999 SCT040 SCT050 11/08 Q1033 NOSIG RMK PP000= 
SPZO 021300Z VRB01KT 9999 SCT043 SCT050 13/07 Q1033 NOSIG RMK PP000= 
SPZO 021400Z VRB03KT 9999 SCT046 14/07 Q1033 NOSIG RMK PP000= 
SPZO 021500Z VRB01KT 9999 SCT046 17/07 Q1032 NOSIG RMK PP000= 
SPZO 021600Z VRB02KT 9999 SCT047 SCT080 17/07 Q1032 PP000= 
SPZO 021600Z VRB02KT 9999 SCT047 SCT080 17/07 Q1032 PP000 TEMPO VCSH= 
SPZO 021700Z VRB02KT 9999 SCT040 SCT100 18/04 Q1030 PP000 NOSIG= 
SPZO 021800Z 01004KT 9999 SCT040 SCT100 20/06 Q1029 NOSIG PP000= 
SPZO 021900Z 36005KT 9999 SCT050 SCT080 20/06 Q1028 NOSIG PP000= 
SPZO 022000Z 36006KT 320V060 9999 VCSH SCT040 SCT050 17/07 Q1027 NOSIG PP002= 
SPZO 022100Z 20004KT 9999 VCSH SCT040 SCT050 21/04 Q1026 NOSIG PP000= 
SPZO 022200Z 06007KT 010V160 9999 BKN040 17/07 Q1026 NOSIG PP000 TMAX.21.2= 
SPZO 022300Z 26004KT 9999 SCT040 SCT050 17/07 Q1027 NOSIG PP000= 
SPZO 030000Z 16009KT 9999 SH SCT040TCU SCT050 15/05 Q1029 PP002= 
SPZO 030000Z 16009KT 9999 SH SCT040TCU SCT050 15/05 Q1029 PP002= 
SPZO 030100Z 30007KT 8000 TSSH FEW030CB SCT040TCU SCT050 10/08 Q1031 PP102= 
SPZO 030200Z 00000KT 9999 -DZ FEW033TCU BKN047 11/08 Q1031 PP006= 
SPZO 030300Z VRB02KT 9999 SCT033 SCT043 11/08 Q1032 REDZ PPTRZ= 
SPZO 030400Z 00000KT 9999 SCT033 SCT043 10/08 Q1032 PP000= 
SPZO 030500Z 00000KT 9999 SCT033 BKN043 10/08 Q1032 PP000= 
SPZO 030600Z 00000KT 9999 SCT030 BKN040 11/08 Q1031 PP000= 
SPZO 030700Z 00000KT 9999 SCT030 SCT040 10/08 Q1030 PP000= 
SPZO 030800Z VRB03KT 9999 SCT030 BKN040 10/08 Q1030 PP000= 
SPZO 030900Z 000000KT 9999 FEW025 BKN037 10/08 Q1030 PP000= 
SPZO 031000Z 00000KT 9999 FEW030 BKN040 10/08 Q1031 PP000= 
SPZO 031100Z 00000KT 9999 FEW033 BKN043 10/08 Q1032 PP000= 
SPZO 031200Z VRB02KT 9999 VCRA SCT040 SCT046 10/08 Q1033 NOSIG RMK PP000= 
SPZO 031200Z VRB02KT 9999 VCRA SCT040 SCT046 11/08 Q1033 NOSIG RMK PP000= 
SPZO 031300Z VRB03KT 9999 SCT040 SCT046 12/07 Q1033 NOSIG RMK PP000= 
SPZO 031400Z VRB02KT 9999 SCT040 SCT050 14/06 Q1033 NOSIG RMK PP000= 
SPZO 031500Z 09004KT 020V190 9999 VCRA SCT040 BKN046 14/5 Q1033 NOSIG RMK PP000= 
SPZO 031500Z 09004KT 020V190 9999 VCRA SCT040 BKN046 14/05 Q1033 NOSIG RMK PP000= 
SPZO 031600Z VRB02KT 9999 SCT040 SCT050 16/06 Q1032 NOSIG PP000= 
SPZO 031700Z 00000KT 9999 BKN040 SCT060 16/05 Q1031 NOSIG PP000= 
SPZO 031800Z 02005KT 9999 SCT040 SCT050 16/07 Q1030 NOSIG PP000= 
SPZO 031900Z VRB04KT 9999 SCT040 SCT050 18/07 Q1029 NOSIG RMK PP000= 
SPZO 032000Z 01009KT 320V080 9999 SCT043 18/06 Q1028 NOSIG RMK PP000= 
SPZO 032100Z 02011KT 310V070 9999 SCT047 19/05 Q1027 NOSIG RMK PP000= 
SPZO 032200Z 01011KT 340V050 9999 FEW047 18/05 Q1027 NOSIG RMK PP000 TMAX 19.7= 
SPZO 032300Z 01009KT 330V060 9999 SCT047 SCT300 17/04 Q1028 NOSIG RMK PP000= 
SPZO 040000Z 10006KT 9999 FEW040 SCT100 SCT200 15/04 Q1029 PP000= 
SPZO 040100Z 36008KT 9999 SCT040 SCT100 15/05 Q1030 PP000= 
SPZO 040200Z 23006KT 9999 FEW040 SCT150 13/05 Q1031 PP000= 
SPZO 040300Z 10005KT 9999 BKN040 12/03 Q1032 PP000= 
SPZO 040400Z VRB02KT 9999 BKN040 12/08 Q1032 PP000= 
SPZO 040500Z 00000KT 9999 SCT030 SCT040 12/06 Q1032 PP000= 
SPZO 040600Z 00000KT 9999 SCT030 BKN040 11/07 Q1031 PP000= 
SPZO 040700Z 00000KT 9999 SCT030 BKN040 10/07 Q1031 PP000= 
SPZO 040800Z VRB02KT 9999 SCT030 BKN040 11/07 Q1031 PP000= 
SPZO 040900Z 00000KT 9999 SCT030 SCT040 10/07 Q1031 PP000= 
SPZO 041000Z 00000KT 9999 SCT033 SCT043 10/07 Q1031 PP000= 
SPZO 041100Z 00000KT 9999 FEW040 SCT050 09/07 Q1032 PP000= 
SPZO 041200Z 00000KT 9999 FEW040 SCT080 10/07 Q1033 NOSIG RMK PP000= 
SPZO 041300Z 00000KT 9999 FEW043 SCT060 12/07 Q1033 NOSIG RMK PP000= 
SPZO 041500Z 08005KT 010V140 9999 SCT043 16/08 Q1033 NOSIG RMK PP000= 
SPZO 041600Z VRB03KT 9999 SCT043 SCT060 18/06 Q1032 NOSIG PP000= 
SPZO 041700Z 13004KT 060V230 9999 BKN050 19/07 Q1030 NOSIG PP000= 
SPZO 041800Z VRB03KT 9999 FEW040 SCT050 20/05 Q1028 NOSIG RMK PP000= 
SPZO 041900Z 01013KT 9999 SCT040 SCT050 18/06 Q1028 TEMPO FEW040TCU PP000= 
SPZO 041930Z 01013KT 9999 VCSH FEW040TCU BKN047 16/06 Q1027= 
SPZO 041930Z 01013KT 9999 VCSH FEW040TCU BKN047 16/06 Q1027= 
SPZO 042000Z 01007KT 330V070 9999 VCSH SCT040TCU BKN047 16/07 Q1027 NOSIG PP000= 
SPZO 042030Z 16006KT 9999 -RA BKN040 SCT047 13/08 Q1028= 
SPZO 042030Z 16006KT 9999 -RA BKN040 SCT047 13/08 Q1028= 
SPZO 042100Z VRB03KT 9999 -RA BKN040 SCT050 13/08 Q1028 TEMPO FM2120 NSW PP008= 
SPZO 042200Z VRB02KT 9999 BKN043 SCT080 12/09 Q1028 NOSIG PP008= 
SPZO 042200Z VRB02KT 9999 BKN043 SCT080 12/09 Q1028 NOSIG PP008 TMAX 20.9= 
SPZO 042300Z 11006KT 9999 BKN040 SCT050 12/09 Q1029 NOSIG PP000= 
SPZO 050000Z 00000KT 9999 OVC040 11/07 Q1030 RMK PP000= 
SPZO 050100Z 00000KT 5000 RA SCT030 BKN040 10/08 Q1031 PP022= 
SPZO 050200Z 09003KT 7000 -RA SCT030 BKN040 10/09 Q1032 PP020= 
SPZO 050300Z 09004KT 030V140 9000 FEW030 BKN040 10/08 Q1032 RERA PPTRZ= 
SPZO 050400Z VRB03KT 9999 FEW030 BKN040 10/08 Q1032 RMK PP000= 
SPZO 050500Z 00000KT 9999 OVC040 10/08 Q1032 RMK PP000= 
SPZO 050600Z 00000KT 9999 OVC040 10/08 Q1031 RMK PP000= 
SPZO 050600Z 00000KT 9999 OVC040 10/08 Q1031 RMK PP000= 
SPZO 050700Z 00000KT 9999 OVC040 10/08 Q1031 RMK PP000= 
SPZO 050800Z 00000KT 9999 OVC040 09/08 Q1030 RMK PP000= 
SPZO 050700Z 00000KT 9999 OVC040 10/08 Q1031 RMK PP000= 
SPZO 050900Z 00000KT 9999 OVC040 09/08 Q1030 RMK PP000= 
SPZO 051000Z 00000KT 9999 OVC040 10/08 Q1030 RMK PP000= 
SPZO 051100Z 00000KT 9999 BKN040 09/08 Q1031 RMK PP000= 
SPZO 051118Z VRB01KT 9000 FEW020 SCT080 10/08 Q1031 BECMG 9999= 
SPZO 051118Z VRB01KT 9000 FEW020 SCT080 10/08 Q1031 BECMG 9999= 
SPZO 051200Z 00000KT 9000 FEW020 SCT080 10/08 Q1031 BECMG 9999 RMK PP000= 
SPZO 051224Z 00000KT 9999 SCT030 12/08 Q1032= 
SPZO 051224Z 00000KT 9999 SCT030 12/08 Q1032= 
SPZO 051300Z VRB01KT 9999 SCT030 13/08 Q1032 NOSIG RMK PP000= 
SPZO 051400Z VRB02KT 9999 SCT033 SCT080 15/08 Q1032 NOSIG 
SPZO 051500Z VRB01KT 9999 SCT040 SCT080 17/06 Q1032 NOSIG 
SPZO 051600Z VRB03KT 9999 SCT040 SCT060 17/08 Q1031 NOSIG RMK PP000= 
SPZO 051700Z VRB04KT 9999 SCT040 SCT060 19/07 Q1030 NOSIG RMK PP000= 
SPZO 051800Z VRB02KT 9999 SCT040 SCT060 20/09 Q1029 NOSIG RMK PP000= 
SPZO 051900Z 29011KT 250V320 9999 TSVCRA SCT040TCU SCT050 16/08 Q1027 TEMPO RA RMK PP000= 
SPZO 051920Z 31011KT 9999 -RA SCT040 SCT050 15/09 Q1028= 
SPZO 052000Z 34005KT 290V050 9999 VCRA SCT040 SCT050 15/09 
SPZO 052100Z VRB02KT 9999 VCRA SCT043 BKN060 17/08 Q1026 NOSIG RMK PP000= 
SPZO 052200Z 09005KT 060V130 9999 VCRA SCT043 SCT050 15/10 Q1026 NOSIG RMK PP000 TMX: 20.6= 
SPZO 052300Z VRB02KT 9999 BKN060 16/08 Q1027 NOSIG RMKL PP000= 
SPZO 060000Z VRB03KT 9999 BKN050 13/08 Q1028 RMK PP000= 
SPZO 060100Z 00000KT 9999 BKN050 13/09 Q1028 RMK PP000= 
SPZO 060200Z 29002KT 9999 BKN040 11/09 Q1030 RMK PP000= 
SPZO 060300Z 00000KT 9999 BKN040 12/08 Q1030 RMK PP000= 
SPZO 060400Z 00000KT 9999 BKN040 11/08 Q1030 RMK PP000= 
SPZO 060500Z 00000KT 9999 BKN040 12/08 Q1030 RMK PP000= 
SPZO 060600Z VRB02KT 8000 -DZ OVC040 11/09 Q1030 RMK PPTRZ= 
SPZO 060700Z 00000KT 9000 OVC040 11/09 Q1029 RMK REDZ PP002= 
SPZO 060800Z 07004KT 8000 -RA SCT030 BKN040 11/09 Q1029 PP010= 
SPZO 060900Z 10008KT 050V140 8000 -RA FEW030 BKN040 09/07 Q1030 RMK PP006= 
SPZO 061000Z 11007KT 9000 FEW030 BKN040 09/07 Q1030 RERA RMK PP004= 
SPZO 061028Z 10006KT 8000 -RA FEW030 BKN040 09/07 Q1031= 
SPZO 061028Z 10006KT 8000 -RA FEW030 BKN040 09/07 Q1031= 
SPZO 061100Z 09004KT 060V120 9000 FEW030 BKN040 09/07 Q1030 RERA RMK PPTRZ= 
SPZO 061123Z 09004KT 9999 FEW033 SCT040 BKN050 09/07 Q1031= 
SPZO 061200Z VRB03KT 9999 SCT040 BKN060 09/07 Q1031 NOSIG RMK PP000 BCBR NE= 
SPZO 061300Z 00000KT 9999 FEW030 SCT040 BKN046 11/07 Q1032 NOSIG RMK PP000 BCBR NE= 
SPZO 061400Z VRB01KT 9999 FEW033 SCT040 BKN050 11/08 Q1032 NOSIG RMK PP000= 
SPZO 061500Z 00000KT 9999 FEW033 SCT043 BKN080 13/07 Q1032 NOSIG RMK PP000= 
SPZO 061600Z 10004KT 050V200 9999 FEW033 SCT040 BKN080 15/07 Q1031 NOSIG PP000= 
SPZO 061700Z VRB02KT 9999 SCT040 SCT080 17/07 Q1030 TEMPO VCRA PP000= 
SPZO 061800Z 29007KT 240V010 9999 VCSH BKN040 SCT100 18/10 Q1029 NOSIG PP000= 
SPZO 061900Z 30012KT 250V340 9999 SCT040 SCT100 18/08 Q1027 TEMPO VCSH PP000= 
SPZO 061915Z 28012KT 250V320 9999 SCT040 SCT100 18/08 Q1027 RMK RWY010 30022KT VRB 230V360= 
SPZO 062000Z 29012KT 240V340 9999 SCT040 SCT100 19/08 Q1027 TEMPO VCRA RMK RWY10 300/24KT 250V360 PP000= 
SPZO 062100Z 36008KT 280V090 9999 SCT040 SCT050 18/07 Q1026 NOSIG RMK RWY10 280/26KT 240V090 PP000= 
SPZO 062200Z 27014KT 240V310 9999 SCT040 SCT080 17/07 Q1026 BECMG FM2230 RWY10 34010KT RMK 29024KT 
SPZO 062300Z 26009KT 230V300 9999 SCT040 SCT050 16/07 Q1027 NOSIG RMK RWY 28018KT 230V330 PP000= 
SPZO 070000Z 10006KT 9999 BKN043 14/08 Q1028 PP000= 
SPZO 070100Z 00000KT 9999 BKN040 12/08 Q1029 PP000= 
SPZO 070200Z 00000KT 9999 BKN040 12/09 Q1030 PP000= 
SPZO 070300Z VRB02KT 9999 SCT037 11/08 Q1031 PP000= 
SPZO 070400Z 00000KT 9999 FEW033 SCT043 11/08 Q1031 PP000= 
SPZO 070500Z 00000KT 9999 SCT033 SCT043 12/08 Q1031 PP000= 
SPZO 070600Z 00000KT 9999 SCT033 BKN043 12/07 Q1030 PP000= 
SPZO 070700Z 00000KT 9999 SCT033 BKN043 12/08 Q1030 PP000= 
SPZO 070800Z 00000KT 9999 SCT030 SCT040 12/07 Q1029 PP000= 
SPZO 070900Z 11004KT 9999 SCT030 SCT040 11/08 Q1029 PP000= 
SPZO 071000Z 00000KT 9999 FEW030 BKN043 10/08 Q1029 PP000= 
SPZO 071100Z 00000KT 9999 FEW030 BKN043 10/08 Q1030 PP000= 
SPZO 071200Z 00000KT 9999 VCRA SCT043 BKN050 11/08 Q1031 NOSIG RMK PP000= 
SPZO 071300Z VRB02KT 9999 SCT040 BKN046 13/08 Q1032 NOSIG RMK PP000= 
SPZO 071400Z VRB02KT 9999 SCT040 SCT080 15/07 Q1032 NOSIG RMK PP000 BCBR NE= 
SPZO 071500Z VRB02KT 9999 FEW040 SCT050 16/07 Q1031 NOSIG RMK PP000= 
SPZO 071600Z VRB03KT 9999 SCT040 SCT050 19/07 Q1031 NOSIG PP000= 
SPZO 071700Z VRB05KT 9999 VCSH SCT040 SCT050 18/07 Q1030 NOSIG PP000= 
SPZO 071800Z 10008KT 060V140 9999 VCSH FEW040TCU BKN050 18/08 Q1029 TEMPO -RA PP000= 
SPZO 071900Z 27015KT 250V320 9999 SCT040TCU SCT050 14/07 Q1029 NOSIG RMK RWY10 30020KT 240V330 PP000= 
SPZO 072000Z 27011KT 9999 VCSH BKN043 SCT050 13/09 Q1029 NOSIG PPTRZ= 
SPZO 072100Z 27007KT 9999 BKN043 SCT050 14/09 Q1028 NOSIG PP000= 
SPZO 072100Z 27007KT 9999 BKN043 SCT050 14/09 Q1028 NOSIG PP000= 
SPZO 072200Z VRB03KT 9999 VCSH BKN040 SCT050 15/08 Q1028 NOSIG PP000 TMAX 19.6= 
SPZO 072300Z 01008KT 330V060 9999 VCSH BKN040 SCT050 14/07 Q1029 NOSIG PP000= 
SPZO 080000Z 10010KT 9000 -RA SCT030 BKN040 11/08 Q1030 PPTRZ= 
SPZO 080100Z 10005KT 9000 -RA SCT030 BKN040 10/08 Q1031 PP010= 
SPZO 080200Z 00000KT 9999 -DZ FEW020 SCT033 SCT050 10/08 Q1032 PP006= 
SPZO 080300Z 00000KT 9999 SCT030 BKN040 11/09 Q1033 REDZ PPTRZ= 
SPZO 080400Z 00000KT 9999 SCT030 BKN040 11/09 Q1033 PP000= 
SPZO 080500Z 00000KT 9999 SCT030 BKN040 11/09 Q1032 PP000= 
SPZO 080600Z 00000KT 9999 SCT030 SCT040 11/08 Q1031 PP000= 
SPZO 080700Z 00000KT 9999 -RA SCT030 BKN040 10/08 Q1031 PP010= 
SPZO 080800Z 27008KT 9999 FEW030 BKN040 10/07 Q1030 PP000= 
SPZO 080800Z 27008KT 9999 FEW030 BKN040 10/07 Q1030 RERA PP006= 
SPZO 080900Z VRB02KT 9999 SCT030 SCT040 10/07 Q1030 PP000= 
SPZO 081000Z 00000KT 9999 SCT030 SCT040 10/07 Q1030 PP000= 
SPZO 081100Z 00000KT 9999 FEW037 BKN050 09/08 Q1031 PP000= 
SPZO 081200Z 00000KT 9999 FEW037 BKN050 10/07 Q1032 NOSIG RMK PP000= 
SPZO 081215Z 00000KT 9999 SCT037 BKN047 11/08 Q1032= 
SPZO 081240Z 00000KT 9999 -DZ SCT037 BKN050 1 
SPZO 081300Z 00000KT 9999 -DZ SCT037 BKN050 12/08 Q1033 TEMPO NSW SCT060 RMK PPTRZ= 
SPZO 081400Z 00000KT 9999 SCT033 SCT100 14/07 Q1033 NOSIG RMK PP000= 
SPZO 081500Z VRB03KT 9999 SCT037 SCT100 17/08 Q1033 NOSIG RMK PP000= 
SPZO 081600Z 35009KT 320V040 9999 VCSH SCT037 SCT100 15/08 Q1032 NOSIG PP000= 
SPZO 081700Z 36010KT 9999 VCSH SCT040 SCT100 18/07 Q1031 TEMPO -RA PP000= 
SPZO 081600Z 35009KT 320V040 9999 VCSH SCT037 SCT100 15/08 Q1032 NOSIG PP000= 
SPZO 081700Z 36010KT 9999 VCSH SCT040 SCT100 18/07 Q1031 TEMPO -RA PP000= 
SPZO 081800Z 24009KT 210V310 9999 VCSH BKN040 SCT100 17/08 Q1030 NOSIG PP000= 
SPZO 081900Z 12006KT 080V170 9999 RA BKN040 SCT050 14/08 Q1030 TEMPO FM1920 NSW PPTRZ EMPEZO 1846= 
SPZO 082000Z 30007KT 250V330 9999 VCSH BKN040 SCT050 13/10 Q1030 NOSIG PP002= 
SPZO 082100Z 30007KT 9999 VCSH BKN040 SCT050 13/09 Q1029 NOSIG PP000= 
SPZO 082115Z 27005KT 9999 -RA BKN040 SCT047 12/09 Q1029= 
SPZO 082115Z 27005KT 9999 -RA BKN040 SCT047 12/09 Q1029= 
SPZO 082200Z VRB03KT 9999 DZ BKN043 SCT050 12/08 Q1029 NOSIG PP014= 
SPZO 082200Z VRB03KT 9999 DZ BKN043 SCT050 12/08 Q1029 NOSIG PP014 TMAX 18.6= 
SPZO 082300Z VRB01KT 9999 -DZ BKN040 SCT080 12/08 Q1029 NOSIG PP002= 
SPZO 090000Z 00000KT 9000 OVC040 11/09 Q1030 REDZ RMK PP002= 
SPZO 090100Z 10003KT 9999 OVC040 10/09 Q1031 RMK PP000= 
SPZO 090200Z 00000KT 9999 OVC040 11/09 Q1031 RMK PP000= 
SPZO 090300Z 00000KT 9999 OVC040 11/09 Q1032 RMK PP000= 
SPZO 090400Z 00000KT 9999 OVC040 11/09 Q1032 RMK PP000= 
SPZO 090500Z 36003KT 8000 -RA SCT030 BKN040 11/08 Q1032 PP004= 
SPZO 090600Z 27004KT 8000 -RA SCT030 BKN040 10/07 Q1032 PP020= 
SPZO 090700Z 29002KT 2300 +RA BKN030 SCT040 09/08 Q1032 PP064= 
SPZO 090800Z 25002KT 5000 +RA SCT030 SCT040 09/07 Q1031 PP052= 
SPZO 090500Z 36003KT 8000 -RA SCT030 BKN040 11/08 Q1032 PP004= 
SPZO 090600Z 27004KT 8000 -RA SCT030 BKN040 10/07 Q1032 PP020= 
SPZO 090700Z 29002KT 2300 +RA BKN030 SCT040 09/08 Q1032 PP064= 
SPZO 090800Z 25002KT 5000 +RA SCT030 SCT040 09/07 Q1031 PP052= 
SPZO 090900Z 21002KT 5000 RA SCT030 BKN040 09/07 Q1032 PP032= 
SPZO 091000Z 00000KT 5000 RA FEW030 BKN040 09/07 Q1032 PP028= 
SPZO 091100Z 00000KT 7000 -RA FEW030 SCT040 BKN050 08/07 Q1032 RMK PP008= 
SPZO 091108Z VRB02KT 9000 -RA FEW025 SCT040 B Q1032= 
SPZO 091136Z 00000KT 9999 FEW025 SCT040 BKN053 09/07 Q1033 
SPZO 091136Z 00000KT 9999 FEW025 SCT040 BKN053 09/07 Q1033 
SPZO 091200Z VRB01KT 9999 FEW025 SCT040 BKN057 09/07 Q1033 TEMPO FEW030 BKN070 NOSIG RMK PP002= 
SPZO 091300Z VRB01KT 9999 FEW030 SCT043 BKN080 11/08 Q1033 TEMPO SCT033 RMK PP000= 
SPZO 091325Z VRB03KT 9999 SCT033 BKN080 12/07 Q1033= 
SPZO 091325Z VRB03KT 9999 SCT033 BKN080 12/07 Q1033= 
SPZO 091400Z 00000KT 9999 SCT033 BKN060 13/07 Q1033 NOSIG RMK PP000= 
SPZO 091500Z VRB02KT 9999 SCT037 BKN060 14/07 Q1033 NOSIG RMK PP000= 
SPZO 091600Z VRB03KT 9999 SCT040 BKN080 16/06 Q1032 NOSIG RMK PP000= 
SPZO 091700Z 27004KT 220V340 9999 SCT040 BKN080 17/08 Q1031 NOSIG RMK PP000= 
SPZO 091725Z VRB03KT 9999 SCT043 SCT060 18/07 Q1030= 
SPZO 091800Z VRB03KT 9999 SCT043 SCT060 17/07 Q1030 TEMPO VCSH RMK PP000= 
SPZO 091900Z VRB05KT 9999 VCRA SCT043 SCT050 17/09 Q1029 NOSIG RMK PP000= 
SPZO 092000Z VRB04KT 9999 VCRA FEW040TCU SCT060 20/08 Q1027 NOSIG RMK PP000 RWY10 04008KT= 
SPZO 092033Z 33008KT 9999 TSVCRA FEW040TCU SCT050 16/07 Q1027 
SPZO 202100Z 35006KT 32V020 9999 VCRA FEW040TCU SCT046 17/08 Q1027 TEMPO -RA RMK PP000= 
SPZO 202100Z 35006KT 320V020 9999 VCRA FEW040TCU SCT046 17/08 Q1027 TEMPO -RA RMK PP000 RWY10 35009KT= 
SPZO 092100Z 35006KT 320V020 9999 VCRA FEW040TCU SCT046 17/08 Q1027 TEMPO -RA RMK PP000 RWY10 35009KT= 
SPZO 092200Z VRB02KT 9999 VCRA SCT043 SCT050 17/08 Q1027 NOSIG RMK PP000 TMX: 19.7= 
SPZO 092300Z 09005KT 9999 VCRA SCT043 SCT050 14/09 Q1027 NOSIG RMK PP000= 
SPZO 100000Z 11004KT 060V170 8000 -DZ OVC040 12/09 Q1029 RMK PP002= 
SPZO 100100Z VRB02KT 8000 -DZ OVC040 12/09 Q1030 RMK PP010= 
SPZO 100200Z VRB02KT 9999 OVC040 11/09 Q1031 REDZ RMK PPTRZ= 
SPZO 100300Z 09004KT 8000 -DZ OVC040 11/09 Q1031 RMK PP002= 
SPZO 100400Z 29002KT 8000 -DZ OVC040 11/09 Q1032 RMK PP004= 
SPZO 100500Z VRB03KT 8000 -DZ OVC040 11/08 Q1031 RMK PP002= 
SPZO 100600Z VRB02KT 9000 OVC040 11/08 Q1030 REDZ RMK PPTRZ= 
SPZO 100700Z 28008KT 9999 OVC040 10/07 Q1030 RMK PP000= 
SPZO 100800Z 27009KT 9999 OVC040 10/07 Q1030 RMK PP000= 
SPZO 100900Z 28006KT 250V320 9999 OVC040 10/06 Q1030 PP000= 
SPZO 101000Z 31004KT 9999 OVC040 10/06 Q1030 RMK PP000= 
SPZO 101100Z 10003KT 8000 OVC040 10/07 Q1031 BR RMK PP000= 
SPZO 101115Z 12005KT 8000 DZ SCT035 BKN043 09/07 Q1031= 
SPZO 101142Z 11005KT 7000E VCRA SCT030 BKN043 09/07 Q1032= 
SPZO 101200Z 11004KT 6000 -RA FEW025 SCT033 BKN046 09/07 Q1032 NOSIG RMK PP004 CLNG BLW 1200M= 
SPZO 101300Z 00000KT 7000 -RA FEW033 SCT037 BKN046 09/07 Q1033 BECMG AT 1340 NSW RMK PP0014 CLNG BLW 1200M= 
SPZO 101330Z 00000KT 7000 DZ FEW025 SCT037 BKN046 10/07 Q1033 RMK CLNG BELOW 1200M= 
SPZO 101400Z VRB02KT 9999 REDZ FEW030 SCT040 BKN046 10/07 Q1033 NOSIG RMK PP006 RWY WET= 
SPZO 101400Z VRB02KT 9999 REDZ FEW030 SCT040 BKN046 10/07 Q1033 NOSIG RMK PP006 RWY WET BCBR NE-E= 
SPZO 101500Z VRB02KT 9999 FEW033 SCT043 BKN060 13/09 Q1032 NOSIG RMK PP000 RWY WET BCBR NE= 
SPZO 101600Z VRB03KT 9999 SCT040 BKN046 14/07 Q1032 TEMPO VCRA RMK PP000= 
SPZO 101700Z VRB02KT 9999 VCRA SCT040 BKN046 15/07 Q1031 NOSIG RMK PP000= 
SPZO 101800Z 29005KT 220V350 9999 VCRA SCT040 SCT050 17/07 Q1030 NOSIG RMK PP000 RWY10 30016KT 250V350= 
SPZO 101900Z 26005KT 190V350 9999 VCRA SCT040 19/09 Q1028 NOSIG RMK PP000= 
SPZO 101900Z 26005KT 190V350 9999 VCRA SCT040 19/09 Q1028 NOSIG RMK PP000 RWY10 25012KT 200V340= 
SPZO 102000Z 33016KT 290V010 7000 RA FEW037TCU SCT040 SCT046 13/08 Q1028 NOSIG RMK PP000= 
SPZO 102000Z 33016KT 290V010 7000 RA FEW037TCU SCT040 SCT046 13/08 Q1028 NOSIG RMK PP000 RWY10 04015KT 340V120= 
SPZO 102023Z 16006KT 090V220 9000 -RA FEW037TCU SCT040 BKN050 13/09 Q1028 RMK RWY10 12012KT= 
SPZO 102100Z 08007KT 050V120 9999 DZ SCT040 BKN050 12/09 Q1028 BECMG FM2130 NSW RMK PP082 RWY10 11009KT 
SPZO 102114Z 04004KT 9999 REDZ SCT040 SCT050 13/09 Q1028= 
SPZO 102200Z VRB02KT 9999 VCRA SCT040 BKN060 13/09 Q1028 NOSIG RMK PP002 TMX: 19.2= 
SPZO 102200Z VRB02KT 9999 VCRA SCT040 BKN060 13/09 Q1028 NOSIG RMK PP004 TMX: 19.2= 
SPZO 102300Z 00000KT 9999 VCRA FEW040 BKN050 13/09 Q1028 NOSIG RMK PP000= 
SPZO 110000Z 00000KT 9999 BKN040 SCT080 13/10 Q1028 PP004= 
SPZO 110100Z 00000KT 9999 SCT040 SCT100 12/10 Q1029 PP000= 
SPZO 110200Z VRB02KT 9999 SCT050 SCT200 12/09 Q1030 PP000= 
SPZO 110300Z 00000KT 9999 FEW040 SCT100 10/09 Q1031 PP000= 
SPZO 110400Z VRB02KT 9999 FEW040 SCT050 10/08 Q1031 PP000= 
SPZO 110500Z 00000KT 9999 BKN040 10/09 Q1031 PP000= 
SPZO 110600Z 00000KT 9999 FEW040 SCT050 09/08 Q1030 PP000= 
SPZO 110700Z 00000KT 9999 SCT040 SCT050 09/08 Q1031 PP000= 
SPZO 110800Z 00000KT 9999 SCT040 SCT050 10/08 Q1029 PP000= 
SPZO 110900Z 00000KT 9999 BKN040 DVT050 10/08 Q1030 PP000= 
SPZO 111000Z 00000KT 9999 SCT040 SCT050 10/09 Q1030 PP000= 
SPZO 111035Z VRB02KT 9999 FEW025 SCT037 BKN047 10/09 Q1030 RMK CLNG BLW 1200M= 
SPZO 111100Z 00000KT 9000 FEW025 SCT037 BKN050 10/09 Q1030 PP000 RMK CLNG BLW 1200M= 
SPZO 111112Z 00000KT 9000 VCFG/E SCT040 BKN050 10/09 Q1030 
SPZO 111200Z VRB03KT 9000 FEW037 SCT040 BKN046 10/09 Q1031 NOSIG RMK PP000 BCBR N-NW= 
SPZO 111300Z 00000KT 9999 SCT040 SCT050 12/09 Q1031 NOSIG RMK PP000= 
SPZO 111400Z VRB02KT 9999 SCT040 SCT050 13/10 Q1032 NOSIG RMK PP000= 
SPZO 111500Z VRB02KT 9999 FEW040 SCT050 16/07 Q1031 NOSIG RMK PP000= 
SPZO 111600Z VRB03KT 9999 SCT050 19/07 Q1030 NOSIG RMK PP000= 
SPZO 111700Z VRB02KT 9999 SCT050 20/04 Q1029 NOSIG RMK PP000= 
SPZO 111800Z VRB04KT 9999 BKN050 21/05 Q1028 NOSIG RMK PP000= 
SPZO 111900Z VRB03KT 9999 BKN047 22/09 Q1026 NOSIG RMK PP000= 
SPZO 112000Z VRB03KT 9999 -SHRA SCT040 SCT050 21/07 Q1025 TEMPO NSW RMK PP000= 
SPZO 112100Z 35004KT 320V050 9999 SCT043 SCT300 19/07 Q1024 RE-SHRA NOSIG RMK PPTRZ= 
SPZO 112200Z 28012KT 250V320 9999 FEW040 SCT050 18/10 Q1024 NOSIG RMK CB DISTANTE AL S PP000 TMAX 22.9= 
SPZO 112300Z 30009KT 260V350 9999 FEW043 SCT300 17/08 Q1025 NOSIG RMK CB DISTANTE AL SW PP000= 
SPZO 120000Z 33006KT 9999 FEW040 SCT050 16/07 Q1026 PP000= 
SPZO 120100Z VRB02KT 9999 SCT050 14/09 Q1028 PP000= 
SPZO 120200Z 20004KT 9999 FEW040 SCT050 13/09 Q1029 PP000= 
SPZO 120300Z 00000KT 9999 FEW040 SCT050 12/09 Q1030 PP000= 
SPZO 120400Z 00000KT 9999 FEW040 SCT050 11/09 Q1030 PP000= 
SPZO 120500Z 00000KT 9999 SCT040 SCT080 11/08 Q1030 PP000= 
SPZO 120600Z 00000KT 9999 BKN040 12/09 Q1029 PP000= 
SPZO 120700Z 00000KT 9999 SCT043 SCT100 12/09 Q1029 PP000= 
SPZO 120800Z 00000KT 9999 BKN040 SCT050 12/09 Q1029 PP000= 
SPZO 120900Z 00000KT 9999 SCT040 SCT050 11/07 Q1029 PP000= 
SPZO 121000Z 00000KT 9999 FEW040 SCT050 11/07 Q1030 PP000= 
SPZO 121100Z VRB02KT 9999 FEW040 SCT050 10/07 Q1030 PP000= 
SPZO 121200Z VRB03KT 9999 FEW050 BKN300 11/08 Q1031 NOSIG RMK PP000= 
SPZO 121300Z VRB02KT 9999 FEW050 BKN300 14/07 Q1032 NOSIG RMK PP000= 
SPZO 121400Z VRB01KT 9999 FEW047 SCT080 BKN300 15/07 Q1032 NOSIG RMK PP000= 
SPZO 121500Z VRB01KT 9999 FEW047 BKN080 17/06 Q1032 NOSIG RMK PP000= 
SPZO 121600Z VRB03KT 9999 SCT043 SCT060 18/07 Q1031 NOSIG RMK PP000= 
SPZO 121700Z VRB03KT 9999 SCT040 SCT060 19/07 Q1030 NOSIG RMK PP000= 
SPZO 121739Z VRB03KT 9999 VCSH SCT040 SCT050TCU 20/07 Q1029= 
SPZO 121739Z VRB03KT 9999 VCSH SCT040 SCT050TCU 20/07 Q1029= 
SPZO 121800Z 10006KT 060V150 8000 VCSH SCT040 SCT050TCU 18/08 Q1029 TEMPO 7000 -RA RMK PP000= 
SPZO 121805Z 11020KT 080V140 7000 TSRA SCT040 BKN050CB 12/08 Q1030 TEMPO FM1830 9000 NSW= 
SPZO 121805Z 11020KT 080V140 7000 TSRA SCT040 BKN050CB 12/08 Q1030 TEMPO FM1830 9000 NSW= 
SPZO 121815Z 16005KT 090V230 9999 -RA VCTS SCT040 BKN050CB 12/07 Q1029 RMK CB MOV AL SW= 
SPZO 121815Z 16005KT 090V230 9999 -RA VCTS SCT040 BKN050CB 12/07 Q1029 RMK CB MOV AL SW= 
SPZO 121900Z 31007KT 280V360 9999 FEW040 BKN060 13/08 Q1029 NOSIG RMK PP018= 
SPZO 122000Z 31004KT 280V020 9999 FEW037 BKN100 16/07 Q1028 NOSIG RMK PP000= 
SPZO 122100Z 26004KT 190V350 9999 SCT043 SCT300 17/08 Q1027 NOSIG RMK PP000= 
SPZO 122200Z 29004KT 250V340 9999 SCT043 BKN300 17/07 Q1027 NOSIG RMK PP000 TMAX 21.2= 
SPZO 122300Z 32004KT 260V360 9999 FEW043 BKN300 15/08 Q1027 NOSIG RMK PP000= 
SPZO 130000Z VRB03KT 9999 SCT050 SCT100 14/09 Q1029 RMK PP000= 
SPZO 130100Z VRB01KT 9999 BKN050 SCT100 14/09 Q1030 RMK PP000= 
SPZO 130200Z VRB02KT 9999 BKN050 12/09 Q1031 RMK PP000= 
SPZO 130300Z VRB03KT 9999 BKN050 11/09 Q1032 RMK PP000= 
SPZO 130400Z 00000KT 9999 OVC050 11/09 Q1032 RMK PP000= 
SPZO 130500Z 00000KT 9999 OVC050 10/08 Q1032 RMK PP000= 
SPZO 130600Z 00000KT 9999 OVC050 10/09 Q1031 RMK PP000= 
SPZO 130700Z VRB02KT 9999 OVC050 10/08 Q1030 RMK PP000= 
SPZO 130500Z 00000KT 9999 OVC050 10/08 Q1032 RMK PP000= 
SPZO 130600Z 00000KT 9999 OVC050 10/09 Q1031 RMK PP000= 
SPZO 130700Z VRB02KT 9999 OVC050 10/08 Q1030 RMK PP000= 
SPZO 130800Z 25005KT 210V300 8000 -RA FEW030 SCT040 BKN050 11/07 Q1031 RMK PP006= 
SPZO 130900Z 25005KT 200V330 7000 -RA FEW030 SCT040 BKN050 11/07 Q1031 RMK PP002= 
SPZO 131000Z VRB03KT 8000 FEW030 SCT040 BKN050 11/07 Q1031 RERA RMK PPTRZ= 
SPZO 131033Z 08003KT 8000 -RA FEW030 SCT040 BKN050 10/08 Q1032= 
SPZO 131100Z 07006KT 9000 SCT040 BKN050 10/08 Q1032 RERA RMK PP002= 
SPZO 131118Z 08004KT 9000 -RA FEW043 OVC060 10/08 Q1 
SPZO 131200Z 00000KT 9999 -DZ FEW043 OVC060 10/08 Q1032 TEMPO NSW RMK PP002= 
SPZO 131220Z VRB01KT 9999 SCT060 OVC100 11/08 Q1033= 
SPZO 131220Z VRB01KT 9999 SCT060 OVC100 11/08 Q1033= 
SPZO 131300Z 10008KT 060V150 9999 SCT050 OVC100 11/07 Q1033 NOSIG RMK PPTRZ= 
SPZO 131400Z 13004KT 090V160 9999 SCT060 OVC100 13/06 Q1033 TEMPO BKN100 RMK PP000= 
SPZO 131500Z VRB03KT 9999 SCT060 OVC160 14/06 Q1033 TEMPO FEW050 SCT100 OVC300 RMK PP000= 
SPZO 131515Z 25005KT 200V300 9999 FEW060 SCT100 OVC300 16/07 Q1032= 
SPZO 131515Z 25005KT 200V300 9999 FEW060 SCT100 OVC300 16/07 Q1032= 
SPZO 131530Z VRB03KT 9999 FEW050 SCT100 BKN300 16/06 Q1032= 
SPZO 131530Z VRB03KT 9999 FEW050 SCT100 BKN300 16/06 Q1032= 
SPZO 131600Z VRB03KT 9999 FEW050 SCT100 BKN300 16/07 Q1032 NOSIG RMK PP000= 
SPZO 131700Z VRB01KT 9999 SCT043 SCT100 BKN300 18/04 Q1031 NOSIG RMK PP000= 
SPZO 131800Z VRB03KT 9999 SCT043 BKN300 20/04 Q1030 NOSIG 
SPZO 131900Z VRB03KT 9999 SCT050 21/06 Q1028 NOSIG RMK PP000= 
SPZO 132000Z 28014KT 240V320 9999 SCT050 20/08 Q1027 NOSIG RMK 
SPZO 132100Z 28010KT 230V330 9999 SCT050 21/06 Q1026 NOSIG RMK 
SPZO 132200Z 03011KT 350V080 9000E -RA SCT040 SCT050 17/04 
SPZO 132300Z 10013KT 9999 RERA SCT043 SCT050 14/06 Q1027 NOSIG 
SPZO 140000Z 12005KT 080V160 9999 OVC050 13/07 Q1029 
SPZO 140100Z 04004KT 9999 OVC050 13/07 Q1030 RMK PP000= 
SPZO 140200Z VRB02KT 9999 OVC050 12/08 Q1031 RMK PP000= 
SPZO 140300Z 00000KT 9999 OVC050 11/08 Q1032 RMK PP000= 
SPZO 140400Z 00000KT 8000 -DZ OVC050 10/07 Q1032 RMK PPTRZ= 
SPZO 140500Z 00000KT 9999 OVC050 10/08 Q1031 REDZ RMK PP002= 
SPZO 140600Z 00000KT 9999 OVC050 10/07 Q1030 RMK PP000= 
SPZO 140700Z 00000KT 9999 OVC050 11/08 Q1030 RMK PP000= 
SPZO 140800Z 00000KT 9999 OVC050 11/08 Q1029 RMK PP000= 
SPZO 140900Z 00000KT 9999 OVC050 10/08 Q1029 RMK PP000= 
SPZO 141000Z VRB02KT 9999 OVC050 10/08 Q1029 RMK PP000= 
SPZO 141100Z 00000KT 9999 OVC050 09/07 Q1030 RMK PP000= 
SPZO 141200Z 00000KT 9999 SCT043 BKN050 10/08 Q1031 NOSIG RMK PP000= 
SPZO 141300Z 00000KT 9999 SCT043 BKN060 12/07 Q1032 NOSIG RMK PP000= 
SPZO 141400Z VRB02KT 9999 FEW040 BKN080 14/07 Q1032 NOSIG RMK PP000= 
SPZO 141400Z VRB02KT 9999 FEW040 BKN080 15/07 Q1032 NOSIG RMK PP000= 
SPZO 141500Z VRB03KT 9999 FEW040 SCT100 16/06 Q1031 NOSIG RMK PP000= 
SPZO 141600Z VRB04KT 999 SCT043 BKN100 17/07 Q1031 NOSIG RMK PP000= 
SPZO 141700Z VRB04KT 9999 FEW046 BKN100 18/08 Q1029 NOSIG RMK PP000 RWY10 08010KT= 
SPZO 141800Z 12004KT 030V190 9999 SCT046 SCT100 19/05 Q1027 NOSIG RMK PP000 RWY10 11007KT= 
SPZO 141900Z 01012KT 340V050 9999 SCT043 SCT050 17/07 Q1026 NOSIG RMK PP000 TEMPO VCRA RWY10 02019KT= 
SPZO 142000Z 32006KT 270V350 9999 VCRA SCT043 SCT050 17/07 Q1026 NOSIG RMK PP000 RWY10 29021KT= 
SPZO 142100Z 05007KT 010V080 9000/E VCRA BKN043 SCT050 16/06 Q1025 NOSIG RMK PP000= 
SPZO 142144Z 13011KT 7000E -RA SCT040 BKN046 12/07 Q1027= 
SPZO 142200Z 07007KT 010V100 7000 -RA SCT037 BKN046 12/08 Q1026 NOSIG RMK PP010 TMX:20.8= 
SPZO 142220Z VRB03KT 9000 RERA/VCRA SCT043 BKN046 12/07 Q1026= 
SPZO 142300Z 10011KT 9999 VCRA SCT043 OVC050 12/08 Q1027 NOSIG RMK PP004= 
SPZO 150000Z VRB03KT 9999 SCT040 BKN080 11/08 Q1028 PP000= 
SPZO 150100Z VRB02KT 8000 -RA BKN040 SCT050 11/09 Q1029 PP004= 
SPZO 150200Z VRB02KT 9999 FEW040 SCT080 11/08 Q1030 PPTRZ= 
SPZO 150300Z 00000KT 9999 SCT040 SCT070 11/09 Q1030 PP002= 
SPZO 150400Z 00000KT 9999 BKN040 SCT070 11/08 Q1030 PP000= 
SPZO 150500Z 120005KT 9999 BKN040 SCT050 11/09 Q1030 PP000= 
SPZO 150600Z 00000KT 9999 OVC040 10/09 Q1029 PP006 RA 0525/35= 
SPZO 150700Z 00000KT 9999 OVC040 10/09 Q1028 PP000= 
SPZO 150800Z 00000KT 9999 SCT040 SCT050 10/09 Q1027 PP000= 
SPZO 150900Z VRB03KT 9999 BKN040 SCT047 10/08 Q1027 PP002= 
SPZO 151000Z 00000KT 9999 FEW030 SCT040 BKN050 09/08 Q1028 PP000= 
SPZO 151100Z 00000KT 9999 FEW025 SCT040 BKN060 10/08 Q1028 PP000= 
SPZO 151200Z 00000KT 9000E FEW033 SCT043 BKN050 12/09 Q1029 NOSIG RMK PP000 BCBR E-NE= 
SPZO 151300Z VRB02KT 9999 FEW037 SCT043 14/09 Q1030 NOSIG RMK PP000= 
SPZO 151400Z VRB03KT 9999 FEW037 BKN043 14/09 Q1030 NOSIG RMK PP000= 
SPZO 151500Z VRB03KT 9999 SCT043 SCT050 15/08 Q1030 NOSIG RMK PP000= 
SPZO 151600Z VRB03KT 9999 VCRA SCT043 SCT050 18/05 Q1029 NOSIG RMK PP000= 
SPZO 151700Z VRB02KT 9999 SCT043 SCT050 18/08 Q1028 NOSIG RMK PP000= 
SPZO 151800Z 31006KT 250V350 9999 SCT043 BKN080 18/08 Q1027 TEMPO VCRA RMK PP000= 
SPZO 151900Z 30006KT 250V350 9999 FEW043 BKN100 18/08 Q1026 NOSIG RMK PP000= 
SPZO 151900Z 30006KT 250V350 9999 FEW043 BKN100 18/08 Q1026 NOSIG RMK RWY10 29018KT 250V310 PP000= 
SPZO 152000Z 31005KT 250V360 9999 FEW043 BKN100 18/09 Q1025 NOSIG RMK PP000= 
SPZO 152100Z 27005KT 200V320 9999 FEW043 BKN100 19/08 Q1024 NOSIG RMK PP000= 
SPZO 152200Z 10009KT 070V130 9999 FEW043 BKN080 17/08 Q1024 NOSIG RMK PP000 TMAX 19.3= 
SPZO 152300Z 11004KT 070V150 9999 FEW043 BKN080 16/08 Q1025 NOSIG RMK PP000= 
SPZO 160000Z VRB03KT 9999 FEW043 SCT100 14/08 Q1025 PP000= 
SPZO 160100Z 00000KT 9999 FEW050 SCT100 13/09 Q1026 PP000= 
SPZO 160200Z 00000KT 9999 SCT200 12/08 Q1028 PP000= 
SPZO 160300Z 00000KT 9999 FEW050 SCT200 11/08 Q1029 PP000= 
SPZO 160400Z 00000KT 9999 FEW040 SCT100 10/08 Q1029 PP000= 
SPZO 160500Z 00000KT 9999 SCT040 09/07 Q1029 PP000= 
SPZO 160600Z 00000KT 9999 SCT050 09/07 Q1028 PP000= 
SPZO 160700Z 00000KT 9999 SCT040 SCT050 08/07 Q1028 PP000= 
SPZO 160800Z 00000KT 9999 SCT040 SCT100 08/07 Q1028 PP000= 
SPZO 160900Z 00000KT 9999 SCT040 SCT050 08/07 Q1028 PP000= 
SPZO 161000Z 00000KT 9999 SCT040 SCT050 09/07 Q1029 PP000= 
SPZO 161100Z 08004KT 9000 SCT050 SCT200 07/06 Q1029 PP000= 
SPZO 161114Z VRB03KT 8000 SCT050 SCT300 08/07 Q1029 RMK BR= 
SPZO 161114Z VRB03KT 8000 SCT050 SCT300 08/07 Q1029 RMK BR= 
SPZO 161200Z VRB02KT 9000 SCT040 SCT060 10/08 Q1030 BECMG 9999 RMK PP000= 
SPZO 161300Z 00000KT 9999 FEW043 SCT080 13/08 Q1031 NOSIG RMK PP000= 
SPZO 161400Z 00000KT 9999 SCT040 16/08 Q1031 NOSIG RMK PP000= 
SPZO 161500Z VRB03KT 9999 SCT040 17/08 Q1030 NOSIG RMK PP000= 
SPZO 161700Z VRB03KT 9999 SCT040 20/07 Q1029 NOSIG RMK PP000= 
SPZO 161700Z VRB03KT 9999 SCT043 20/09 Q1028 NOSIG RMK PP000= 
SPZO 161800Z VRB03KT 9999 FEW040 SCT050 22/07 Q1026 NOSIG RMK PP000= 
SPZO 161900Z VRB03KT 9999 FEW043 SCT050 20/03 Q1025 TEMPO VCSH RMK TCU DISTANTES AL S/SE PP000= 
SPZO 162000Z 36012KT 320V050 9999 SCT043 20/05 Q1024 NOSIG RMK PP000= 
SPZO 162100Z 01010KT 320V070 9999 FEW040 SCT047TCU 20/05 Q1023 NOSIG RMK PP000= 
SPZO 162200Z VRB03KT 9999 FEW040 BKN050 19/07 Q1023 NOSIG RMK PP000 CB DISTANTE SE TMAX 22.1= 
SPZO 162300Z 08004KT 050V110 9999 SCT043 18/07 Q1023 NOSIG RMK PP000= 
SPZO 170000Z 36007KT 330V060 9999 SCT050 17/06 Q1024 PP000= 
SPZO 170100Z VRB03KT 9999 SCT050 15/07 Q1025 RMK PP000= 
SPZO 170200Z 00000KT 9999 BKN050 15/08 Q1027 RMK PP000= 
SPZO 170300Z 00000KT 9999 BKN050 14/08 Q1028 RMK PP000= 
SPZO 170400Z VRB01KT 9999 BKN050 14/08 Q1028 RMK PP000= 
SPZO 170500Z VRB02KT 8000 -DZ OVC050 13/09 Q1028 RMK PPTRZ= 
SPZO 170600Z 26011KT 230V340 1000 +RA BKN030 SCT050 09/06 Q1028 RMK PP120= 
SPZO 170700Z 25004KT 200V290 5000 RA SCT030 SCT050 09/07 Q1029 RMK PP034= 
SPZO 170800Z 00000KT 3900 RA SCT030 BKN050 09/07 Q1029 PP048= 
SPZO 170900Z 29007KT 5000 RA SCT030 BKN050 09/08 Q1029 PP040= 
SPZO 171000Z 26004KT 200V290 7000 -RA FEW030 BKN050 09/07 Q1030 RMK PP006= 
SPZO 171100Z 28005KT 250V320 8000 FEW030 SCT050 BKN060 09/07 Q1030 RERA RMK PPTRZ= 
SPZO 171120Z 28005KT 9999 -RA FEW030 SCT037 BKN043 09/07 Q1031 TEMPO 9000= 
SPZO 171120Z 28005KT 9999 -RA FEW030 SCT037 BKN043 09/07 Q1031 TEMPO 9000= 
SPZO 171138Z VRB03KT 9999 -DZ FEW030 SCT040 OVC080 10 Q1031= 
SPZO 171138Z VRB03KT 9999 -DZ FEW030 SCT040 OVC080 10 Q1031= 
SPZO 171200Z VRB02KT 9999 FEW030 BKN040 OVC100 10/07 Q1031 REDZ TEMPO SCT040 BKN060 RMK PPTRZ= 
SPZO 171220Z VRB02KT 9999 FEW030 SCT040 BKN100 10/07 Q1031= 
SPZO 171220Z VRB02KT 9999 FEW030 SCT040 BKN100 10/07 Q1031= 
SPZO 171300Z VRB01KT 9999 FEW033 SCT100 BKN300 12/07 Q1031 NOSIG RMK PP000= 
SPZO 171400Z VRB02KT 9999 SCT037 BKN300 14/07 Q1031 NOSIG RMK PP000= 
SPZO 171500Z VRB01KT 9999 SCT037 BKN047 15/07 Q1031 NOSIG RMK PP000= 
SPZO 171600Z 00000KT 9999 SCT040 SCT100 16/07 Q1030 NOSIG RMK PP000= 
SPZO 171700Z VRB03KT 9999 FEW040 SCT043 17/06 Q1029 NOSIG RMK PP000= 
SPZO 171800Z 09005KT 050V130 9999 VCSH FEW040 SCT043 18/09 Q1027 NOSIG RMK PP000= 
SPZO 171900Z 09008KT 060V120 9999 VCRA SCT040 SCT050 16/08 Q1026 NOSIG RMK PP000= 
SPZO 171900Z 09008KT 060V120 9999 VCRA SCT040 SCT050 16/08 Q1026 NOSIG RMK PP000 RWY10 11021KT= 
SPZO 172000Z 09005KT 040V140 9999 SCT043 SCT060 18/07 Q1025 NOSIG RMK PP000= 
SPZO 172100Z VRB03KT 9999 SCT046 SCT100 20/06 Q1024 NOSIG RMK PP000= 
SPZO 172200Z 10008KT 9999 SCT040 SCT060 17/07 Q1024 NOSIG RMK PP000 TMX: 19.8= 
SPZO 172300Z 02004KT 320V070 9999 SCT040 BKN050 17/06 Q1025 NOSIG RMK PP000= 
SPZO 180000Z 03007KT 330V100 9999 OVC050 16/06 Q1026 PP000= 
SPZO 180100Z 25004KT 170V310 4400 +RA BKN030 SCT040 10/07 Q1030 RMK PP068= 
SPZO 180200Z 33007KT 290V360 7000 -RA SCT030 SCT040 10/07 Q1030 RMK PP022= 
SPZO 180300Z 00000KT 8000 FEW030 BKN040 11/07 Q1031 RERA RMK PPTRZ= 
SPZO 180400Z VRB02KT 9999 FEW030 BKN040 10/08 Q1031 RMK PP000= 
SPZO 180500Z 00000KT 9999 OVC040 10/07 Q1030 RMK PP000= 
SPZO 180600Z 28004KT 250V320 9999 OVC040 10/07 Q1030 PP000= 
SPZO 180700Z 00000KT 9999 OVC040 10/07 Q1029 RMK PP000= 
SPZO 180800Z 00000KT 9999 OVC040 10/07 Q1029 RMK PP000= 
SPZO 180900Z 27003KT 9999 OVC040 10/07 Q1029 RMK PP000= 
SPZO 181000Z VRB03KT 9999 BKN040 SCT050 10/07 Q1029 RMK PP000= 
SPZO 181100Z 07002KT 9999 SCT040 SCT050 BKN060 10/07 Q1029 RMK PP000= 
SPZO 181200Z VRB02KT 9999 VCRA SCT040 SCT046 10/08 Q1030 NOSIG RMK PP000= 
SPZO 181300Z VRB02KT 9999 FEW037 BKN050 12/07 Q1031 NOSIG RMK PP000= 
SPZO 181400Z VRB01KT 9999 SCT040 16/06 Q1030 NOSIG RMK PP000= 
SPZO 181500Z VRB03KT 9999 SCT040 SCT050 15/07 Q1030 TEMPO VCRA RMK PP000= 
SPZO 181600Z VRB03KT 9999 VCRA SCT040 SCT050 16/08 Q1029 NOSIG RMK PP000= 
SPZO 181600Z VRB03KT 9999 VCRA SCT040 SCT050 16/08 Q1029 NOSIG RMK PP000= 
SPZO 181700Z VRB04KT 9999 SCT040 SCT060 18/07 Q1028 NOSIG RMK PP000= 
SPZO 181800Z 07007KT 340V150 9999 VCRA SCT040TCU SCT046 16/08 Q1027 TEMPO RA RMK PP000 RWY10 30018KT= 
SPZO 181900Z 10008KT 060V160 8000E -RA SCT040TCU SCT050 Q1027 NOSIG RMK PP000= 
SPZO 181900Z 10008KT 060V160 8000E -RA SCT040TCU SCT050 13/08 Q1027 NOSIG RMK PP000= 
SPZO 182000Z 30004KT 250V030 9999 DZ SCT040 BKN046 13/08 Q1027 NOSIG RMK PP006= 
SPZO 182100Z 30004KT 240V340 9999 REDZ FEW040 BKN050 13/08 Q1026 NOSIG RMK PP002 
SPZO 182200Z 00000KT 9999 VCRA SCT040 BKN046 14/08 Q1027 NOSIG RMK PP000 TMX:18.8= 
SPZO 182200Z 00000KT 9999 VCRA SCT040 BKN046 14/08 Q1027 TEMPO -RA RMK PP000 TMX:18.8= 
SPZO 182300Z 32006KT 9999 VCRA SCT040 BKN46 13/08 Q1027 NOSIG RMK PP000= 
SPZO 190000Z 00000KT 9999 SCT040 SCT050 12/08 Q1028 PP000= 
SPZO 190100Z 00000KT 9999 FEW040 SCT050 12/07 Q1029 PP000= 
SPZO 190200Z 00000KT 9999 FEW040 SCT080 12/08 Q1030 PP000= 
SPZO 190300Z 00000KT 9999 FEW040 SCT080 11/08 Q1030 PP000= 
SPZO 190400Z 00000KT 9999 FEW040 SCT060 11/09 Q1030 PP000= 
SPZO 190500Z VRB02KT 9999 SCT040 SCT050 11/09 Q1030 PP000= 
SPZO 190600Z 00000KT 9999 -RA BKN040 SCT050 10/08 Q1029 PP004= 
SPZO 190700Z VRB02KT 9999 OVC040 10/08 Q1029 PP006= 
SPZO 190800Z 00000KT 9999 BKN040 SCT050 10/08 Q1028 PP000= 
SPZO 190900Z 00000KT 9999 FEW030 OVC040 10/08 Q1028 PP002= 
SPZO 191000Z 00000KT 9999 BKN040 SCT050 10/08 Q1028 PP000= 
SPZO 191100Z 00000KT 9000 BKN040 SCT047 10/08 Q1029 PP000= 
SPZO 191200Z VRB03KT 9999 SCT040 BKN046 10/09 Q1030 NOSIG RMK PP000 BCBR NW-SW= 
SPZO 191300Z VRB01KT 9999 SCT040 BKN050 12/09 Q1030 NOSIG RMK PP000 BCBR E-NE= 
SPZO 191400Z VRB03KT 9999 FEW033 SCT040 SCT050 14/09 Q1030 NOSIG RMK PP000= 
SPZO 191500Z VRB01KT 9999 SCT040 BKN046 15/07 Q1030 NOSIG RMK PP000= 
SPZO 191600Z VRB02KT 9999 SCT040 BKN046 16/08 Q1029 NOSIG RMK PP000= 
SPZO 191700Z 25004KT 170V300 9999 SCT040 BKN046 17/07 Q1028 TEMPO VCRA RMK PP000= 
SPZO 191800Z 13004KT 050V190 9999 SCT043 SCT050 18/07 Q1027 NOSIG RMK PP000= 
SPZO 191900Z 32010KT 280V360 9000 SHRA SCT043TCU BKN047 17/07 Q1026 TEMPO FM1915 9999 NSW RMK PP000= 
SPZO 191927Z VRB04KT 9999 VCSH SCT043 BKN047 14/07 Q1027 RESHRA NOSIG RMK PP004= 
SPZO 192000Z VRB05KT 9000 VCSH SCT043 BKN047 16/08 Q1026 NOSIG RMK PP004= 
SPZO 192010Z 34008KT 290V030 9000 -RA SCT043 BKN050 14/08 Q1026 TEMPO FM2030 NSW= 
SPZO 192100Z VRB04KT 9999 -RA FEW033 BKN050 13/08 Q1026 BECMG NSW RMK PP002= 
SPZO 192200Z VRB03KT 9999 -DZ SCT043 BKN047 13/08 Q1026 NOSIG RMK PP002 TMAX 18.7= 
SPZO 192300Z VRB02KT 9999 -DZ SCT040 BKN047 13/09 Q1026 NOSIG RMK PPTRZ= 
SPZO 200000Z 31006KT 9999 -DZ SCT037 BKN047 12/09 Q1028 PP004= 
SPZO 200100Z 00000KT 9999 -RA OVC040 11/08 Q1028 PP008= 
SPZO 200200Z 00000KT 9999 BKN040 SCT100 11/09 Q1029 PPTRZ= 
SPZO 200300Z VRB02KT 9999 OVC043 11/09 Q1030 PP000= 
SPZO 200400Z 00000KT 9999 BKN040 SCT070 11/09 Q1030 PP000= 
SPZO 200500Z 00000KT 9999 BKN040 SCT070 11/09 Q1030 PP000= 
SPZO 200600Z 00000KT 9999 OVC040 11/09 Q1029 PP000= 
SPZO 200700Z 00000KT 9999 OVC043 11/09 Q1029 PP000= 
SPZO 200800Z VRB03KT 8000 RA OVC040 10/08 Q1028 PP014= 
SPZO 200900Z 00000KT 8000 -RA FEW025 OVC040 10/08 Q1029 PP042= 
SPZO 201000Z 09004KT 9999 FEW025 SCT040 BKN047 09/08 Q1029 PPTRZ= 
SPZO 201030Z VRB03KT 9000 FEW025 SCT037 BKN047 09/08 Q1030 RMK CLNG BLW 1200M= 
SPZO 201100Z VRB01KT 9999 FEW025 SCT037 BKN050 09/08 Q1030 PP000 RMK CLNG BLW 1200M= 
SPZO 201130Z VRB02KT 9999 FEW025 SCT037 BKN043 1 RMK RA SOBRE OROPESA= 
SPZO 201200Z VRB03KT 9999 SCT025 SCT040 BKN043 10/08 Q1030 TEMPO BKN047 RMK PP000= 
SPZO 201200Z VRB03KT 9999 SCT025 SCT040 BKN04 TEMPO BKN047 RMK RA Y NUB 
SPZO 201237Z 00000KT 9000 -RA SCT025 SCT040 BKN0 Q1031 TEMPO FM1310 9999 NSW BKN043= 
SPZO 201300Z VRB02KT 9000 -DZ SCT025 BKN043 12/09 Q1031 RERA TEMPO FM1310 9999 NSW RMK PP002= 
SPZO 201400Z VRB02KT 9999 SCT025 BKN047 13/07 Q1031 REDZ NOSIG RMK PPTRZ= 
SPZO 201500Z VRB02KT 9999 SCT033 SCT060 15/08 Q1031 TEMPO SCT040 RMK PP000= 
SPZO 201600Z 08005KT 340V130 9999 VCSH SCT040 SCT060 15/08 
SPZO 201624Z 07005KT 020V120 9000 VCSH BKN040 SCT047 15/08 
SPZO 201624Z 07005KT 020V120 9000 VCSH BKN040 SCT047 15/08 
SPZO 201643Z 01007KT 320V140 8000 -RA BKN400 SCT047 13/08 Q1030= 
SPZO 201643Z 01007KT 320V140 8000 -RA BKN400 SCT047 13/08 Q1030= 
SPZO 201643Z 01007KT 320V140 8000 -RA BKN040 SCT047 13/08 Q1030= 
SPZO 201643Z 01007KT 320V140 8000 -RA BKN040 SCT047 13/08 Q1030= 
SPZO 201700Z 00000KT 8000 -RA SCT040 BKN047 17/08 Q1029 
SPZO 201715Z 23004KT 180V300 9999 VCSH SCT040 SCT047 14/08 Q1029= 
SPZO 201800Z VRB03KT 9999 -RA SCT043TCU SCT047 15/07 Q1028 TEMPO 9000 FM1820 NSW RMK TCU DISTANTES ESE Y S PPTRZ= 
SPZO 201815Z 27004KT 200V330 9999 VCSH SCT040 SCT047 1 Q1028 RERA= 
SPZO 201815Z 27004KT 200V330 9999 VCSH SCT040 SCT047 1 Q1028 RERA= 
SPZO 201900Z 09005KT 050V140 8000 VCSH BKN043TCU SCT047 
SPZO 201900Z 09005KT 050V140 8000 TS BKN043CB SCT047 16/09 Q1028 TEMPO 7000 TSRA RWY10 34021G34KT 270V050 PPTRZ= 
SPZO 201900Z 09005KT 050V140 8000 TSRA BKN043CB SCT047 16/09 Q1028 TEMPO 7000 RWY10 34021G34KT 270V050 RA INICIO 1854Z PPTRZ= 
SPZO 201940Z 17004KT 110V230 9000 VCSH BKN043 SCT047 1 Q1028= 
SPZO 201940Z 17004KT 110V230 9000 VCSH BKN043 SCT047 1 Q1028= 
SPZO 202000Z VRB02KT 9000 VCSH BKN043 SCT047 13/08 Q1028 TEMPO 8000 -RA RMK PP030= 
SPZO 202032Z 00000KT 6000 RA SCT037 BKN043 12/09 Q1028= 
SPZO 202032Z 00000KT 6000 RA SCT037 BKN043 12/09 Q1028= 
SPZO 202100Z 00000KT 7000 RA SCT040 BKN043 11/08 Q1028 TEMPO FM2130 9000 NSW RMK PP014= 
SPZO 202200Z 00000KT 9999 -RA FEW025 BKN043 12/09 Q1027 
SPZO 202300Z 00000KT 9999 SCT040 SCT047 12/09 Q1027 NOSIG RMK PPTRZ= 
SPZO 202300Z 00000KT 9999 SCT040 SCT047 12/09 Q1027 RERA NOSIG RMK PPTRZ= 
SPZO 210000Z 00000KT 9999 OVC040 12/09 Q1028 RMK PP000= 
SPZO 210100Z 00000KT 9999 OVC040 11/09 Q1029 RMK PP000= 
SPZO 210200Z 08002KT 9999 OVC040 11/09 Q1030 RMK PP000= 
SPZO 210300Z 00000KT 9999 OVC040 11/09 Q1030 RMK PP000= 
SPZO 210400Z 00000KT 8000 -DZ OVC040 11/10 Q1030 RMK PPTRZ= 
SPZO 210500Z 00000KT 9000 OVC040 11/09 Q1030 REDZ RMK PP002= 
SPZO 210600Z 00000KT 9999 OVC040 10/09 Q1030 RMK PP000= 
SPZO 210700Z 00000KT 9999 OVC040 09/08 Q1029 RMK PP000= 
SPZO 210800Z 00000KT 9999 OVC040 09/07 Q1029 RMK PP000= 
SPZO 210500Z 00000KT 9000 OVC040 11/09 Q1030 REDZ RMK PP002= 
SPZO 210600Z 00000KT 9999 OVC040 10/09 Q1030 RMK PP000= 
SPZO 210700Z 00000KT 9999 OVC040 09/08 Q1029 RMK PP000= 
SPZO 210800Z 00000KT 9999 OVC040 09/07 Q1029 RMK PP000= 
SPZO 210900Z 00000KT 9999 OVC040 09/08 Q1029 RMK PP000= 
SPZO 210800Z 00000KT 9999 OVC040 09/07 Q1029 RMK PP000= 
SPZO 211000Z 00000KT 9999 OVC040 09/08 Q1029 RMK PP000= 
SPZO 211100Z 00000KT 9999 OVC040 09/08 Q1030 RMK PP000= 
SPZO 211123Z 00000KT 9999 FEW030 SCT037 BKN047 10/08 Q1030= 
SPZO 211123Z 00000KT 9999 FEW030 SCT037 BKN047 10/08 Q1030= 
SPZO 211200Z 00000KT 9000 FEW030 SCT037 BKN043 10/08 Q1031 BECMG 9999 RMK PP000= 
SPZO 211200Z 00000KT 9000 FEW030 SCT037 BKN043 10/08 Q1031 BECMG 9999 VCRA RMK PP000= 
SPZO 211208Z VRB01KT 8000 VCRA SCT037 BKN047 11/08 Q1031= 
SPZO 211208Z VRB01KT 8000 VCRA SCT037 BKN047 11/08 Q1031= 
SPZO 211223Z 00000KT 9000 SCT033 BKN047 12/08 Q1031= 
SPZO 211223Z 00000KT 9000 SCT033 BKN047 12/08 Q1031= 
SPZO 211300Z 00000KT 9999 SCT033 BKN043 12/08 Q1031 NOSIG RMK PP000= 
SPZO 211400Z VRB03KT 9999 SCT037 BKN047 14/09 Q1032 NOSIG RMK PP000= 
SPZO 211500Z VRB03KT 9999 VCSH SCT037 BKN043 15/09 Q1031 NOSIG RMK PP000= 
SPZO 211512Z 31005KT 240V350 8000 RA SCT037TCU BKN043 14/09 Q1031 TEMPO 7000= 
SPZO 211512Z 31005KT 240V350 8000 RA SCT037TCU BKN043 14/09 Q1031 TEMPO 7000= 
SPZO 211534Z 24005KT 200V090 9000 -RA SCT037 BKN043 12/09 Q1031 RMK RWY10 23014KT= 
SPZO 211534Z 24005KT 200V090 9000 -RA SCT037 BKN043 12/09 Q1031 RMK RWY10 23014KT= 
SPZO 211600Z 23004KT 150V300 9000 VCSH SCT040TCU SCT043 14/09 Q1031 NOSIG RMK PP012= 
SPZO 211620Z VRB02KT 8000 -RA SCT037 FEW040TCU SCT047 14/09 Q1031 RMK TCU E= 
SPZO 211620Z VRB02KT 8000 -RA SCT037 FEW040TCU SCT047 14/09 Q1031 RMK TCU E= 
SPZO 211700Z VRB03KT 8000 TSRA SCT037CB BKN043 13/07 Q1030 TEMPO 7000 PP008= 
SPZO 11737Z 26006KT 220V300 9000 -RA FEW030 SCT040 BKN043 11/07 Q1030= 
SPZO 211800Z 25006KT 210V280 9000 -RA FEW030 SCT040 BKN043 11/08 Q1030 TEMPO 8000 RMK PP010= 
SPZO 211827Z VRB02KT 9000E VCRA SCT037 SCT046 15/10 Q1029= 
SPZO 211900Z VRB02KT 9999 VCRA/E FEW037 SCT046 16/09 Q1028 NOSIG RMK PP000= 
SPZO 212000Z 33004KT 290V020 9000 VCRA SCT040TCU SCT046 16/08 Q1027 NOSIG RMK PP000= 
SPZO 212100Z VRB03KT 9999 VCRA SCT040 15/07 Q1026 NOSIG RMK PP000= 
SPZO 212100Z VRB03KT 9999 VCRA SCT040 15/07 Q1026 NOSIG RMK PP000= 
SPZO 212200Z 28005KT 9999 VCRA BKN040 15/08 Q1026 NOSIG RMK PP000= 
SPZO 212200Z 28005KT 9999 VCRA BKN040 15/08 Q1026 NOSIG RMK PP000 TMX: 16.3= 
SPZO 212300Z VRB03KT 9999 BKN043 14/07 Q1026 NOSIG RMK PP000= 
SPZO 220000Z 00000KT 9999 OVC040 14/09 Q1028 RMK PP000= 
SPZO 220100Z 21004KT 110V270 4200 +RA SCT030TCU BKN040 12/09 Q1029 RMK PP0052= 
SPZO 220200Z 26002KT 5000 +RA SCT030TCU BKN040 10/08 Q1030 RMK PP054= 
SPZO 220300Z 21002KT 8000 -RA FEW030 BKN040 10/08 Q1031 PP006= 
SPZO 220400Z 00000KT 9000 FEW030 BKN040 10/08 Q1031 RERA 
SPZO 220500Z 00000KT 9999 OVC040 10/08 Q1030 RMK PP000= 
SPZO 220600Z 10002KT 7000 -RA SCT030 BKN040 10/09 Q1030 PP004= 
SPZO 220000Z 00000KT 9999 OVC040 14/09 Q1028 RMK PP000= 
SPZO 220700Z VRB01KT 7000 -RA SCT030 BKN040 10/09 Q1030 
SPZO 220800Z VRB02KT 4400 RA SCT030TCU BKN040 10/08 Q1030 RMK PP026= 
SPZO 220900Z 05004KT 9000 SCT030 BKN040 09/08 Q1030 RERA RMK PP012= 
SPZO 221000Z 10003KT 9999 FEW030 BKN040 09/07 Q1030 RMK PP000= 
SPZO 221100Z 00000KT 9999 FEW030 BKN040 OVC050 09/07 Q1031 RMK PP000= 
SPZO 221136Z VRB01KT 9000E VCRA FEW033 SCT040 BKN046 10/08 Q1031= 
SPZO 221200Z VRB03KT 9000E VCRA SCT037 BKN046 10/08 Q1031 BECMG FM13 SCT040 RMK PP000= 
SPZO 221230Z VRB02KT 9999 VCRA SCT037 BKN046 10/07 Q1032= 
SPZO 221300Z VRB03KT 9999 SCT037 BKN046 11/07 Q1032 BECMG FM1330 SCT040 RMK PP000= 
SPZO 221330Z VRB03KT 9999 FEW033 SCT040 SCT050 12/08 Q1033= 
SPZO 221400Z 11004KT 060V200 9999 VCRA FEW033 SCT040 BKN050 12/07 Q1033 NOSIG RMK PP000= 
SPZO 221500Z 10005KT 050V160 9999 SCT040 SCT050 14/07 Q1032 NOSIG RMK PP000= 
SPZO 221526Z 09005KT 9000E VCRA FEW037 SCT040 SCT046 14/08 Q1032= 
SPZO 221600Z 08006KT 040V150 9999 VCRA FEW037 SCT040 15/08 Q1032 NSOIG RMK PP000= 
SPZO 221620Z 09004KT 9000 -RA SCT040 BKN046 14/08 Q1032= 
SPZO 221620Z 09004KT 9000 -RA SCT040 BKN046 14/08 Q1032= 
SPZO 221622Z 31007KT 7000 -RA SCT037 BKN046 12/08 Q1032= 
SPZO 221700Z 29006KT 8000 -RA SCT037 BKN043 11/09 Q1032 BECMG AT 1745 9000 SCT040 BKN046 RMK PP0014= 
SPZO 221700Z 29006KT 7000 -RA SCT037 BKN043 11/09 Q1032 BECMG AT 1745 9000 SCT040 BKN046 RMK PP0014 COR RWY WET= 
SPZO 271728Z VRB03KT 8000 -RA FEW033 SCT037 BKN046 11/08 Q1031= 
SPZO 221800Z VRB03KT 9999 RERA SCT040 SCT050 13/08 Q1031 NOSIG RMK PP018 RWY WET= 
SPZO 221900Z 28004KT 9999 FEW037 SCT040 SCT046 14/08 Q1029 NOSIG RMK PP000= 
SPZO 221900Z 28004KT 9999 DZ FEW037 SCT040 SCT046 14/08 Q1029 NOSIG RMK PP000= 
SPZO 222000Z VRB03KT 9999 VCRA SCT040 SCT050 15/08 Q1028 NOSIG RMK PPTRZ= 
SPZO 222100Z VRB03KT 9999 VCRA BKN040 15/08 Q1027 NOSIG RMK PP000= 
SPZO 222200Z VRB02KT 9999 SCT043 17/08 Q1027 NOSIG RMK PP000 TMAX:17.4= 
SPZO 222300Z VRB03KT 9999 VCRA BKN043 15/09 Q1028 NOSIG RMK PP000= 
SPZO 230000Z 29004KT 9999 SCT040 SCT046 14/08 Q1029 PP000= 
SPZO 230100Z 36004KT 9999 -RA SCT030 BKN043 13/08 Q1030 PP002= 
SPZO 230200Z 08004KT 9999 RERA BKN040 SCT070 11/08 Q1031 PP002= 
SPZO 230300Z 00000KT 9999 BKN040 SCT070 11/08 Q1032 PP000= 
SPZO 230400Z VRB03KT 9999 BKN040 SCT050 11/08 Q1032 PP000= 
SPZO 230500Z VRB02KT 9999 OVC040 10/08 Q1032 PP000= 
SPZO 230600Z 00000KT 9999 OVC040 09/08 Q1032 PP000= 
SPZO 230700Z 00000KT 9999 SCT030 BKN040 10/08 Q1031 PP002= 
SPZO 230800Z 00000KT 9999 SCT030 BKN043 10/08 Q1031 PP000= 
SPZO 230900Z 00000KT 9999 SCT030 BKN043 10/08 Q1031 PP000= 
SPZO 231000Z 00000KT 9999 FEW030 SCT043 BKN050 10/08 Q1031 PP000= 
SPZO 231100Z VRB03KT 9999 FEW030 SCT040 BKN046 10/09 Q1032 PP000= 
SPZO 231200Z VRB02KT 9999 FEW037 BKN043 10/09 Q1033 NOSIG RMK PP000= 
SPZO 231300Z VRB03KT 9999 FEW037 SCT043 14/08 Q1034 NOSIG RMK PP000= 
SPZO 231400Z VRB03KT 9999 SCT043 16/08 Q1034 NOSIG RMK PP000= 
SPZO 231500Z VRB03KT 9999 SCT046 18/06 Q1033 NOSIG RMK PP000= 
SPZO 231600Z VRB04KT 9999 SCT050 18/09 Q1032 NOSIG RMK PP000= 
SPZO 231700Z VRB03KT 9999 FEW040TCU SCT050 19/07 Q1031 TEMPO VCRA RMK PP000= 
SPZO 231800Z 32008KT 280V360 9999 VCRA SCT040TCU BKN050 TEMPO 
SPZO 231900Z 03011KT 300V080 9999 SCT043 SCT100 19/07 Q1029 
SPZO 232000Z 34006KT 260V040 9999 SCT043 SCT100 20/06 Q1028 
SPZO 232000Z 34006KT 260V040 9999 SCT043 SCT100 20/06 Q1028 
SPZO 232100Z 36008KT 320V060 9999 VCSH FEW043TCU FEW047 BKN100 
SPZO 232200Z 13005KT 100V160 9999 SCT043 BKN100 17/08 Q1028 
SPZO 232300Z 02005KT 330V070 9999 FEW040 BKN043 16/07 Q1029 
SPZO 240000Z 16004KT 9999 SCT040 SCT046 15/07 Q1030 PP000= 
SPZO 240100Z VRB02KT 9999 FEW040 SCT050 13/07 Q1032 PP000= 
SPZO 240200Z VRB01KT 9999 SCT040 13/06 Q1032 PP000= 
SPZO 240300Z 00000KT 9999 SCT050 11/08 Q1033 PP000= 
SPZO 240400Z 00000KT 9999 FEW040 SCT050 11/08 Q1033 PP000= 
SPZO 240500Z 00000KT 9999 SCT037 SCT050 10/07 Q1033 PP000= 
SPZO 240600Z 00000KT 9999 BKN037 SCT046 09/07 Q1033 PP000= 
SPZO 240700Z 00000KT 9999 BKN040 09/07 Q1033 PP000= 
SPZO 240800Z 00000KT 9999 SCT050 08/06 Q1033 PP000= 
SPZO 240900Z 00000KT 9999 SCT050 08/07 Q1033 PP000= 
SPZO 241000Z VRB03KT 9999 SCT040 SCT050 08/07 Q1033 PP000= 
SPZO 241100Z 00000KT 9999 FEW040 SCT050 08/06 Q1034 PP000= 
SPZO 241200Z 00000KT 9000 FEW040 BKN300 09/07 Q1034 BECMG 9999 RMK PP000= 
SPZO 241300Z 01005KT 060V120 9999 FEW040 BKN300 11/07 Q1035 TEMPO SCT040B SCT300 RMK PP000= 
SPZO 241300Z 01005KT 060V120 9999 FEW040 BKN300 11/07 Q1035 TEMPO SCT040 SCT300 RMK PP000= 
SPZO 241400Z 08004KT 360V170 9999 SCT040 14/08 Q1035 NOSIG RMK PP000= 
SPZO 241500Z 09004KT 030V140 9999 FEW040 SCT043 15/07 Q1034 NOSIG RMK PP000= 
SPZO 241600Z 08004KT 020V170 9999 FEW040 SCT043 17/07 Q1033 NOSIG RMK PP000= 
SPZO 241700Z 10007KT 020V140 9999 FEW040 SCT047 19/06 Q1032 NOSIG RMK PP000= 
SPZO 241800Z VRB04KT 9999 FEW040 SCT050 20/06 Q1030 NOSIG RMK PP000= 
SPZO 241900Z 01010KT 320V070 9999 FEW040 SCT050 21/05 Q1029 NOSIG RMK PP000= 
SPZO 242000Z 01011KT 340V050 9999 FEW040 SCT050 20/06 Q1028 NOSIG RMK PP000= 
SPZO 242100Z 04007KT 340V070 9999 SCT043 20/05 Q1027 NOSIG RMK PP000= 
SPZO 242200Z 01010KT 300V050 9999 SCT043 SCT300 18/04 Q1027 NOSIG RMK PP000 TMAX 21.1= 
SPZO 242300Z VRB04KT 9999 SCT043 SCT300 17/06 Q1028 NOSIG RMK PP000= 
SPZO 250000Z 03007KT 320V080 9999 BKN050 15/06 Q1030 PP000= 
SPZO 250100Z 00000KT 9999 BKN050 14/07 Q1031 RMK PP000= 
SPZO 250200Z 00000KT 9999 BKN050 13/07 Q1032 RMK PP000= 
SPZO 250300Z 00000KT 9999 12/07 Q1033 RMK PP000= 
SPZO 250300Z 00000KT 9999 BKN050 12/07 Q1033 RMK PP000= 
SPZO 250400Z 00000KT 9999 BKN050 10/07 Q1033 RMK PP000= 
SPZO 240500Z 00000KT 9999 BKN050 10/08 Q1032 RMK PP000= 
SPZO 250500Z 00000KT 9999 BKN050 10/08 Q1032 RMK PP000= 
SPZO 250600Z 00000KT 9999 BKN050 10/07 Q1032 RMK PP000= 
SPZO 250700Z 00000KT 9999 BKN050 09/07 Q1032 RMK PP000= 
SPZO 250800Z 00000KT 9999 BKN050 09/07 Q1031 RMK PP000= 
SPZO 240500Z 00000KT 9999 BKN050 10/08 Q1032 RMK PP000= 
SPZO 250500Z 00000KT 9999 BKN050 10/08 Q1032 RMK PP000= 
SPZO 250600Z 00000KT 9999 BKN050 10/07 Q1032 RMK PP000= 
SPZO 250700Z 00000KT 9999 BKN050 09/07 Q1032 RMK PP000= 
SPZO 250800Z 00000KT 9999 BKN050 09/07 Q1031 RMK PP000= 
SPZO 250900Z 00000KT 9999 BKN050 09/07 Q1031 RMK PP000= 
SPZO 251000Z 00000KT 9999 BKN050 08/07 Q1032 RMK PP000= 
SPZO 251100Z 10002KT 9999 BKN050 08/07 Q1032 RMK PP000= 
SPZO 251120Z VRB01KT 9000 SCT037 BKN043 09/07 Q1032= 
SPZO 251120Z VRB01KT 9000 SCT037 BKN043 09/07 Q1032= 
SPZO 251200Z VRB02KT 9999 SCT040 BKN043 09/07 Q1033 NOSIG RMK PP000= 
SPZO 251236Z VRB01KT 9999 SCT040 SCT080 13/08 Q1033= 
SPZO 251236Z VRB01KT 9999 SCT040 SCT080 13/08 Q1033= 
SPZO 251300Z VRB01KT 9999 SCT040 SCT080 13/07 Q1033 NOSIG RMK PP000= 
SPZO 251330Z VRB01KT 9999 BKN040 SCT060 14/07 Q1033= 
SPZO 251330Z VRB01KT 9999 BKN040 SCT060 14/07 Q1033= 
SPZO 251400Z VRB03KT 9999 BKN040 SCT043 14/06 Q1033 NOSIG RMK PP000= 
SPZO 251500Z VRB02KT 9999 FEW040 BKN047 16/08 Q1033 NOSIG RMK PP000= 
SPZO 251600Z VRB03KT 9999 SCT040 SCT050 17/08 Q1032 NOSIG RMK PP000= 
SPZO 251700Z 29008KT 250V340 9999 SCT043TCU SCT050 16/07 Q1031 TEMPO VCSH RMK PP000= 
SPZO 251700Z 29008KT 250V340 9999 SCT043TCU SCT050 16/07 Q1031 TEMPO VCSH RMK RWY10 29020G34KT 240V340 PP000= 
SPZO 251800Z 31006KT 260V010 9999 VCSH SCT043 FEW050TCU SCT100 17/07 Q1030 NOSIG RMK PP000= 
SPZO 251900Z VRB03KT 9999 VCRA BKN050 19/08 Q1028 NOSIG RMK PP000= 
SPZO 252000Z 29011KT 240V330 9999 VCRA FEW043TCU BKN050 17/06 Q1027 NOSIG RMK PP000= 
SPZO 252100Z 02013KT 320V080 9999 BKN046 17/06 Q1026 NOSIG RMK 
SPZO 252100Z 35006KT 320V020 9999 VCRA SCT043 SCT050 16/07 Q1026 TEMPO -RA RMK PP000 TMX:19.3= 
SPZO 252200Z 35006KT 320V020 9999 VCRA SCT043 SCT050 16/07 Q1026 TEMPO -RA RMK PP000 TMX:19.3= 
SPZO 252236Z 10004KT 8000 -RA SCT040 SCT046 14/09 Q1027= 
SPZO 252300Z 18004KT 140V210 9000 -RA SCT040 BKN050 14/08 Q1027 RMK PPTRZ= 
SPZO 260000Z 11003KT 9000 FEW030 BKN040 12/08 Q1029 RERA RMK PP004= 
SPZO 260100Z 11013KT 5000 RA SCT030 SCT040 10/07 Q1031 PP012= 
SPZO 260200Z 08003KT 8000 -RA SCT030 BKN040 09/07 Q1032 PP016= 
SPZO 260300Z 10004KT 8000 RA SCT030 BKN040 09/07 Q1033 PP024= 
SPZO 260400Z 00000KT 8000 -RA FEW030 BKN040 09/07 Q1032 PP004= 
SPZO 260500Z 00000KT 8000 -RA FEW030 BKN040 09/07 Q1032 PP006= 
SPZO 260600Z 00000KT 9000 OVC040 09/07 Q1031 RERA RMK PP002= 
SPZO 260700Z 00000KT 9999 OVC040 09/07 Q1030 RMK PP000= 
SPZO 20800Z 00000KT 9999 OVC040 09/07 Q1030 RMK PP000= 
SPZO 260900Z 00000KT 7000 -DZ OVC040 09/07 Q1030 RMK PP002= 
SPZO 261000Z 00000KT 8000 OVC040 09/07 Q1030 REDZ RMK PPTRZ= 
SPZO 261100Z 08003KT 9000 SCT030 BKN040 OVC050 09/07 Q1030 
SPZO 261118Z 10004KT 9999 FEW033 SCT040 BKN046 09/07 Q1031= 
SPZO 261200Z 10004KT 060V130 9999 FEW033 SCT040 SCT050 10/07 Q1031 RMK PP000 BCBRE NW-SW= 
SPZO 261300Z 10004KT 050V140 FEW030 SCT040 SCT050 11/08 Q1032 NOSIG RMK PP000 BCBR NE W= 
SPZO 261300Z 10004KT 050V140 9999 FEW030 SCT040 SCT050 11/08 Q1032 NOSIG RMK PP000 BCBR NE W= 
SPZO 261400Z VRB02KT 9999 FEW037 SCT060 14/07 Q1031 NOSIG RMK PP000 BCBR NE= 
SPZO 261500Z VRB05KT 9999 SCT050 15/08 Q1031 NOSIG RMK PP000= 
SPZO 261600Z VRB03KT 9999 SCT040 16/08 Q1029 NOSIG RMK PP000= 
SPZO 261700Z VRB03KT 9999 SCT046 18/08 Q1028 NOSIG RMK PP000= 
SPZO 261800Z VRB04KT 9999 BKN046 20/07 Q1026 TEMPO VCRA RMK PP000= 
SPZO 261900Z VRB03KT 9999 BKN050 20/05 Q1024 NOSIG RMK PP000= 
SPZO 262000Z 01010KT 320V060 9999 BKN043 20/07 Q1023 TEMPO VCRA RMK PP000 RWY10 02018KT= 
SPZO 262700Z VRB08KT 8000 TSRA SCT040TCU SCT046 16/08 Q1024 BECMG AT 2140 NSW PP000 RWY10 35006KT= 
SPZO 262200Z 26006KT 210V330 9999 VCRA SCT040 BKN046 14/09 Q1024 NOSIG RMK PP002 RWY10 23009KT TMX:20.7= 
SPZO 262300Z VRB03KT 9999 SCT040 BKN046 14/08 Q1026 NOSIG RMK PP000= 
SPZO 270000Z 25008KT 9999 -RA BKN040 SCT050 13/08 Q1026 PPTRZ= 
SPZO 270010Z 27009KT 9999 VCSH BKN040 SCT050 13/09 Q1027= 
SPZO 270100Z 32005KT 9999 SCT040 SCT050 13/08 Q1027 PPTRZ= 
SPZO 270200Z 28011KT 9999 SCT030 BKN040 12/07 Q1029 PP000= 
SPZO 270300Z 36004KT 9999 OVC040 12/08 Q1030 PP000= 
SPZO 270400Z 00000KT 9999 OVC040 11/06 Q1030 PP000= 
SPZO 270500Z 09006KT 9999 DZ OVC040 10/07 Q1030 PP000= 
SPZO 270600Z 00000KT 9999 DZ OVC040 09/07 Q1030 PP004= 
SPZO 270700Z 00000KT 9999 SCT030 BKN040 08/06 Q1030 PPTRZ= 
SPZO 270800Z 09004KT 9999 SCT030 BKN043 08/06 Q1029 PP000= 
SPZO 270900S 10006KT 9999 -RA OVC040 08/06 Q1029 PP002= 
SPZO 271000Z 10005KT 9999 FEW025 SCT040 BKN043 08/06 Q1030 PP000= 
SPZO 271100Z 11004KT 9000E FEW025 SCT037 BKN046 08/06 Q1030 PPTRZ RMK CLNG BLW 1200M= 
SPZO 271100Z 11004KT 9000E FEW025 SCT037 BKN046 08/06 Q1030 PPTRZ RMK CLNG BLW 1200M 1200M= 
SPZO 271200Z 10005KT 060V130 9000 DZ FEW025 SCT035 BKN046 08/06 Q1031 NOSIG RMK PP000 CLNG BLW 1200M= 
SPZO 271243Z 11006KT 9999 FEW025 SCT037 BKN046 08/06 Q1032= 
SPZO 271300Z 11005KT 070V170 9999 FEW030 SCT037 BKN050 09/06 Q1032 BECMG FM1330 SCT040 SCT050 RMK PPTRZ 
SPZO 271400Z VRB02KT 9999 FEW030 SCT037 BKN050 11/06 Q1032 BECMG FM1430 SCT040 SCT050 RMK PP000 BCBR E-NE= 
SPZO 271500Z VRB03KT 9999 FEW030 SCT040 SCT100 12/07 Q1032 
SPZO 271500Z VRB03KT 9999 FEW030 SCT040 SCT100 13/06 Q1032 
SPZO 271600Z VRB03KT 9999 BKN040 SCT080 14/06 Q1031 NOSIG RMK PP000= 
SPZO 271700Z VRB01KT 9999 VCRA BKN040 SCT050 15/07 Q1030 NOSIG 
SPZO 271800Z VRB01KT 9999 VCRA BKN043 SCT046 16/06 Q1029 NOSIG RMK PP000= 
SPZO 271830Z 16006KT 120V200 9999 SCT043 BKN047 15/08 Q1028= 
SPZO 271900Z 17004KT 140V210 9999 SCT040 SCT050 16/07 Q1028 NOSIG RMK PP000= 
SPZO 272000Z VRB02KT 9999 SCT040 SCT060 16/07 Q1027 NOSIG RMK PP000= 
SPZO 272100Z 35009KT 310V040 9999 BKN043 18/05 Q1026 NOSIG RMK PP000= 
SPZO 272200Z 11005KT 040V150 9999 BKN043 15/08 Q1026 PP000 T. MAX 18.3= 
SPZO 272300Z 11007KT 9999 BKN043 SCT300 14/08 Q1027 NOSIG RMK PP000= 
SPZO 280000Z VRB03KT 9999 BKN043 SCT060 14/06 Q1028 PP000= 
SPZO 280100Z 06005KT 9999 FEW043 SCT100 12/07 Q1029 PP000= 
SPZO 280200Z 09004KT 9999 FEW040 SCT070 13/05 Q1031 PP000= 
SPZO 280200Z 09004KT 9999 FEW040 SCT070 13/05 Q1031 PP000= 
SPZO 280300Z 00000KT 9999 FEW040 SCT050 12/05 Q1031 PP000= 
SPZO 280400Z 00000KT 9999 FEW040 SCT050 12/05 Q1032 PP000= 
SPZO 280500Z 00000KT 9999 SCT040 SCT050 11/08 Q1031 PP000= 
SPZO 280600Z 00000 SCT040 SCT050 11/07 Q1031 PP000= 
SPZO 280700Z 00000KT 9999 BKN040 SCT050 12/07 Q1031 PP000= 
SPZO 280800Z 00000KT 9999 BKN040 SCT050 10/07 Q1030 PP000= 
SPZO 280900Z 00000KT 9999 SCT040 SCT080 11/05 Q1030 PP000= 
SPZO 281000Z VRB02KT 9999 SCT040 SCT080 10/06 Q1031 PP000= 
SPZO 281100Z 00000KT 9999 FEW037 SCT043 BKN050 10/06 Q1031 PP000= 
SPZO 281200Z 00000KT 9999 FEW037 BKN040 11/07 Q1032 TEMPO BKN043 RMK PP000= 
SPZO 281300Z VRB01KT 9999 SCT040 BKN060 12/06 Q1032 TEMPO BKN080 RMK PP000= 
SPZO 281400Z VRB02KT 9999 SCT040 BKN060 14/06 Q1033 NOSIG RMK PP000= 
SPZO 281500Z VRB01KT 9999 SCT040 BKN050 15/05 Q1032 NOSIG RMK PP000= 
SPZO 281600Z VRB01KT 9999 SCT040 BKN060 16/05 Q1032 NOSIG RMK PP000= 
SPZO 281700Z VRB03KT 9999 SCT040 SCT060 18/08 Q1031 NOSIG RMK PP000= 
SPZO 281800Z VRB02KT 9999 SCT043 SCT060 18/05 Q1030 NOSIG RMK PP000= 
SPZO 281900Z 35009KT 310V040 9999 FEW040 SCT050 19/04 Q1028 TEMPO VCSH RMK PP000= 
SPZO 282000Z 07008KT 030V120 9999 FEW040 SCT050 18/08 Q1027 NOSIG RMK PP000= 
SPZO 282100Z 02010KT 320V070 9999 SCT043 18/05 Q1026 NOSIG RMK PP000= 
SPZO 282200Z 02009KT 340V080 9999 SCT043 16/06 Q1027 NOSIG RMK PP000V TMAX 19.9= 
SPZO 282200Z 02009KT 340V080 9999 SCT043 16/06 Q1027 NOSIG RMK PP000 TMAX 19.9= 
SPZO 282300Z 06005KT 340V150 9999 SCT043 SCT060 15/05 Q1028 NOSIG RMK PP000= 
