SPZO MAR21-010000Z 01010KT 330V060 9999 BKN050 14/05 Q1029 RMK PP000=
SPZO MAR21-010100Z VRB03KT 9999 BKN050 13/06 Q1030 RMK PP000=
SPZO MAR21-010200Z 00000KT 9999 BKN050 12/06 Q1031 RMK PP000=
SPZO MAR21-010300Z 00000KT 9999 BKN050 12/07 Q1032 RMK PP000=
SPZO MAR21-010400Z 00000KT 9999 BKN050 11/07 Q1032 RMK PP000=
SPZO MAR21-010500Z 00000KT 9999 BKN050 12/07 Q1032 RMK PP000=
SPZO MAR21-010600Z 00000KT 9999 OVC050 12/08 Q1031 RMK PP000=
SPZO MAR21-010700Z 12004KT 090V150 9999 OVC050 11/08 Q1030
SPZO MAR21-010800Z 33002KT 5000 -RA FEW030 SCT040 BKN050 10/08 Q1030
SPZO MAR21-010900Z 00000KT 9000 SCT040 BKN050 10/07 Q1030 RERA
SPZO MAR21-011000Z 00000KT 8000 -DZ SCT040 BKN050 09/08 Q1031
SPZO MAR21-011030Z 00000KT 9000 SCT040 BKN050 10/08 Q1031 REDZ=
SPZO MAR21-011030Z 00000KT 9000 SCT040 BKN050 10/08 Q1031 REDZ=
SPZO MAR21-011100Z 00000KT 9999 SCT040 BKN050 10/08 Q1031
SPZO MAR21-011137Z VRB03KT 8000 SCT040 SCT047 10/08 Q1031 RMK
SPZO MAR21-011200Z VRB03KT 8000 SCT037 SCT047 11/08 Q1031 TEMPO
SPZO MAR21-011225Z 00000KT 9000 SCT037 SCT047 12/08 Q1032
SPZO MAR21-011225Z 00000KT 9000 SCT037 SCT047 12/08 Q1032
SPZO MAR21-011300Z VRB01KT 9999 SCT037 SCT047 12/07 Q1032 TEMPO VCRA BKN043 RMK PP000=
SPZO MAR21-011325Z 00000KT 9999 VCRA SCT037 BKN043 13/07 Q1033=
SPZO MAR21-011325Z 00000KT 9999 VCRA SCT037 BKN043 13/07 Q1033=
SPZO MAR21-011400Z VRB02KT 9999 SCT037 BKN047 14/07 Q1033 TEMPO SCT047 RMK PP000=
SPZO MAR21-011400Z VRB01KT 9999 SCT040 SCT060 14/07 Q1032=
SPZO MAR21-011400Z VRB01KT 9999 SCT040 SCT060 14/07 Q1032=
SPZO MAR21-011410Z VRB01KT 9999 SCT040 SCT060 14/07 Q1032=
SPZO MAR21-011410Z VRB01KT 9999 SCT040 SCT060 14/07 Q1032=
SPZO MAR21-011500Z VRB03KT 9999 SCT040 BKN060 14/07 Q1032 NOSIG
SPZO MAR21-011600Z VRB02KT 9999 VCSH SCT040 SCT060 16/07 Q1031
SPZO MAR21-011700Z 06008KT 030V100 9999 VCSH SCT043TCU SCT047 15/07
SPZO MAR21-011800Z VRB03KT 9999 SCT043 SCT060 14/07 Q1029 RESHRA NOSIG RMK PP002=
SPZO MAR21-011825Z VRB02KT 9999 SCT050 19/07 Q1028 RMK DISTANTES CB SE / TCU S=
SPZO MAR21-011825Z VRB02KT 9999 SCT050 19/07 Q1028 RMK DISTANTES CB SE / TCU S=
SPZO MAR21-011900Z 34006KT 270V080 9999 FEW040 SCT050 19/07 Q1028 NOSIG RMK CB DISTANTE AL SE PP000=
SPZO MAR21-011900Z 34006KT 270V080 9999 FEW040 SCT050 19/07 Q1028 NOSIG RMK CB DISTANTE AL SE PP000=
SPZO MAR21-012000Z 13007KT 080V160 9999 SCT040 SCT060 19/08 Q1026 TEMPO VCSH RMK PP000=
SPZO MAR21-012100Z VRB03KT 9999 VCSH BKN043 SCT300 15/08 Q1025 NOSIG RMK CB DISTANTE W PP000=
SPZO MAR21-012200Z 00000KT 9999 SCT040 SCT047 17/07 Q1025 NOSIG RMK CB DISTANTE W PP000 TMAX 19.8=
SPZO MAR21-012300Z 06006KT 360V140 9999 FEW040CB SCT043 BKN100 15/05 Q1027 TEMPO SHRA RMK CB S NS W PP000=
SPZO MAR21-020000Z 11011KT 060V160 9999 OVC040 12/08 Q1029 RMK PP000=
SPZO MAR21-020100Z 08005KT 050V140 8000 -DZ OVC040 11/08 Q1030 RMK PP002=
SPZO MAR21-020200Z 00000KT 7000 -RA BKN030 SCT040 10/09 Q1031
SPZO MAR21-020300Z 27004KT 9000 SCT030 SCT040 10/08 Q1031 RERA
SPZO MAR21-020400Z 11003KT 9999 SCT030 BKN040 10/09 Q1031 RMK PP000=
SPZO MAR21-020500Z 11003KT 9999 FEW030 BKN040 10/09 Q1031 RMK PP000=
SPZO MAR21-020600Z 00000KT 9999 FEW030 BKN040 11/08 Q1031 RMK PP000=
SPZO MAR21-020700Z 00000KT 9999 OVC040 10/06 Q1030 RMK PP000=
SPZO MAR21-020800Z 00000KT 9999 OVC040 09/06 Q1029 RMK PP000=
SPZO MAR21-020900Z 12003KT 8000 -RA FEW030 BKN040 09/06 Q1030
SPZO MAR21-021000Z 11001KT 8000 -RA FEW030 BKN040 OVC050 08/06 Q1030 RMK PP004=
SPZO MAR21-021100Z 00000KT 8000 -DZ FEW030 SCT040 BKN050 08/06 Q1031
SPZO MAR21-021125Z 00000KT 9000 -DZ FEW030 SCT040 OVC047 09/07 Q1031=
SPZO MAR21-021125Z 00000KT 9000 -DZ FEW030 SCT040 OVC047 09/07 Q1031=
SPZO MAR21-021200Z 00000KT 9000 -RA FEW025 BKN040 OVC047 09/07 Q1031 TEMPO 8000 RMK PP002=
SPZO MAR21-021300Z 00000KT 9999 SCT025 BKN043 OVC080 10/07 Q1032 RERA NOSIG RMK PP002=
SPZO MAR21-021334Z VRB02KT 9999 -RA SCT025 BKN043 OVC080 11/07 Q1033=
SPZO MAR21-021334Z VRB02KT 9999 -RA SCT025 BKN043 OVC080 11/07 Q1033=
SPZO MAR21-021400Z VRB02KT 9999 SCT030 BKN043 BKN060 11/07 Q1032
SPZO MAR21-021500Z 00000KT 9999 SCT030 BKN080 14/08 Q1032 TEMPO SCT037 RMK PP000=
SPZO MAR21-021522Z 00000KT 9999 SCT037 BKN043 14/06 Q1032=
SPZO MAR21-021522Z 00000KT 9999 SCT037 BKN043 14/06 Q1032=
SPZO MAR21-021600Z VRB02KT 9999 VCSH SCT037 BKN060 14/08 Q1031 NOSIG RMK PP000=
SPZO MAR21-021700Z 11008KT 8000 VCSH SCT037TCU BKN047 13/08 Q1032 TEMPO -SHRA RMK PP000=
SPZO MAR21-021719Z 10004KT 020V150 9999 -SHRA SCT040 BKN047 13/09 Q1030 TEMPO FM1730 NSW=
SPZO MAR21-021800Z 24004KT 200V310 9999 SCT040 BKN060 15/08 Q1029 RESHRA RMK PPTRZ=
SPZO MAR21-021800Z 24004KT 200V310 9999 SCT040 BKN060 15/08 Q1029 RESHRA TEMPO VCSH RMK PPTRZ=
SPZO MAR21-021900Z 29005KT 250V340 9000 VCSH SCT040 FEW050TCU SCT060 15/08 Q1028 TEMPO 9999 RMK PP000=
SPZO MAR21-021930Z VRB01KT 9999 -SHRA SCT040 SCT050 16/08 Q1027 TEMPO NSW=
SPZO MAR21-022000Z 26004KT 170V320 9999 SCT040 SCT050 17/09 Q1026 RESHRA TEMPO VCSH RMK PPTRZ=
SPZO MAR21-022100Z 27005KT 240V300 9000 -SHRA SCT043TCU BKN047 15/10 Q1026 NOSIG RMK PPTRZ=
SPZO MAR21-022200Z VRB03KT 9999 SCT040 BKN047 15/09 Q1025 RESHRA TEMPO VCSH RMK PPTRZ TMAX 16.6=
SPZO MAR21-022300Z VRB01KT 9999 VCSH SCT040 BKN047 14/08 Q1026 NOSIG RMK PP000=
SPZO MAR21-030000Z 27005KT 9000 -RA SCT030 BKN040 14/09 Q1027 PPTRZ=
SPZO MAR21-030100Z VRB02KT 9999 BKN040 SCT070 12/08 Q1028 PP004=
SPZO MAR21-030200Z 00000KT 9999 BKN040 SCT070 11/08 Q1029 PP000=
SPZO MAR21-030300Z VRB02KT 9999 OVC040 11/08 Q1030 PP000=
SPZO MAR21-030400Z 00000KT 9999 BKN040 SCT070 10/08 Q1030 PP000=
SPZO MAR21-030500Z 00000KT 9999 SCT040 SCT050 10/08 Q1030 PP000=
SPZO MAR21-030600Z 00000KT 9999 -RA OVC040 11/09 Q1029 PP002=
SPZO MAR21-030700Z 00000KT 9000 -RA OVC040 10/08 Q1029 PP018=
SPZO MAR21-030800Z 00000KT 9999 SCT040 SCT050 10/08 Q1028 PP008=
SPZO MAR21-030900Z 00000KT 9999 SCT030 BKN040 10/08 Q1028 PP000=
SPZO MAR21-031000Z 09004KT 9999 FEW030 SCT040 BKN050 10/08 Q1028 PP000=
SPZO MAR21-031035Z VRB03KT 9000 VCSH FEW025 SCT037 BKN047 10/08 Q1029 RMK CLNG BLW 1200M=
SPZO MAR21-031035Z VRB03KT 9000 VCSH FEW025 SCT037 BKN047 10/08 Q1029 RMK CLNG BLW 1200M=
SPZO MAR21-031100Z 11007KT 9000 VCSH FEW020 SCT037 BKN047 09/08 Q1029 PP000 RMK CLNG BLW 1200M=
SPZO MAR21-031200Z 09007KT 060V120 9999 FEW020 SCT037 BKN047 09/08 Q1030 NOSIG RMK CLNG BLW 1200M PP000=
SPZO MAR21-031224Z 10006KT 060V130 9999 SCT030 OVC047 10/07 Q1031 TEMPO -DZ=
SPZO MAR21-031300Z 10008KT 9999 SCT030 OVC047 10/08 Q1031 TEMPO SCT040 BKN060 RMK PP000=
SPZO MAR21-031341Z 10008KT 070V140 9999 SCT033 SCT040 BKN060 12/08 Q1031=
SPZO MAR21-031400Z 11008KT 070V140 9999 SCT033 SCT040 BKN060 12/07 Q1031 NOSIG RMK PP000=
SPZO MAR21-031420Z 11008KT 080V150 9999 VCSH SCT037 SCT043 BKN060 Q1031 TEMPO -SHRA=
SPZO MAR21-031420Z 11008KT 080V150 9999 VCSH SCT037 SCT043 BKN060 Q1031 TEMPO -SHRA=
SPZO MAR21-031500Z 09006KT 050V150 9999 SCT037 SCT043 BKN060 12/07 Q1031 RESHRA TEMPO VCSH RMK PPTRZ=
SPZO MAR21-031600Z VRB02KT 9999 -SHRA FEW037 SCT043 BKN053 14/07 Q1031 TEMPO NSW RMK PP000=
SPZO MAR21-031700Z VRB02KT 9999 FEW037 BKN053 14/08 Q1030 RESHRA TEMPO VCSH RMK PP004=
SPZO MAR21-031714Z VRB03KT 9999 VCSH FEW030 SCT040 BKN053 15/08
SPZO MAR21-031800Z VRB01KT 9999 VCSH SCT040TCU BKN043 16/08 Q1029
SPZO MAR21-031810Z VRB03KT 9000 -RA SCT040TCU BKN043 15/07 Q1029=
SPZO MAR21-031810Z VRB03KT 9000 -RA SCT040TCU BKN043 15/07 Q1029
SPZO MAR21-031900Z VRB02KT 9999 -RA SCT040 BKN047 13/10 Q1028 TEMPO
SPZO MAR21-031924Z VRB01KT 9999 VCSH SCT040 SCT047 BKN100 15/03
SPZO MAR21-031924Z VRB01KT 9999 VCSH SCT040 SCT047 BKN100 15/03
SPZO MAR21-031924Z VRB01KT 9999 VCSH SCT040 SCT047 BKN100 15/
SPZO MAR21-032000Z VRB02KT 9999 FEW037 SCT043 BKN100 15/09 Q1027
SPZO MAR21-032100Z 11006KT 060V150 9999 FEW037 SCT043 BKN100 15/09
SPZO MAR21-032200Z 11009KT 080V150 9999 FEW037 SCT047 BKN300 15/08
SPZO MAR21-032300Z 10007KT 9999 SCT040 BKN047 13/08 Q1026
SPZO MAR21-040000Z 00000KT 9999 VCSH BKN040 SCT047 13/08 Q1027 PP000=
SPZO MAR21-040100Z 30006KT 9999 SCT040 SCT050 12/09 Q1029 PP000=
SPZO MAR21-040100Z 30006KT 9999 SCT040 SCT050 12/09 Q1029 PP002=
SPZO MAR21-040110Z 26004KT 9999 -RA SCT030 BKN040 11/09 Q1029=
SPZO MAR21-040200Z VRB02KT 9000 -RA OVC040 12/09 Q1030 PP008=
SPZO MAR21-040300Z 00000KT 9999 RA OVC040 10/09 Q1031 PP034=
SPZO MAR21-040400Z 00000KT 9999 -RA SCT037 BKN040 11/09 Q1031 PP008=
SPZO MAR21-040500Z 00000KT 9999 DZ SCT030 BKN040 10/08 Q1030 PP008=
SPZO MAR21-040600Z 00000KT 9999 RA OVC040 10/08 Q1030 PP010=
SPZO MAR21-040700Z 00000KT 8000 RA OVC040 09/07 Q1030 PP038=
SPZO MAR21-040800Z 00000KT 9999 -RA SCT030 SCT050 10/09 Q1029 PP050=
SPZO MAR21-040900Z 00000KT 9999 RERA SCT030 BKN043 09/07 Q1029 PPTRZ=
SPZO MAR21-041000Z 00000KT 9999 FEW030 SCT040 BKN050 09/07 Q1030 PP000=
SPZO MAR21-041100Z 00000KT 9999 BKN040 SCT050 09/07 Q1030 PP000=
SPZO MAR21-041200Z 00000KT 9999 BKN040 SCT050 09/08 Q1031 NOSIG
SPZO MAR21-041200Z 00000KT 9999 BKN040 SCT050 09/08 Q1031 NOSIG
SPZO MAR21-041300Z 00000KT 9999 FEW025 SCT040 BKN050 11/08 Q1032
SPZO MAR21-041400Z 00000KT 9999 FEW030 BKN060 13/07 Q1032 NOSIG
SPZO MAR21-041500Z 00000KT 9999 FEW037 BKN060 14/07 Q1032 NOSIG
SPZO MAR21-041533Z VRB02KT 9999 VCSH SCT040 SCT080 17/07 Q1031=
SPZO MAR21-041533Z VRB02KT 9999 VCSH SCT040 SCT080 17/07 Q1031=
SPZO MAR21-041600Z VRB03KT 9999 VCSH BKN040 SCT060 17/10 Q1031
SPZO MAR21-041634Z 31005KT 240V030 9999 FEW037 SCT047 17/08 Q1030=
SPZO MAR21-041700Z VRB02KT 9999 FEW037 SCT050 18/09 Q1030 NOSIG
SPZO MAR21-041735Z 08005KT 350V150 9999 VCSH FEW040TCU SCT050 18/07 Q1029=
SPZO MAR21-041735Z 08005KT 350V150 9999 VCSH FEW040TCU SCT050 18/07 Q1029=
SPZO MAR21-041800Z VRB02KT 9999 VCSH SCT040TCU SCT050 18/08 Q1029
SPZO MAR21-041802Z 30014KT 9999 -SHRA SCT040TCU SCT050 15/08 Q1029
SPZO MAR21-041802Z 30014KT 9999 -SHRA SCT040TCU SCT050 15/08 Q1029
SPZO MAR21-041900Z 27007KT 250V310 9999 SCT040 SCT050 15/08 Q1028
SPZO MAR21-042000Z VRB04KT 9999 VCSH SCT040 SCT060 BKN300 18/08
SPZO MAR21-042100Z 04008KT 330V080 9999 BKN043 BKN100 17/07 Q1026
SPZO MAR21-042200Z 03010KT 330V120 9999 SCT043 SCT100 BKN300 16/06
SPZO MAR21-042300Z 02006KT 300V080 9999 BKN043 SCT047 15/06 Q1028
SPZO MAR21-050000Z 00000KT 9999 OVC050 14/05 Q1028 RMK PP000=
SPZO MAR21-050100Z 00000KT 9999 OVC050 13/06 Q1030 RMK PP000=
SPZO MAR21-050200Z 00000KT 9999 OVC050 12/07 Q1030 RMK PP000=
SPZO MAR21-050300Z 00000KT 9999 OVC040 12/07 Q1031 RMK PP000=
SPZO MAR21-050400Z 00000KT 9999 OVC040 12/06 Q1031 RMK PP000=
SPZO MAR21-050500Z 00000KT 9999 OVC040 11/08 Q1031 RMK PP000=
SPZO MAR21-050600Z 00000KT 9999 OVC040 11/07 Q1031 RMK PP000=
SPZO MAR21-050700Z 25004KT 5000 -RA SCT030 BKN040 10/08 Q1031 PP002=
SPZO MAR21-050800Z 35003KT 4600 -RA SCT030 BKN040 09/07 Q1031 PP006=
SPZO MAR21-050900Z 00000KT 5000 -RA SCT030 BKN040 09/07 Q1031 PP006=
SPZO MAR21-051000Z 00000KT 7000 -RA FEW030 BKN040 09/07 Q1031 PP002=
SPZO MAR21-051030Z 00000KT 8000 -RA FEW030 BKN040 09/07 Q1031 BR=
SPZO MAR21-051100Z 00000KT 8000 -DZ FEW030 BKN040 09/07 Q1031 RMK BR PPTRZ=
SPZO MAR21-021112Z VRB02KT 9000 -RA FEW020 SCT037 OVC043 09/08 Q1032 RMK CLNG BLW 1200M=
SPZO MAR21-051112Z VRB02KT 9000 -RA FEW020 SCT037 OVC0 Q1032 RMK CLNG BLW 1200M=
SPZO MAR21-051200Z 00000KT 9000 -RA FEW020 SCT037 OVC040 09/08 Q1032
SPZO MAR21-051219Z 00000KT 9000 -RA FEW025 SCT040 OVC047 10/08 Q1033 TEMPO OVC060=
SPZO MAR21-051300Z 00000KT 9000 -RA FEW025 SCT040 OVC070 11/08 Q1033
SPZO MAR21-051314Z 00000KT 9000 -RA SCT025 SCT040 OVC070 11/08 Q1033=
SPZO MAR21-051314Z 00000KT 9000 -RA SCT025 SCT040 OVC070 11/08 Q1033=
SPZO MAR21-051400Z 00000KT 9999 SCT030 SCT040 OVC070 11/08 Q1033
SPZO MAR21-051500Z VRB01KT 9999 SCT033 SCT040 OVC070 13/08 Q1033
SPZO MAR21-051600Z VRB03KT 9999 SCT037 SCT100 BKN300 14/07 Q1032
SPZO MAR21-051700Z VRB03KT 9999 FEW037 SCT040 BKN100 16/07 Q1031
SPZO MAR21-051714Z 17005KT 120V230 9999 FEW037 BKN043 15/07 Q1031=
SPZO MAR21-051714Z 17005KT 120V230 9999 FEW037 BKN043 15/07 Q1031=
SPZO MAR21-051800Z VRB03KT 9999 FEW037 BKN043 16/07 Q1030 TEMPO VCSH RMK PP000=
SPZO MAR21-051900Z 02011KT 340V060 9000 VCRA SCT040TCU BKN046 15/07 Q1029 TEMPO RA RMK PP000=
SPZO MAR21-051906Z VRB05KT 8000 RA SCT040TCU BKN046 14/07 Q1029=
SPZO MAR21-051934Z VRB04KT 7000 RA SCT040 BKN056 12/09 Q1029=
SPZO MAR21-051934Z VRB04KT 7000 RA SCT040 BKN056 12/09 Q1029=
SPZO MAR21-052000Z 15004KT 110V190 8000 VCRA SCT040 BKN046 11/08 Q1029 RMK PP028=
SPZO MAR21-052100Z VRB03KT 9999 VCRA SCT040 SCT050 13/09 Q1028 NOSIG RMK PP000=
SPZO MAR21-052200Z 10006KT 060V140 9999 VCRA FEW040 BKN050 13/09 Q1028 NOSIG RMK PP000 TMX:17.0=
SPZO MAR21-052300Z VRB03KT 9999 BKN046 12/08 Q1028 NOSIG RMK PP000=
SPZO MAR21-060000Z 07003KT 9999 BKN040 11/08 Q1028 RMK PP000=
SPZO MAR21-060100Z 00000KT 9999 BKN040 10/08 Q1029 RMK PP000=
SPZO MAR21-060200Z 00000KT 9999 BKN040 09/08 Q1030 RMK PP000=
SPZO MAR21-060300Z 00000KT 9999 BKN040 09/08 Q1030 RMK PP000=
SPZO MAR21-060400Z 00000KT 9999 BKN040 10/09 Q1031 RMK PP000=
SPZO MAR21-060500Z 08003KT 9999 BKN040 10/08 Q1030 RMK PP000=
SPZO MAR21-060600Z 30004KT 280V020 9999 BKN040 10/08 Q1030 PP000=
SPZO MAR21-060700Z 11003KT 9999 BKN040 10/08 Q1029 RMK PP000=
SPZO MAR21-060800Z 00000KT 9999 BKN040 10/08 Q1029 RMK PP000=
SPZO MAR21-060900Z 00000KT 9999 OVC040 10/08 Q1029 RMK PP000=
SPZO MAR21-061000Z 00000KT 9999 SCT040 SCT060 09/08 Q1029 RMK PP000=
SPZO MAR21-061100Z 00000KT 8000 SCT040 BKN050 OVC060 10/08 Q1030 RMK BR PP000=
SPZO MAR21-061200Z VRB02KT 9999 FEW037 SCT040 BKN046 10/08 Q1030 NOSIG RMK PP000=
SPZO MAR21-061300Z VRB02KT 9999 FEW037 SCT040 BKN046 11/08 Q1031 NOSIG RMK PP000=
SPZO MAR21-061400Z 00000KT 9999 FEW030 SCT040 BKN046 12/08 Q1031 NOSIG RMK PP000=
SPZO MAR21-061400Z 00000KT 9999 FEW030 SCT040 BKN046 12/08 Q1031 NOSIG RMK PP000 BCBR E-NE=
SPZO MAR21-061500Z VRB02KT 9999 SCT040 BKN046 14/08 Q1031 NOSIG RMK PP000 BCBR NE=
SPZO MAR21-061600Z VRB05KT 9999 VCRA SCT040 SCT050 15/10 Q1031 NOSIG RMK PP000=
SPZO MAR21-061700Z 09007KT 050V150 9999 VCRA SCT040 SCT060 16/08 Q1029 NOSIG RMK PP000=
SPZO MAR21-061700Z 09007KT 050V150 9999 VCRA SCT040 SCT060 16/08
SPZO MAR21-061800Z 10009KT 9999 VCRA SCT040 SCT060 16/08 Q1028 NOSIG RMK PP000=
SPZO MAR21-061800Z 10009KT 9999 VCRA SCT040 SCT060 17/08 Q1028 NOSIG RMK PP000 RWY10 12012KT=
SPZO MAR21-061900Z VRB03KT 9999 VCRA SCT043 SCT050 18/08 Q1027 NOSIG RMK PP000=
SPZO MAR21-062000Z VRB06KT 8000 VCRA SCT040 BKN046 14/08 Q1027 TEMPO -RA RMK PP000 RWY10 27018KT=
SPZO MAR21-062011Z 18012KT 080V240 8000 TSRA SCT040TCU BKN046 12/08 Q1027=
SPZO MAR21-062024Z 27008KT 170V330 6000 RA SCT037 BKN046 12/08 Q1028 RMK RWY10 29022KT=
SPZO MAR21-062100Z 23005KT 190V260 7000 -RA SCT037 BKN043 11/08 Q1028 BECMG AT 2130 NSW RMK PP060 RWY10 25008KT=
SPZO MAR21-062200Z 09002KT 6000 RA SCT037 BKN46 10/08 Q1029 NOSIG RMK PP028 TMX:18.6=
SPZO MAR21-062300Z 00000KT 8000 -RA SCT037 BKN046 09/08 Q1029 BECMG AT 2320 NSW RMK PP034=
SPZO MAR21-070000Z 00000KT 8000 RA SCT030 BKN040 09/07 Q1029 PP018=
SPZO MAR21-070100Z 00000KT 9999 DZ BKN040 SCT08009/07 Q1030 PP006=
SPZO MAR21-070200Z 00000KT 9999 SCT030 SCT080 10/08 Q1031 PPTRZ=
SPZO MAR21-070300Z 00000KT 9999 OVC040 10/08 Q1031 PP000=
SPZO MAR21-070400Z 00000KT 9999 OVC043 09/08 Q1031 PP000=
SPZO MAR21-070500Z 00000KT 9999 SCT030 BKN043 09/08 Q1031 PP000=
SPZO MAR21-070600Z 00000KT 9999 BKN040 SCT046 09/08 Q1030 PP000=
SPZO MAR21-070700Z 00000KT 9999 SCT040 SCT046 09/08 Q1030 PP000=
SPZO MAR21-070800Z 00000KT 9999 OVC040 09/08 Q1030 PP000=
SPZO MAR21-070900Z 00000KT 9999 FEW025 OVC040 09/08 Q1029 PP002=
SPZO MAR21-071000Z 00000KT 9999 FEW025 SCT040 BKN047 09/08 Q1030 PP000=
SPZO MAR21-071100Z 00000KT 9999 FEW030 SCT040 BKN046 09/08 Q1030 PP000=
SPZO MAR21-071200Z 00000KT 9999 FEW033 SCT040 SCT050 10/08 Q1031 NOSIG RMK PP000=
SPZO MAR21-071300Z 00000KT 9999 FEW040 SCT050 14/10 Q1031 NOSIG RMK PP000=
SPZO MAR21-071400Z VRB02KT 9999 FEW040 SCT050 15/08 Q1032 NOSIG RMK PP000=
SPZO MAR21-071500Z VRB02KT 9999 SCT040 BKN046 16/08 Q1032 NOSIG RML PP000=
SPZO MAR21-071600Z VRB02KT 9999 FEW040 BKN046 16/07 Q1031 NOSIG RMK PP000=
SPZO MAR21-071700Z VRB03KT 9999 FEW040 SCT050 18/07 Q1030 NOSIG RMK PP000=
SPZO MAR21-071800Z VRB04KT 9999 FEW040 SCT050 18/08 Q1028 NOSIG RMKL
SPZO MAR21-071900Z 32006KT 250V020 FEW043 SCT060 19/06 Q1027 NOSIG
SPZO MAR21-072000Z 29008KT 250V020 9999 FEW040TCU SCT050 17/08 Q1026
SPZO MAR21-072014Z 25009KT 210V290 9999 RA SCT040TCU SCT050 16/08 Q1026 RMK RWY10 24017KT=
SPZO MAR21-072014Z 25009KT 210V290 9999 RA SCT040TCU SCT050 16/08 Q1026 RMK RWY10 24017KT=
SPZO MAR21-072100Z 25004KT 200V290 9999 SCT043 SCT060 17/08 Q1026
SPZO MAR21-072200Z VRB02KT 9999 VCRA SCT043 SCT060 17/09 Q1026
SPZO MAR21-072300Z VRB02KT 9999 SCT050 16/08 Q1026 NOSIG RMK PP000=
SPZO MAR21-080000Z 00000KT 9999 FEW040 SCT050 15/08 Q1025 PP000=
SPZO MAR21-080100Z 00000KT 9999 SCT050 13/09 Q1028 PP000=
SPZO MAR21-080200Z VRB03KT 9999 FEW040 SCT080 12/09 Q1029 PP000=
SPZO MAR21-080300Z 00000KT 9999 FEW040 SCT050 12/09 Q1030 PP000=
SPZO MAR21-080400Z 00000KT 8000 RA OVC040 10/07 Q1031 PP040=
SPZO MAR21-080500Z 00000KT 9999 -RA SCT037 BKN043 10/08 Q1031 PP018=
SPZO MAR21-080600Z 00000KT 9999 -RA BKN037 SCT043 09/08 Q1031 PP016=
SPZO MAR21-080700Z 00000KT 9000 RA BKN037 SCT050 09/08 Q1031 PP052=
SPZO MAR21-080800Z 00000KT 9000 -RA OVC040 09/08 Q1030 PP038=
SPZO MAR21-080900Z 00000KT 8000 -DZ SCT025 BKN040 09/08 Q1030 PP006=
SPZO MAR21-081000Z 00000KT 9999 FEW025 SCT040 BKN050 09/08 Q1030 PP000=
SPZO MAR21-081100Z 00000KT 9999 FEW030 SCT040 BKN050 09/08 Q1030 PP000=
SPZO MAR21-081200Z 00000KT 9999 FEW037 SCT040 BKN046 10/08 Q1031
SPZO MAR21-081218Z 00000KT 9000 DZ FEW037 SCT040 BKN046 10/08 Q1
SPZO MAR21-081300Z VRB02KT 9000 -RA SCT037 BKN046 10/08 Q1032
SPZO MAR21-081330Z VRB03KT 9000 RERAVCRA SCT037 BKN046 10/08
SPZO MAR21-081400Z VRB03KT 9000 VCRA SCT037 BKN046 11/07 Q1033 NOSIG
SPZO MAR21-081434Z 00000KT 6000 -RA FEW033 SCT037 BKN046 11/08 Q1033=
SPZO MAR21-081434Z 00000KT 6000 -RA FEW033 SCT037 BKN046 11/08 Q1033=
SPZO MAR21-081500Z 00000KT 8000 -RA SCT037 BKN046 11/08 Q1033
SPZO MAR21-081536Z VRB03KT 9999 VCRARERA SCT037 BKN046 11/08 Q
SPZO MAR21-081600Z VRB03KT 9000E VCRA SCT037 BKN046 12/08 Q1033
SPZO MAR21-081700Z 00000KT 9999 SCT037 SCT050 15/09 Q1032 NOSIG RMK PP000=
SPZO MAR21-081800Z VRB02KT 9999 SCT040 SCT046 15/08 Q1031 TEMPO
SPZO MAR21-081900Z 00000KT 9999 SCT040 SCT050 15/08 Q1030 TEMPO VCRA
SPZO MAR21-082000Z VRB04KT 9999 SCT043 SCT050 17/07 Q1029 NOSIG RMK
SPZO MAR21-082000Z VRB04KT 9999 SCT043 SCT050 17/07 Q1029 NOSIG RMK
SPZO MAR21-082100Z VRB04KT 9999 SCT043 18/07 Q1027 NOSIG RMK PP000=
SPZO MAR21-082200Z VRB03KT 9999 SCT043 18/06 Q1027 NOSIG RMK PP000
SPZO MAR21-082300Z 28007KT 9999 SCT043 16/07 Q1028 NOSIG RMK PP000=
SPZO MAR21-090000Z 27009KT 9999 BKN040 13/08 Q1029 RMK PP000=
SPZO MAR21-090000Z 27009KT 9999 BKN040 13/08 Q1029 RMK PP000=
SPZO MAR21-090100Z 29008KT 9999 BKN040 12/07 Q1029 RMK PP000=
SPZO MAR21-090200Z 30004KT 260V330 9999 BKN040 11/08 Q1030 PP000=
SPZO MAR21-090300Z 00000KT 9999 BKN040 10/07 Q1030 RMK PP000=
SPZO MAR21-090400Z 00000KT 9999 BKN040 09/07 Q1030 RMK PP000=
SPZO MAR21-090500Z 00000KT 9999 BKN040 09/07 Q1030 RMK PP000=
SPZO MAR21-090600Z 00000KT 9999 BKN040 08/06 Q1030 RMK PP000=
SPZO MAR21-090700Z 00000KT 9999 BKN040 07/05 Q1029 RMK PP000=
SPZO MAR21-090800Z 00000KT 9999 BKN040 07/05 Q1029 RMK PP000=
SPZO MAR21-090900Z 00000KT 9999 BKN040 08/06 Q1029 RMK PP000=
SPZO MAR21-091000Z 00000KT 9999 BKN040 08/06 Q1030 RMK PP000=
SPZO MAR21-091100Z 00000KT 9999 BKN040 08/07 Q1030 RMK PP000=
SPZO MAR21-091200Z 00000KT 9999 FEW040 09/07 Q1031 NOSIG RMK PP000=
SPZO MAR21-091300Z 00000KT 9999 FEW040 13/08 Q1031 NOSIG RMK PP000=
SPZO MAR21-091400Z VRB02KT 9999 FEW040 15/08 Q1031 NOSIG RMK PP000=
SPZO MAR21-091500Z VRB03KT 9999 FEW040 16/08 Q1030 NOSIG RMK PP000=
SPZO MAR21-091600Z VRB03KT 9999 SCT043 18/06 Q1029 NOSIG RMK PP000=
SPZO MAR21-091700Z VRB05KT 9999 SCT050 20/08 Q1028 NOSIG RMK PP000=
SPZO MAR21-091700Z VRB05KT 9999 SCT050 20/08 Q1028 NOSIG RMK PP000
SPZO MAR21-091800Z 05005KT 340V140 9999 FEW040TCU SCT050 19/06 Q1027 TEMPO RA RMK PP000 RWY10 35012KT=
SPZO MAR21-091900Z VRB03KT 9999 FEW040TCU SCT050 19/07 Q1026 TEMPO VCRA RMK PP000 RWY10 31012KT=
SPZO MAR21-192000Z VRB02KT 9999 FEW040TCU SCT050 19/06 Q1025 TEMPO VCRA RMK PP000=
SPZO MAR21-092100Z 35009KT 320V030 9999 FEW040 SCT050 20/07 Q1024 NOSIG RMK PP000=
SPZO MAR21-092200Z 35007KT 300V030 9999 FEW040 SCT050 19/06 Q1024 NOSIG RMK PP000 TMX:21.7=
SPZO MAR21-092300Z 33007KT 290V010 9999 SCT046 17/07 Q1025 NOSIG RMK PP000=
SPZO MAR21-100000Z 35006KT 320V020 9999 BKN040 16/08 Q1026 PP000=
SPZO MAR21-100100Z 10003KT 330V220 9999 BKN040 15/08 Q1027 PP000=
SPZO MAR21-100200Z 26007KT 8000 -DZ OVC040 14/09 Q1028 RMK PPTRZ=
SPZO MAR21-100300Z 24003KT 9000 OVC040 13/09 Q1030 REDZ RMK PPTRZ=
SPZO MAR21-100400Z 14003KT 5000 RA SCT030 BKN040 10/06 Q1031 PP008=
SPZO MAR21-100500Z 28003KT 5000 +RA SCT030TCU BKN040 09/07 Q1031
SPZO MAR21-100600Z 29005KT 260V320 9000 SCT030 BKN040 09/07 Q1030
SPZO MAR21-100700Z 11005KT 9999 FEW030 BKN040 09/07 Q1029 RMK PP000=
SPZO MAR21-100800Z 08003KT 9999 FEW030 BKN040 08/07 Q1029 RMK PP000=
SPZO MAR21-100900Z 10003KT 9999 OVC040 08/07 Q1030 RMK PP000=
SPZO MAR21-101000Z 00000KT 9999 BKN040 SCT050 08/07 Q1030 RMK PP000=
SPZO MAR21-100900Z 10003KT 9999 OVC040 08/07 Q1030 RMK PP000=
SPZO MAR21-101100Z 11002KT 9999 SCT040 BKN050 09/07 Q1030 RMK PP000=
SPZO MAR21-101200Z 00000KT 9999 VCRA SCT040 BKN050 09/07 Q1031 NOSIG RMK PP000 BCBR NW=
SPZO MAR21-101300Z 00000KT 9999 VCRA SCT040 BKN050 10/08 Q1032 NOSIG RMK PP002 BCBR NE-NW RA EFIMERA=
SPZO MAR21-101400Z 00000KT 9999 SCT043 BKN050 11/08 Q1032 NOSIG RMK PP000=
SPZO MAR21-101500Z 00000KT 9999 FEW033 BKN060 14/07 Q1031 NOSIG RMK PP000=
SPZO MAR21-101600Z VRB03KT 9999 SCT043 17/07 Q1030 NOSIG RMK PP000=
SPZO MAR21-101700Z VRB02KT 9999 SCT043 19/07 Q1029 NOSIG RMK PP000=
SPZO MAR21-101800Z VRB05KT 9000E VCRA SCT040TCU SCT050 18/08 Q1027 TEMPO RA RMK PP000 RWY10 31007KT=
SPZO MAR21-102000Z VRB02KT 9999 SCT043 SCT050 17/07 Q1026 NOSIG RMK PPTRZ=
SPZO MAR21-102100Z 12007KT 070V170 9999 VCRA FEW043 BKN050 16/08 Q1026 NOSIG RMK PP000=
SPZO MAR21-102200Z VRB02KT 9999 FEW043 SCT080 15/07 Q1026 NOSIG RMK PP000 TMX: 20.2=
SPZO MAR21-102300Z VRB02KT 9999 FEW043 SCT050 15/08 Q1027 NOSIG RMK PP000=
SPZO MAR21-110000Z 00000KT 9999 SCT040 SCT050 13/09 Q1028 PP000=
SPZO MAR21-110100Z 00000KT 9999 FEW043 SCT100 12/09 Q1029 PP000=
SPZO MAR21-110200Z 00000KT 9999 FEW040 SCT100 12/09 Q1029 PP000=
SPZO MAR21-110300Z 27004KT 9999 FEW040 SCT100 11/09 Q1030 PP000=
SPZO MAR21-110400Z 00000KT 9999 SCT040 SCT080 11/09 Q1031 PP000=
SPZO MAR21-110500Z 00000KT 9999 SCT043 SCT050 11/09 Q1030 PP000=
SPZO MAR21-110600Z 00000KT 9999 BKN040 SCT050 11/09 Q1030 PP000=
SPZO MAR21-110700Z 00000KT 9999 OVC040 10/09 Q1030 PP006=
SPZO MAR21-110800Z 00000KT 9999 OVC043 09/08 Q1029 PP000=
SPZO MAR21-110900Z 00000KT 9999 BKN040 SCT080 008/07 Q1029 PP000=
SPZO MAR21-111000Z 00000KT 9999 SCT040 SCT060 08/07 Q1030 PP000=
SPZO MAR21-111100Z 00000KT 9999 SCT037 BKN046 09/08 Q1030 PP000=
SPZO MAR21-111200Z 00000KT 9999 SCT037 BKN046 09/08 Q1031 NOSIG RMK PP000=
SPZO MAR21-111300Z VRB02KT 9999 VCRA FEW033 SCT040 BKN046 10/08 Q1032 NOSIG RMK PP000=
SPZO MAR21-111314Z VRB02KT 9000 -RA SCT040 BKN046 11/09 Q1033=
SPZO MAR21-111400Z 26004KT 9000E DZ SCT040 BKN046 12/09 Q1033 NOSIG RMK PP002 RWY WET BCBR NE=
SPZO MAR21-111500Z VRB02KT 9999 REDZ FEW033 BKN046 14/07 Q1033 NOSIG RMK PPTRZ=
SPZO MAR21-111600Z VRB02KT 9999 FEW040 BKN090 16/07 Q1032 NOSIG RMK PP000=
SPZO MAR21-111700Z 09005KT 030V150 9999 SCT043 SCT100 16/06 Q1031 NOSIG RMK PP000=
SPZO MAR21-111800Z VRB02KT 9999 FEW040TCU BKN050 18/05 Q1029 TEMPO
SPZO MAR21-111900Z 15005KT 050V210 9999 FEW040 SCT050 20/08 Q1028
SPZO MAR21-112000Z VRB03KT 9999 FEW040 SCT050 BKN300 19/06 Q1027
SPZO MAR21-112100Z 01014KT 340V060 9999 BKN043 SCT300 18/06 Q1026
SPZO MAR21-112200Z 28011KT 230V310 9999 SCT043 BKN300 16/08 Q1026
SPZO MAR21-112300Z 28012KT 9999 SCT043 SCT300 14/08 Q1027 NOSIG
SPZO MAR21-120100Z 29004KT 9999 SCT050 12/07 Q1029 PP000=
SPZO MAR21-120200Z 00000KT 9999 FEW040 SCT080 12/08 Q1030 PP000=
SPZO MAR21-120300Z 00000KT 9999 FEW040 SCT050 12/07 Q1031 PP000=
SPZO MAR21-120400Z 00000KT 9999 FEW040 SCT060 11/08 Q1031 PP000=
SPZO MAR21-120500Z 00000KT 9999 SCT040 SCT070 11/08 Q1031 PP000=
SPZO MAR21-120600Z 00000KT 9999 SCT040 SCT070 11/08 Q1031 PP000=
SPZO MAR21-120700Z 00000KT 9999 BKN040 SCT050 10/09 Q1030 PP000=
SPZO MAR21-120800Z 00000KT 9999 SCT030 BKN043 11/09 Q1030 PP000=
SPZO MAR21-120900Z 00000KT 9999 SCT040 SCT050 09/08 Q1930 PP000=
SPZO MAR21-121000Z 00000KT 9999 BKN040 SCT060 10/08 Q1030 PP000=
SPZO MAR21-121100Z VRB03KT 9999 BKN040 SCT060 10/08 Q1031 PP000=
SPZO MAR21-121200Z VRB02KT 9999 SCT040 SCT300 11/08 Q1032 NOSIG RMK PP000=
SPZO MAR21-121300Z VRB03KT 9999 SCT033 SCT080 13/08 Q1032 NOSIG
SPZO MAR21-121400Z VRB02KT 9999 SCT037 SCT300 15/07 Q1032 NOSIG
SPZO MAR21-121500Z 00000KT 9999 FEW040 SCT043 17/08 Q1032 NOSIG
SPZO MAR21-121600Z VRB03KT 9999 SCT040 SCT080 17/07 Q1031 NOSIG
SPZO MAR21-121700Z 08004KT 040V210 9999 BKN043 SCT300 18/09 Q1030
SPZO MAR21-121800Z VRB04KT 9999 BKN043 SCT300 19/07 Q1029 NOSIG
SPZO MAR21-121900Z 08009KT 040V110 9999 VCSH SCT040 SCT043TCU 15/09
SPZO MAR21-122000Z VRB01KT 9999 BKN043 SCT300 18/09 Q1027 NOSIG
SPZO MAR21-122100Z 36008KT 310V050 9999 BKN043 SCT100 19/07 Q1027
SPZO MAR21-122100Z 36008KT 310V050 9999 BKN043 SCT100 19/07 Q1027
SPZO MAR21-122200Z 01008KT 330V050 9999 VCSH FEW040 BKN043 BKN100
SPZO MAR21-122300Z 31007KT 270V360 9999 FEW040 BKN043 16/07 Q1027
SPZO MAR21-130000Z 32006KT 290V010 9999 SCT040 SCT080 15/07 Q1029
SPZO MAR21-130100Z 08005KT 9999 BKN040 13/08 Q1030 RMK PP000=
SPZO MAR21-130200Z 10003KT 9999 BKN040 12/07 Q1031 RMK PP000=
SPZO MAR21-130300Z 00000KT 9999 BKN040 12/08 Q1031 RMK PP000=
SPZO MAR21-130400Z 00000KT 9999 BKN040 12/08 Q1031 RMK PP000=
SPZO MAR21-131000Z 27007KT 5000 RA SCT030 BKN040 08/06 Q1031 PP018=
SPZO MAR21-131030Z 28008KT 6000 -RA SCT030 BKN040 08/06 Q1031=
SPZO MAR21-131100Z 27004KT 7000 -RA SCT030 BKN040 08/06 Q1031 PP016=
SPZO MAR21-131132Z 30006KT 8000 -RA FEW030 BKN040 OVC050 08/06 Q1032=
SPZO MAR21-131200Z 30008KT 270V330 8000 -RA FEW030 BKN040 OVC050
SPZO MAR21-131300Z VRB03KT 9999 FEW030 SCT040 BKN060 10/07 Q1033
SPZO MAR21-131300Z VRB03KT 9999 FEW030 SCT040 BKN060 10/07 Q1033
SPZO MAR21-131310Z VRB03KT 9999 FEW030 SCT040 BKN080 11/06 Q1033=
SPZO MAR21-131310Z VRB03KT 9999 FEW030 SCT040 BKN080 11/06 Q1033=
SPZO MAR21-131400Z VRB03KT 9999 SCT033 BKN080 12/06 Q1033 NOSIG
SPZO MAR21-131500Z VRB03KT 9999 SCT037 BKN080 14/06 Q1032 NOSIG
SPZO MAR21-131600Z VRB02KT 9999 SCT040 SCT100 16/09 Q1032 NOSIG
SPZO MAR21-131700Z VRB02KT 9999 FEW040 SCT047 17/05 Q1030 NOSIG
SPZO MAR21-131800Z VRB03KT 9999 FEW040TCU SCT047 19/08 Q1028 TEMPO VCSH RMK PP000=
SPZO MAR21-131900Z 24011KT 200V270 9999 VCRA FEW040TCU BKN046 16/07 Q1027 TEMPO RA RMK PP000 RWY10 24014KT=
SPZO MAR21-132000Z VRB03KT 9999 VCRA FEW040TCU BKN046 17/06 Q1026 NOSIG RMK PP000 RWY10 29012KT=
SPZO MAR21-132100Z 27010KT 9000E VCRA FEW040TCU BKN046 13/08 Q1027 TEMPO RA RMK PP000 RWY10 30016KT=
SPZO MAR21-132200Z VRB02KT 9999 SCT046 OVC060 14/07 Q1027 NOSIG RMK PP000 TMX: 20.0=
SPZO MAR21-132300Z VRB01KT 9999 BKN050 13/08 Q1027 NOSIG RMK PP000=
SPZO MAR21-140000Z 05003KT 9999 BKN040 12/09 Q1028 RMK PP000=
SPZO MAR21-140100Z 30003KT 9999 BKN040 12/08 Q1029 RMK PP000=
SPZO MAR21-140200Z VRB02KT 9999 BKN040 SCT080 12/09 Q1030 PP000=
SPZO MAR21-140300Z 31005KT 260V010 9999 BKN040 SCT070 13/08 Q1030
SPZO MAR21-140400Z 27007KT 9999 BKN040 11/07 Q1031 RMK PP000=
SPZO MAR21-140500Z 28006KT 250V330 8000 -DZ BKN040 11/07 Q1031
SPZO MAR21-140600Z 21003KT 9000 OVC040 10/07 Q1030 REDZ RMK PP002=
SPZO MAR21-140700Z 00000KT 9999 OVC040 11/08 Q1030 RMK PP000=
SPZO MAR21-140800Z 00000KT 8000 -DZ OVC040 10/07 Q1029 RMK PPTRZ=
SPZO MAR21-140900Z 12005KT 100V160 9000 OVC040 09/06 Q1029 REDZ
SPZO MAR21-141000Z 00000KT 9999 BKN040 SCT050 09/06 Q1030 RMK PP000=
SPZO MAR21-141100Z 00000KT 9999 SCT040 SCT050 OVC060 09/07 Q1030
SPZO MAR21-141200Z 00000KT 9999 BKN050 10/07 Q1031 NOSIG RMK PP000=
SPZO MAR21-141300Z VRB02KT 9999 FEW050 SCT100 13/08 Q1031 NOSIG RMK PP000=
SPZO MAR21-141400Z VRB03KT 9999 SCT050 14/05 Q1031 NOSIG RMK PP000=
SPZO MAR21-141500Z VRB03KT 9999 BKN050 16/05 Q1031 NOSIG RMK PP000=
SPZO MAR21-141600Z 08005KT 050V120 9999 BKN050 17/07 Q1030 NOSIG RMK PP000=
SPZO MAR21-141700Z VRB03KT 9999 BKN050 19/08 Q1029 NOSIG RMK PP000=
SPZO MAR21-141800Z 28005KT 240V340 9999 BKN050 19/04 Q1027 NOSIG RMK PP000=
SPZO MAR21-141900Z VRB05KT 9999 FEW050 BKN100 19/05 Q1026 NOSIG RMK PP000 RWY10 29019KT=
SPZO MAR21-142000Z VRB05KT 9999 SCT050 21/05 Q1025 NOSIG RMK PP000 RWY10 32012KT=
SPZO MAR21-142100Z 30008KT 250V360 9999 SCT050 20/06 Q1024 NOSIG RMK PP000=
SPZO MAR21-142200Z 29012KT 250V330 9999 SCT050 19/07 Q1024 NOSIG RMK PP000 TMX: 21.6=
SPZO MAR21-142300Z 34009KT 310V040 9999 VCRA SCT040 17/08 Q1025 NOSIG RMK PP000=
SPZO MAR21-150000Z 33008KT 9999 FEW040 SCT100 15/07 Q1026 PP000=
SPZO MAR21-150000Z 33008KT 9999 FEW040 SCT100 15/07 Q1026 PP000=
SPZO MAR21-150000Z 33008KT 9999 FEW040 SCT100 15/07 Q1026 PP000=
SPZO MAR21-150000Z 33008KT 9999 FEW040 SCT100 15/07 Q1026 PP000=
SPZO MAR21-150100Z VRB03KT 9999 SCT040 SCT080 14/08 Q1027 PP000=
SPZO MAR21-150135Z 12009KT 8000 RA SCT037TCU BKN040 09/06 Q1030=
SPZO MAR21-150135Z 12009KT 8000 RA SCT037TCU BKN040 09/06 Q1030=
SPZO MAR21-150200Z VRB03KT 8000 +RA SCT037TCU BKN040 09/06 Q1031 PP024=
SPZO MAR21-150300Z 09008KT 9999 -RA FEW037TCU OVC040 09/06 Q1031 PP008=
SPZO MAR21-150400Z 08005KT 9999 OVC040 09/06 Q1031 PP000=
SPZO MAR21-150500Z 00000KT 9999 SCT030 BKN040 09/07 Q1030 PP000=
SPZO MAR21-150600Z 00000KT 9999 OVC040 09/07 Q1030 PP000=
SPZO MAR21-150700Z 00000KT 9999 BKN040 SCT047 10/07 Q1029 PP000=
SPZO MAR21-150800Z 00000KT 9999 BKN040 SCT070 09/07 Q1029 PP000=
SPZO MAR21-150900Z 00000KT 9999 SCT030 SCT080 08/07 Q1029 PP000=
SPZO MAR21-151000Z 00000KT 9999 FEW030 SCT100 09/07 Q1029 PP000=
SPZO MAR21-151100Z VRB02KT 9999 FEW030 SCT043 BKN300 08/06 Q1030 PP000=
SPZO MAR21-151200Z 00000KT 9999 FEW040 OVC100 09/07 Q1031 NOSIG RMK PP000=
SPZO MAR21-151300Z 00000KT 9999 FEW040 BKN090 11/07 Q1032 NOSIG RMK PP000 BCBR NE=
SPZO MAR21-151400Z VRB01KT 9999 FEW040 BKN080 12/07 Q1032 NOSIG RMK PP000=
SPZO MAR21-151500Z VRB03KT 9999 SCT040 15/07 Q1032 NOSIG RMK PP000=
SPZO MAR21-151600Z VRB03KT 9999 SCT043 18/06 Q1031 NOSIG RMK PP000=
SPZO MAR21-151700Z VRB03KT 9999 SCT050 BKN200 18/04 Q1030 NOSIG RMK PP000=
SPZO MAR21-151800Z VRB05KT 9999 SCT050 BKN100 19/07 Q1029 NOSIG RMK PP000=
SPZO MAR21-151900Z 01013KT 330V060 9999 VCSH SCT040 SCT043TCU 17/06
SPZO MAR21-151912Z 02012KT 340V050 9000 SHRA SCT040 BKN043TCU 13/05 Q1028=
SPZO MAR21-151912Z 02012KT 340V050 9000 SHRA SCT040 BKN043TCU 13/05 Q1028=
SPZO MAR21-152000Z 08015KT 050V100 8000 TSRA BKN040 SCT043CB 11/07
SPZO MAR21-152100Z 34005KT 290V040 9000 RA SCT040 BKN047 11/07 Q1029
SPZO MAR21-152200Z VRB03KT 9999 FEW040 BKN080 13/07 Q1028 RERA
SPZO MAR21-152300Z VRB01KT 9999 SCT050 SCT100 11/07 Q1028 NOSIG
SPZO MAR21-160000Z 00000KT 9999 SCT040 SCT100 11/07 Q1029 PP000=
SPZO MAR21-160100Z VRB01KT 9999 SCT040 SCT100 11/08 Q1030 PP000=
SPZO MAR21-160200Z VRB02KT 9999 SCT043 SCT200 10/08 Q1030 PP000=
SPZO MAR21-160300Z 06004KT 9999 BKN040 SCT100 10/08 Q1031 PP000=
SPZO MAR21-160400Z 00000KT 9999 BKN040 SCT080 10/08 Q1032 PP000=
SPZO MAR21-160500Z 00000KT 9999 BKN040 SCT050 09/07 Q1031 PP000=
SPZO MAR21-160600Z 00000KT 9999 SCT037 BKN040 10/08 Q1031 PP000=
SPZO MAR21-160700Z 00000KT 8000 -RA FEW037 OVC040 09/08 Q1030 PP004=
SPZO MAR21-160800Z 00000KT 8000 -RA OVC040 09/08 Q1030 PP020=
SPZO MAR21-160900Z 00000KT 9999 DZ FEW030 OVC040 10/07 Q1030 PP004=
SPZO MAR21-161000Z 10004KT 9999 SCT030 SCT050 09/08 Q1030 PP000=
SPZO MAR21-161100Z VRB02KT 9000E FEW020 SCT040 BKN100 08/07 Q1031 PP000=
SPZO MAR21-161112Z 00000KT 8000E SCT020 SCT040 BKN300 08/07 Q1031 RMK BR=
SPZO MAR21-161200Z 25004KT 180V290 9000E FEW025 SCT040 BKN080 09/08
SPZO MAR21-161221Z 09004KT 060V120 9999 SCT040 BKN080 10/08 Q1032=
SPZO MAR21-161221Z 09004KT 060V120 9999 SCT040 BKN080 10/08 Q1032=
SPZO MAR21-161300Z VRB02KT 9999 SCT040 BKN080 11/08 Q1032 NOSIG
SPZO MAR21-161400Z VRB02KT 9999 SCT040 SCT100 14/08 Q1033 NOSIG
SPZO MAR21-161500Z VRB03KT 9999 FEW040 SCT050 16/06 Q1033 NOSIG
SPZO MAR21-161600Z 10006KT 060V140 9999 SCT040 SCT100 16/08 Q1032
SPZO MAR21-161700Z VRB05KT 9999 SCT040 SCT080 18/09 Q1031 NOSIG
SPZO MAR21-161800Z 10007KT 050V140 9999 BKN043 18/08 Q1030 NOSIG
SPZO MAR21-161900Z 10006KT 070V150 9999 BKN040 SCT300 19/04 Q1028
SPZO MAR21-162000Z VRB03KT 9999 BKN043 SCT300 20/04 Q1027 NOSIG
SPZO MAR21-162100Z 28014KT 9999 VCSH BKN043 SCT300 18/08 Q1027
SPZO MAR21-162128Z 29010KT 9999 VCSH FEW040TCU SCT043TCU BKN100
SPZO MAR21-162200Z 27012KT 240V300 9999 VCSH FEW040 SCT043TCU BKN100
SPZO MAR21-162200Z 27012KT 240V300 9999 VCSH FEW040 SCT043TCU BKN100
SPZO MAR21-162300Z 27009KT 9999 BKN040 SCT043 14/08 Q1028 BECMG
SPZO MAR21-170000Z 32010KT 9999 SCT040 BKN050 15/06 Q1029 RMK PP000=
SPZO MAR21-170100Z 11005KT 9999 SCT040 BKN050 12/08 Q1031 RMK PP000=
SPZO MAR21-170200Z 10003KT 9999 SCT040 BKN050 12/08 Q1032 RMK PP000=
SPZO MAR21-170300Z 00000KT 9999 SCT040 BKN050 12/08 Q1032 RMK PP000=
SPZO MAR21-170400Z 09004KT 8000 -RA SCT040 BKN050 11/08 Q1033 PP004=
SPZO MAR21-170500Z 10003KT 8000 -RA SCT040 BKN050 10/08 Q1032 PP004=
SPZO MAR21-170600Z 00000KT 8000 -RA SCT040 BKN050 10/09 Q1032 PP002=
SPZO MAR21-170700Z 00000KT 9000 SCT040 BKN050 10/08 Q1031 RERA
SPZO MAR21-170800Z 00000KT 9999 SCT030 BKN040 10/08 Q1031 RMK PP000=
SPZO MAR21-170900Z 00000KT 9999 SCT030 BKN040 10/08 Q1031 RMK PP000=
SPZO MAR21-171000Z 00000KT 9999 SCT030 BKN040 10/08 Q1031 RMK PP000=
SPZO MAR21-171100Z 26006KT 230V290 8000 SCT030 BKN040 10/07 Q1031 RMK BR PP000=
SPZO MAR21-171116Z VRB03KT 9999 SCT020 BKN040 BKN043 10/07 Q1031
SPZO MAR21-171138Z 29005KT 9999 VCRA SCT025 BKN040 BKN043 10/07
SPZO MAR21-171200Z 29005KT 260V340 9999 VCRA SCT025 BKN040 BKN043
SPZO MAR21-171222Z 31005KT 270V010 9999 SCT030 SCT040 BKN043 11/07 Q1032=
SPZO MAR21-171300Z 29004KT 250V330 9999 SCT030 SCT040 BKN043 11/07
SPZO MAR21-171400Z VRB01KT 9999 SCT033 BKN043 13/07 Q1033 NOSIG
SPZO MAR21-171500Z VRB03KT 9999 BKN040 SCT047 14/07 Q1033 NOSIG
SPZO MAR21-171518Z 08004KT 020V140 9999 VCRA SCT040 BKN050 14/09
SPZO MAR21-171518Z 08004KT 020V140 9999 VCRA SCT040 BKN050 14/09
SPZO MAR21-171518Z 08004KT 020V140 9999 VCRA SCT040 BKN050 14/09
SPZO MAR21-171518Z 08004KT 020V140 9999 VCRA SCT040 BKN050 14/09
SPZO MAR21-171600Z VRB03KT 9999 VCSH SCT040 BKN060 15/07 Q1032
SPZO MAR21-171700Z VRB01KT 9999 VCSH BKN040 SCT060 16/06 Q1031
SPZO MAR21-171800Z VRB04KT 9999 -RA BKN040 SCT060 16/08 Q1030 RESHRA TEMPO FM1815 NSW RMK PPTRZ=
SPZO MAR21-171820Z 30007KT 250V030 9999 RERAVCRA SCT040 BKN050 15/0 Q1029=
SPZO MAR21-171820Z 30007KT 250V030 9999 RERAVCRA SCT040 BKN050 15/0 Q1029=
SPZO MAR21-171900Z 24006KT 200V290 9999 VCRA BKN040 SCT046 15/06 Q1029 NOSIG RMK PPTRZ RWY10 25013KT=
SPZO MAR21-172000Z 27008KT 220V310 9999 VCRA FEW037TCU SCT040 SCT050 16/07 Q1028 TEMPO RA RMK PP000 RWY10 30013KT=
SPZO MAR21-172100Z 14004KT 080V180 9999 VCRA SCT040 BKN046 15/08 Q1028 NOSIG RMK PP000 RWY10 36009KT=
SPZO MAR21-172200Z 12004KT 060V150 9999 FEW040TCU BKN060 15/08 Q1028 TEMPO RA RMK PP000 TMX:17.7=
SPZO MAR21-172300Z 12004KT 080V150 9999 SCT040 BKN050 13/07 Q1028 NOSIG RMK PP000=
SPZO MAR21-180000Z 11003KT 9999 OVC040 13/07 Q1029 RMK PP000=
SPZO MAR21-180100Z 05004KT 9999 OVC040 12/07 Q1030 RMK PP000=
SPZO MAR21-180200Z 12003KT 9999 OVC040 12/08 Q1031 RMK PP000=
SPZO MAR21-180300Z 00000KT 9999 OVC040 11/08 Q1031 RMK PP000=
SPZO MAR21-180400Z 00000KT 9999 OVC040 12/08 Q1031 RMK PP000=
SPZO MAR21-180500Z 09002KT 9999 OVC040 11/08 Q1031 RMK PP000=
SPZO MAR21-180600Z 00000KT 9999 OVC040 11/07 Q1030 RMK PP000=
SPZO MAR21-180700Z 10003KT 9999 OVC040 10/08 Q1029 RMK PP000=
SPZO MAR21-180800Z 11002KT 9999 OVC040 10/08 Q1029 RMK PP000=
SPZO MAR21-180900Z 10003KT 9999 OVC040 10/08 Q1028 RMK PP000=
SPZO MAR21-181000Z 00000KT 9999 OVC040 10/08 Q1029 RMK PP000=
SPZO MAR21-181100Z 00000KT 9999 OVC040 10/08 Q1029 RMK PP000=
SPZO MAR21-181200Z VRB02KT 9999 FEW037 SCT040 SCT050 11/09 Q1030 NOSIG RNK PP000=
SPZO MAR21-181300Z VRB02KT 9999 FEW033 SCT043 SCT050 12/08 Q1030 NOSIG RMK PP000 BCBR NE=
SPZO MAR21-181300Z VRB02KT 9999 FEW033 SCT043 SCT050 12/08 Q1031 NOSIG RMK PP000 BCBR NE=
SPZO MAR21-181400Z 10008KT 070V140 9000E VCRA FEW033 SCT043 SCT060 13/08 Q1031 NOSIG RMK PP000 RWY10 09012KT=
SPZO MAR21-181500Z 09006KT 060V130 9999 VCRA SCT040 BKN050 13/08 Q1031 NOSIG RMK PP000 RWY10 08011KT=
SPZO MAR21-181600Z VRB03KT 9999 VCRA SCT040 SCT050 15/07 Q1030 NOSIG RMK PP000=
SPZO MAR21-181700Z 00000KT 9999 SCT043 SCT050 15/07 Q1029 NOSIG RMK PP002 -RA EFIMERO=
SPZO MAR21-181800Z 07008KT 9000E VCRA FEW40TCU BKN046 15/08 Q1027 TEMPO RA RMK PP000 RWY10 02007KT=
SPZO MAR21-181807Z 07008KT 9000 -RA SCT040 SCT046 14/08 Q1027=
SPZO MAR21-181900Z 26007KT 210V310 9000 VCRA SCT040 BKN046 15/09 Q1026 TEMPO -RA RMK PP002 RWY10 26014KT=
SPZO MAR21-182000Z 11006KT 090V150 9000 VCRA SCT040 SCT050 15/09 Q1026 NOSIG RMK PP000 RWY10 26008KT=
SPZO MAR21-182031Z 07007KT 9000 -RA BKN040 SCT046 12/0 Q1026=
SPZO MAR21-182100Z VRB03KT 9000 VCRA BKN040 SCT046 13/07 Q1026 NOSIG
SPZO MAR21-182031Z 07007KT 9000 -RA BKN040 SCT046 12/08 Q1026=
SPZO MAR21-182100Z VRB03KT 9000 -RA BKN040 SCT046 13/07 Q1026 NOSIG RMK PPTRAZ=
SPZO MAR21-182200Z 17005KT 120V240 9999 VCRA BKN037 SCT043 12/07 Q1027 NOSIG RMK PP002 CLNG BLW 1200M TMX:17.8=
SPZO MAR21-182300Z 09004KT 060V130 6000 RA BKN033 SCT040 10/07 Q1028 NOSIG RMK PP004 CLNG BLW 1200M=
SPZO MAR21-190000Z 00000KT 8000 -RA BKN037 SCT046 09/07 Q1029 PP022=
SPZO MAR21-190100Z VRB02KT 9999 DZ SCT030 BKN046 10/08 Q1029 PP008=
SPZO MAR21-190200Z 00000KT 9999 FEW030 OVC040 10/08 Q1030 PP002=
SPZO MAR21-190300Z VRB03KT 9999 SCT030 BKN043 10/08 Q1031 PP000=
SPZO MAR21-190400Z 00000KT 9999 OVC040 10/07 Q1031 PP000=
SPZO MAR21-190500Z 00000KT 9999 SCT030 BKN040 10/08 Q1030 PP000=
SPZO MAR21-190600Z 00000KT 9999 SCT025 BKN040 09/07 Q1030 PP000=
SPZO MAR21-190700Z 00000KT 9999 SCT037 BKN043 09/08 Q1030 PP000=
SPZO MAR21-190800Z 00000KT 9999 OVC040 10/08 Q1030 PP000=
SPZO MAR21-190900Z 00000KT 9999 BKN040 SCT050 09/08 Q1029 PP000=
SPZO MAR21-191000Z 00000KT 9999 BKN040 SCT050 09/08 Q1030 PP000=
SPZO MAR21-191100Z VRB03KT 9999 FEW025 SCT040 BKN060 09/08 Q1030 PP000=
SPZO MAR21-191200Z 00000KT 9999 SCT040 SCT050 10/08 Q1031 NOSIG RMK PP000 BCBR NW=
SPZO MAR21-191300Z VRB02KT 99999 FEW035 SCT043 12/08 Q1032 NOSIG RMK PP000 BCBR NE=
SPZO MAR21-191400Z VRB03KT 9999 FEW040 SCT046 14/08 Q1031 NOSIG RMK PP000=
SPZO MAR21-191500Z 00000KT 9999 SCT040 SCT050 15/07 Q1031 NOSIG RMK PP000 RWY10 06007KT=
SPZO MAR21-191600Z VRB03KT 9999 FEW040 SCT050 17/06 Q1030 NOSIG RMK PP000=
SPZO MAR21-191700Z VRB03KT 9999 FEW040TCU SCT050 17/06 Q1029 TEMPO VCRA RMK PP000=
SPZO MAR21-191800Z 01011KT 340V040 9000 -RA SCT040TCU BKN046 15/07
SPZO MAR21-191805Z 01014KT 330V070 8000 TSRA SCT040CB BKN047 13/07 Q1029 TEMPO 6000=
SPZO MAR21-191810Z 36011KT 330V070 7000 +TSRA BKN040CB Q1029 TEMPO FM1820 9000=
SPZO MAR21-191830Z 26011KT 8000 TSRA BKN040CB SCT047 11/08 Q1030=
SPZO MAR21-191900Z 22007KT 190V280 7000 RA SCT040CB BKN047 11/08
SPZO MAR21-192000Z VRB03KT 9000 -RA FEW025 BKN040 BKN047 10/08 Q1030
SPZO MAR21-192100Z 00000KT 9999 FEW025 SCT040 BKN060 11/08 Q1029
SPZO MAR21-192200Z 00000KT 9999 FEW025 SCT043 BKN080 12/07 Q1029
SPZO MAR21-192300Z 00000KT 9999 FEW025 BKN100 11/08 Q1029 NOSIG
SPZO MAR21-200000Z VRB02KT 9999 FEW037 OVC040 10/06 Q01030 PP000=
SPZO MAR21-200100Z 00000KT 9999 SCT030 BKN0040 09(08 Q1030 PP000=
SPZO MAR21-200100Z 00000KT 9999 SCT043 SCT100 09/07 Q1031 PP000=
SPZO MAR21-200200Z 00000KT 9999 SCT043 SCT100 09/07 Q1031 PP000=
SPZO MAR21-200300Z 00000KT 9999 SCT040 SCT050 08/06 Q1031 PP000=
SPZO MAR21-200400Z VRB02KT 9999 FEW040 SCT060 08/06 Q31 PP000=
SPZO MAR21-200500Z 00000KT 9999 SCT040 SCT080 08/07 Q1031 PP000=
SPZO MAR21-200600Z 00000KT 9999 BKN040 SCT080 08/07 Q1031 PP000=
SPZO MAR21-200700Z 00000KT 9999 SCT040 SCT070 09/07 Q1031 PP000=
SPZO MAR21-200800Z 00000KT 9999 OVC040 09/07 Q1031 P000=
SPZO MAR21-200900Z VRB02KT 9999 VCSH OVC040 09/08 Q1031 PP002=
SPZO MAR21-201000Z 00000KT 9999 BKN040 SCT050 09/07 Q1031 PP000=
SPZO MAR21-201100Z VRB01KT 9999 FEW030 SCT040 BKN050 09/08 Q1031 PP000=
SPZO MAR21-201200Z VRB01KT 8000 BKN040 SCT047 09/08 Q1032 TEMPO
SPZO MAR21-201300Z VRB02KT 9000 FEW030 SCT040 BKN047 10/08 Q1033
SPZO MAR21-201337Z VRB02KT 9000 VCRA FEW030 SCT040 BKN047 12/08 Q1033=
SPZO MAR21-201400Z VRB02KT 9000 -DZ FEW030 SCT040 BKN047 12/08 Q1033
SPZO MAR21-201500Z 00000KT 9999 VCRA FEW030 SCT040 BKN047 14/08
SPZO MAR21-201530Z VRB02KT 9999 SCT037 BKN080 16/09 Q1033=
SPZO MAR21-201600Z VRB02KT 9999 SCT037 BKN100 16/07 Q1032 NOSIG
SPZO MAR21-201700Z 00000KT 9999 SCT040 SCT100 17/07 Q1031 NOSIG
SPZO MAR21-201800Z VRB01KT 9999 VCSH FEW040 SCT043TCU BKN100 17/06 Q1030 TEMPO 9000 -SHRA RMK PP000=
SPZO MAR21-201900Z VRB03KT 9999 FEW040 SCT047TCU BKN100 15/08 Q1029
SPZO MAR21-202000Z VRB03KT 9999 FEW040 SCT100 BKN300 17/08 Q1028 NOSIG PP000=
SPZO MAR21-202100Z VRB02KT 9999 SCT043 BKN300 18/07 Q1027 NOSIG
SPZO MAR21-202200Z VRB03KT 9999 SCT043 BKN100 18/07 Q1027 PP000
SPZO MAR21-202200Z VRB03KT 9999 SCT043 BKN100 18/07 Q1027 NOSIG
SPZO MAR21-202200Z VRB03KT 9999 SCT043 BKN100 18/07 Q1027 NOSIG
SPZO MAR21-202300Z 11005KT 080V150 9999 SCT040 SCT060 BKN300 15/08
SPZO MAR21-210000Z 00000KT 9999 OVC050 14/07 Q1029 RMK PP000=
SPZO MAR21-210100Z 00000KT 9999 OVC050 13/08 Q1030 RMK PP000=
SPZO MAR21-210200Z 00000KT 9999 OVC050 12/09 Q1032 RMK PP000=
SPZO MAR21-210300Z 25006KT 170V310 5000 RA SCT040 SCT050 10/06 Q1033 RMK PP018=
SPZO MAR21-210400Z 29003KT 8000 -RA BKN040 SCT050 09/06 Q1033 PP006=
SPZO MAR21-210500Z 00000KT 9000 OVC040 10/07 Q1033 RERA RMK PPTRZ=
SPZO MAR21-210600Z 28003KT 7000 -RA SCT030 BKN040 09/07 Q1033 PP008=
SPZO MAR21-210700Z 30005KT 8000 SCT030 BKN040 09/06 Q1032 RERA RMK PP002=
SPZO MAR21-210800Z 00000KT 9999 SCT030 BKN040 09/06 Q1032 RMK PP000=
SPZO MAR21-210900Z 00000KT 7000 -RA SCT030 BKN040 09/07 Q1032 PP002=
SPZO MAR21-211000Z 00000KT 7000 -RA SCT030 OVC040 09/06 Q1033 PP002=
SPZO MAR21-211030Z 00000KT 7000 -RA SCT030 OVC040 09/07 Q1033=
SPZO MAR21-211100Z 00000KT 7000 -RA SCT030 OVC040 09/07 Q1033 PP002=
SPZO MAR21-211135Z 00000KT 9999 -DZ SCT025 BKN040 OVC043 09/06
SPZO MAR21-211135Z 00000KT 9999 -DZ SCT025 BKN040 OVC043 09/06
SPZO MAR21-211200Z 00000KT 9999 SCT025 OVC040 09/06 Q1034 REDZ TEMPO
SPZO MAR21-211300Z VRB02KT 9999 SCT025 BKN040 BKN043 09/06 Q1034
SPZO MAR21-211322Z 00000KT 9999 -RA SCT025 BKN040 OVC060 10/06 Q1034=
SPZO MAR21-211400Z VRB01KT 9999 SCT030 SCT060 OVC080 11/06 Q1034 RERA
SPZO MAR21-211500Z VRB01KT 9999 SCT033 BKN080 14/07 Q1034 NOSIG
SPZO MAR21-211600Z VRB03KT 9999 BKN043 SCT050 15/06 Q1033 NOSIG
SPZO MAR21-211620Z 00000KT 9000 VCSH BKN040 SCT060 15/06 Q1033=
SPZO MAR21-211700Z VRB02KT 9999 SCT040 SCT300 17/08 Q1032 NOSIG
SPZO MAR21-211800Z VRB03KT 9999 SCT043 SCT060 17/07 Q1030 NOSIG RMK PP000=
SPZO MAR21-211900Z VRB03KT 9999 SCT043 SCT050 16/06 Q1029 NOSIG RMK PP000=
SPZO MAR21-212000Z VRB03KT 9999 SCT043 BKN100 19/07 Q1028 NOSIG RMK PP000=
SPZO MAR21-212100Z 01010KT 320V070 9999 SCT043 BKN080 17/06 Q1028 TEMPO -RA RMK PP000 RWY19 36012KT=
SPZO MAR21-212200Z 04006KT 340V110 9999 SCT043 BKN080 16/06 Q1028 NOSIG RMK PP000 TMX:19.0=
SPZO MAR21-212300Z VRB07KT 9999 FEW040TCU BKN046 15/06 Q1029 TEMPO VCRA RMK PP000=
SPZO MAR21-220000Z 00000KT 9999 OVC040 14/07 Q1030 RMK PP000=
SPZO MAR21-220100Z 14004KT 100V220 9999 OVC040 13/06 Q1031 PP000=
SPZO MAR21-220200Z 00000KT 9999 OVC040 12/05 Q1032 RMK PP000=
SPZO MAR21-220300Z VRB02KT 9999 OVC040 12/05 Q1033 RMK PP000=
SPZO MAR21-220400Z VRB02KT 9999 OVC040 11/06 Q1033 RMK PP000=
SPZO MAR21-220500Z 12003KT 9999 OVC040 10/06 Q1033 RMK PP000=
SPZO MAR21-220600Z VRB02KT 9999 OVC040 10/06 Q1032 RMK PP000=
SPZO MAR21-220700Z 00000KT 7000 -RA SCT030 BKN040 10/06 Q1032 PP002=
SPZO MAR21-220800Z 07003KT 8000 SCT030 BKN040 09/07 Q1031 RERA
SPZO MAR21-220900Z 00000KT 9999 FEW030 OVC040 09/07 Q1031 RMK PP000=
SPZO MAR21-221000Z 00000KT 9999 FEW030 OVC040 09/07 Q1031 RMK PP000=
SPZO MAR21-221100Z 00000KT 9999 BKN040 SCT070 09/07 Q1032 RMK PP000=
SPZO MAR21-221200Z 00000KT 9999 FEW040 SCT050 11/08 Q1032 NOSIG RMK PP000=
SPZO MAR21-221227Z VRB02KT 9999 SCT040 SCT046 11/08 Q1032=
SPZO MAR21-221227Z VRB02KT 9999 SCT040 SCT046 11/08 Q1032=
SPZO MAR21-221300Z 00000KT 9999 SCT040 SCT050 13/08 Q1033 NOSIG RMK PP000=
SPZO MAR21-221400Z VRB02KT 9999 FEW040 BKN046 13/07 Q1033 NOSIG RMK PP000=
SPZO MAR21-221500Z VRB02KT 9999 SCT040 SCT050 15/07 Q1032 NOSIG RMK PP000=
SPZO MAR21-221600Z VRB03KT 9999 SCT043 SCT050 16/05 Q1031 NOSIG RMK PP000=
SPZO MAR21-221700Z VRB03KT 9999 FEW040 BKN050 17/07 Q1030 NOSIG RMK PP000=
SPZO MAR21-221800Z 02013KT 330V080 9999 BKN050 17/03 Q1029 NOSIG RMK PP000=
SPZO MAR21-221900Z 02012KT 330V060 9999 SCT050 19/03 Q1028 NOSIG RMK PP000=
SPZO MAR21-222000Z 02013KT 340V060 9999 SCT050 19/03 Q1027 NOSIG RMK PP000=
SPZO MAR21-222100Z 02015KT 340V070 9999 SCT050 18/03 Q1027 NOSIG RMK PP000=
SPZO MAR21-222200Z 02014KT 330V060 9999 SCT050 17/03 Q1027 NOSIG RMK PP000 TMX:19.5=
SPZO MAR21-222300Z 02012KT 9999 SCT050 15/03 Q1027 NOSIG RMK PP000=
SPZO MAR21-230000Z 32004KT 9999 FEW040 SCT080 14/03 Q1029 PP000=
SPZO MAR21-230100Z 00000KT 9999 FEW043 SCT080 12/04 Q1030 PP000=
SPZO MAR21-230200Z VRB02KT 9999 FEW043 11/04 Q1031 PP000=
SPZO MAR21-230300Z 36005KT 9999 FEW040 09/04 Q1032 PP000=
SPZO MAR21-230400Z 03004KT 9999 FEW050 08/05 Q1032 PP000=
SPZO MAR21-230500Z 00000KT 9999 FEW050 08/05 Q1032 PP000=
SPZO MAR21-230600Z 00000KT 9999 SKC 06/04 Q1032 PP000=
SPZO MAR21-230700Z 00000KT 9999 SKC 06/04 Q1031 PP000=
SPZO MAR21-230800Z 00000KT 9999 SKC 06/04 Q1031 PP000=
SPZO MAR21-230900Z 00000KT 9999 SKC 05/04 Q1031 PP000=
SPZO MAR21-231000Z VRB02KT 9999 FEW050 SCT080 05/03 Q1032 PP000=
SPZO MAR21-231100Z 00000KT 9999 FEW050 SCT080 05/03 Q1032 PP000=
SPZO MAR21-231200Z VRB01KT 9999 FEW050 08/05 Q1033 NOSIG RMK PP000=
SPZO MAR21-231300Z 00000KT 9999 FEW050 11/06 Q1033 NOSIG RMK PP000=
SPZO MAR21-231400Z VRB02KT 9999 FEW050 14/06 Q1033 NOSIG RMK PP000=
SPZO MAR21-231400Z VRB02KT 9999 FEW050 14/06 Q1033 NOSIG RMK PP000=
SPZO MAR21-231500Z VRB03KT 9999 SCT050 16/05 Q1032 NOSIG RMK PP000=
SPZO MAR21-231600Z VRB03KT 9999 SCT050 17/06 Q1032 NOSIG PP000=
SPZO MAR21-231700Z 05004KT 9999 BKN050 18/08 Q1030 NOSIG PP000=
SPZO MAR21-231800Z 08006KT 9999 FEW043TCU SCT050 19/07 Q1029 NOSIG PP000=
SPZO MAR21-231900Z 08006KT 9999 SCT050 20/06 Q1027 NOSIG PP000=
SPZO MAR21-232000Z VRB03KT 9999 SCT050 20/04 Q1026 NOSIG PP000=
SPZO MAR21-232100Z VRB03KT 9999 FEW040TCU SCT050 20/04 Q1025 NOSIG
SPZO MAR21-232200Z 36010KT 9999 FEW040TCU SCT050 19/06 Q1025 NOSIG
SPZO MAR21-232200Z 36010KT 9999 FEW040TCU SCT200 19/06 Q1025 NOSIG
SPZO MAR21-232300Z 34005KT 9999 SCT043 SCT200 16/07 Q1027 NOSIG PP000=
SPZO MAR21-240000Z 31009KT 9999 FEW043 SCT080 15/07 Q1028 PP000=
SPZO MAR21-240100Z 31005KT 9999 SCT040 SCT050 15/07 Q1029 PP000=
SPZO MAR21-240200Z 30008KT 9999 SCT040 SCT080 14/07 Q1030 PP000=
SPZO MAR21-240300Z 30007KT 9999 SCT040 SCT070 13/07 Q1030 PP000=
SPZO MAR21-240400Z 00000KT 9999 SCT037 SCT070 13/07 Q1031 PP000=
SPZO MAR21-240500Z 00000KT 9999 SCT037 SCT070 12/08 Q1030 PP000=
SPZO MAR21-240600Z 00000KT 9999 BKN040 SCT050 12/07 Q1030 PP000=
SPZO MAR21-240700Z 00000KT 9999 OVC040 12/08 Q1030 PP000=
SPZO MAR21-240800Z 00000KT 9999 OVC043 11/07 Q1030 PP000=
SPZO MAR21-240900Z 00000KT 9999 BKN040 SCT050 10/08 Q1030 PP000=
SPZO MAR21-241000Z 00000KT 9999 SCT040 SCT050 10/08 Q1030 PP000=
SPZO MAR21-241100Z 00000KT 9999 SCT040 SCT050 10/08 Q1031 PP000=
SPZO MAR21-241200Z 00000KT 9000 SCT040 SCT060 12/08 Q1031 TEMPO 9999 RMK PP000=
SPZO MAR21-241300Z 09004KT 040V120 9999 SCT040 SCT100 13/08 Q1032 NOSIG RMK PP000=
SPZO MAR21-241400Z 08004KT 360V170 9999 SCT040 16/07 Q1032 NOSIG RMK PP000=
SPZO MAR21-241500Z VRB04KT 9999 BKN043 17/08 Q1031 NOSIG RMK PP000=
SPZO MAR21-241600Z 00000KT 9999 SCT043TCU SCT050 18/06 Q1031 NOSIG PP000=
SPZO MAR21-241700Z 11007KT 080V150 9999 SCT040TCU SCT047 18/08 Q1030 NOSIG PP000=
SPZO MAR21-241705Z 12008KT 9000 RASH BKN040TCU SCT047 15/08 Q1030 TEMPO 9999=
SPZO MAR21-241738Z 01009KT 9000 VC-RA FEW040TCU BKN053 16/06 Q1029 RESH=
SPZO MAR21-241800Z 02011KT 320V050 9000W VC-RA FEW040TCU BKN053
SPZO MAR21-241822Z 01009KT 340V060 9000 SHRA SCT040TCU SCT050 15/07 Q1029=
SPZO MAR21-241900Z 28005KT 230V350 9999 FEW040TCU BKN047 14/08 Q1028
SPZO MAR21-242000Z 28006KT 9999 SCT043 SCT150 15/07 Q1028 NOSIG PP000=
SPZO MAR21-242100Z 26009KT 9000E VCRA SCT043 BKN060 14/07 Q1028
SPZO MAR21-242200Z 27006KT 8000E VCRA SCT040 BKN060 14/07 Q1029
SPZO MAR21-242300Z 02004KT 9999 FEW025 SCT047 BKN060 12/09 Q1029
SPZO MAR21-242300Z 02004KT 9999 FEW025 SCT047 BKN060 12/09 Q1029
SPZO MAR21-250000Z 09004KT 070V140 9999 OVC040 10/08 Q1030 PP000=
SPZO MAR21-250100Z 05005KT 340V130 5000 RA SCT030 BKN040 09/06 Q1033
SPZO MAR21-250200Z VRB03KT 4000 +RA SCT030TCU BKN040 08/07 Q1034
SPZO MAR21-250300Z 28003KT 5000 RA SCT030TCU BKN040 08/07 Q1034
SPZO MAR21-250400Z 28006KT 7000 -RA SCT030 BKN040 08/07 Q1033 PP012=
SPZO MAR21-250500Z 07007KT 040V100 8000 FEW030 BKN040 09/07 Q1033
SPZO MAR21-250600Z 17002KT 9999 FEW030 BKN040 08/06 Q1032 RMK PP000=
SPZO MAR21-250700Z 11004KT 9999 OVC040 08/06 Q1032 RMK PP000=
SPZO MAR21-250800Z 00000KT 9999 OVC040 08/06 Q1031 RMK PP000=
SPZO MAR21-250900Z 00000KT 9999 OVC040 08/06 Q1031 RMK PP000=
SPZO MAR21-251000Z 00000KT 9999 OVC040 08/07 Q1032 RMK PP000=
SPZO MAR21-251100Z 00000KT 7000 -DZ SCT030 SCT040 08/07 Q1032 RMK BR PPTRZ=
SPZO MAR21-251134Z 00000KT 99999 SCT030 SCT040 BKN043 08/07 Q1033=
SPZO MAR21-251200Z 00000KT 9999 VCRA SCT030 SCT040 BKN050 09/07
SPZO MAR21-251200Z 00000KT 9999 VCRA SCT030 SCT040 BKN050 09/07
SPZO MAR21-251300Z VRB03KT 9999 SCT030 SCT040 BKN050 09/07 Q1034
SPZO MAR21-251400Z 09004KT 010V130 9999 SCT037 BKN060 11/07 Q1034
SPZO MAR21-251500Z VRB02KT 9999 FEW040 BKN080 15/08 Q1034 NOSIG
SPZO MAR21-251600Z 12004KT 030V190 9999 SCT040 BKN080 15/06 Q1033
SPZO MAR21-251700Z VRB03KT 9999 SCT040 SCT080 16/06 Q1032 NOSIG
SPZO MAR21-251800Z VRB02KT 9999 FEW040 SCT047 18/04 Q1030 NOSIG RMK PP000=
SPZO MAR21-251800Z VRB02KT 9999 FEW040 SCT047 18/04 Q1030 NOSIG RMK PP000=
SPZO MAR21-251900Z VRB02KT 9999 FEW040TCU SCT046 18/04 Q1029 TEMPO VCRA RMK PP000 RWY10 16020KT=
SPZO MAR21-252000Z 14008KT 110V170 9000 -RA SCT040 SCT046 14/07 Q1029 NOSIG RMK PP000=
SPZO MAR21-252100Z VRB02KT 9999 FEW040 SCT200 15/06 Q1028 NOSIG RMK PPTRZ=
SPZO MAR21-252200Z VRB02KT 9999 SCT050 14/05 Q1028 NOSIG RMK PP000 TMX:18.4=
SPZO MAR21-260000Z 18007KT 120V240 9999 BKN040 12/06 Q1030 PP000=
SPZO MAR21-252300Z 00000KT 9999 SCT046 14/06 Q1028 NOSIG RMK PP0000=
SPZO MAR21-260000Z 18007KT 120V240 9999 BKN040 12/06 Q1030 PP000=
SPZO MAR21-260100Z VRB02KT 9999 BKN040 11/06 Q1030 RMK PP000=
SPZO MAR21-260200Z VRB02KT 9999 BKN040 10/07 Q1031 RMK PP000=
SPZO MAR21-260300Z 00000KT 9999 OVC040 10/07 Q1031 RMK PP000=
SPZO MAR21-260400Z 00000KT 9999 OVC040 10/07 Q1031 RMK PP000=
SPZO MAR21-260500Z 00000KT 9999 OVC040 09/07 Q1031 RMK PP000=
SPZO MAR21-260600Z 00000KT 9999 OVC040 10/07 Q1031 RMK PP000=
SPZO MAR21-260700Z 00000KT 9999 OVC040 09/07 Q1030 RMK PP000=
SPZO MAR21-260800Z 00000KT 7000 -DZ OVC040 09/07 Q1030 RMK PP004=
SPZO MAR21-260900Z 00000KT 7000 RA BKN030 SCT040 09/07 Q1030 PP010=
SPZO MAR21-261000Z 00000KT 8000 SCT030 SCT040 09/07 Q1030 RERA
SPZO MAR21-261100Z 10003KT 8000 SCT030 BKN040 09/07 Q1030 RMK BR PP000=
SPZO MAR21-261132Z 00000KT 9000 VCRA SCT040 SCT046 09/07 Q1
SPZO MAR21-261132Z 00000KT 9000 VCRA SCT040 SCT046 09/07 Q1
SPZO MAR21-261200Z 00000KT 9000E VCRA SCT040 SCT050 09/07 Q1031 NOSIG RMK PP000 RWY WET BCBR NE=
SPZO MAR21-261234Z 10005KT 9000E VCRA FEW035 SCT040 SCT050 1 Q1031 BCBR/NE=
SPZO MAR21-261234Z 10005KT 9000E VCRA FEW035 SCT040 SCT050 1 Q1031 BCBR/NE=
SPZO MAR21-261300Z 10005KT 060V140 9000E VCRA FEW035 SCT040 SCT046 10/08 Q1031 NOSIG RMK PP000=
SPZO MAR21-261400Z VRB02KT 9999 VCRA FEW033 SCT040 SCT046 13/08 Q1032 NOSIG RMK PP000=
SPZO MAR21-261500Z VRB02KT 9999 FEW040 SCT050 15/06 Q1031 NOSIG RMK PP000=
SPZO MAR21-261600Z VRB03KT 9999 SCT040 SCT050 16/06 Q1030 NOSIG RMK PP000=
SPZO MAR21-261700Z VRB03KT 9999 SCT040 SCT050 18/04 Q1029 NOSIG PP000=
SPZO MAR21-261800Z 30004KT 9999 SCT050 19/05 Q1028 NOSIG PP000=
SPZO MAR21-261900Z 34005KT 9999 SCT050 20/04 Q1026 NOSIG PP000=
SPZO MAR21-262000Z 30011KT 9999 FEW040 SCT050 18/07 Q1025 NOSIG PP000=
SPZO MAR21-262010Z 30011KT 9999 RA SCT040 SCT050 15/08 Q1025=
SPZO MAR21-262100Z 28008KT 240V330 9999 FEW040TCU SCT050 15/09 Q1025 TEMPO VCSH RMK RWY10 320/17KT PP046=
SPZO MAR21-262200Z 11006KT 9999 -RA FEW040TCU SCT050 13/07 Q1026 NOSIG RMK RWY10 06017KT PP006 TMAX 20.4=
SPZO MAR21-262300Z 00000KT 9999 FEW040 SCT050 12/07 Q1026 NOSIG PPTRZ=
SPZO MAR21-270000Z 12004KT 9999 SCT040 11/09 Q1028 PP000=
SPZO MAR21-270100Z 00000KT 9999 SCT040 11/08 Q1029 PP000=
SPZO MAR21-270200Z 00000KT 9999 FEW040 SCT050 11/09 Q1029 PP000=
SPZO MAR21-270300Z 00000KT 9999 SCT037 SCT050 11/09 Q1030 PP000=
SPZO MAR21-270400Z VRB03KT 9999 FEW037 BKN047 11/09 Q1030 PP000=
SPZO MAR21-270500Z 00000KT 9999 SCT037 BKN047 11/07 Q1030 PP000=
SPZO MAR21-270600Z 00000KT 9999 SCT050 SCT060 10/07 Q1029 PP000=
SPZO MAR21-270700Z 08004KT 9999 SCT037 BKN047 11/07 Q1029 PP000=
SPZO MAR21-270800Z 07004KT 9999 FEW033 BKN047 10/06 Q1029 PP000=
SPZO MAR21-270900Z 10005KT 9999 FEW033 BKN047 09/06 Q1029 PP000=
SPZO MAR21-271000Z VRB03KT 9999 FEW033 BKN043 09/06 Q1030 PP000=
SPZO MAR21-271100Z 08004KT 9999 FEW033 SCT040 BKN047 09/07 Q1030 PP000=
SPZO MAR21-271200Z 27002KT 9999 SCT040 SCT050 10/07 Q1031 NOSIG RMK PP000=
SPZO MAR21-271300Z VRB02KT 9999 FEW037 SCT046 12/07 Q1031 NOSIG RMK PP000=
SPZO MAR21-271400Z VRB03KT 9999 SCT040 14/06 Q1031 NOSIG RMK PP000=
SPZO MAR21-271500Z VRB02KT 9999 SCT050 16/07 Q1031 NOSIG RMK PP000=
SPZO MAR21-271600Z VRB03KT 9999 SCT046 17/04 Q1030 NOSIG RMK PP000=
SPZO MAR21-271700Z 07004KT 010V140 9999 FEW040 SCT050 17/04 Q1029 NOSIG RMK PP000=
SPZO MAR21-271800Z VRB02KT 9999 SCT043 SCT050 18/01 Q1028 NOSIG RMK PP000=
SPZO MAR21-271900Z VRB04KT 9999 SCT043 BKN100 18/03 Q1027 NOSIG
SPZO MAR21-272000Z VRB02KT 9999 SCT043 OVC100 19/05 Q1026 NOSIG
SPZO MAR21-272100Z 30007KT 240V340 9999 SCT043 OVC080 18/06 Q1025
SPZO MAR21-272200Z 01007KT 320V050 9999 BKN043 SCT100 17/07 Q1026
SPZO MAR21-272300Z 06006KT 330V120 9999 SCT040 BKN043 16/05 Q1026
SPZO MAR21-280000Z 00000KT 9999 SCT037 BKN047 14/05 Q1028 PP000=
SPZO MAR21-280100Z 00000KT 9999 SCT037 SCT050 14/05 Q1029 PP000=
SPZO MAR21-280200Z VRB02KT 9999 BKN037 SCT050 13/05 Q1031 PP000=
SPZO MAR21-280300Z 00000KT 9999 BKN037 SCT050 12/06 Q1032 PP000=
SPZO MAR21-280400Z 05007KT 9999 BKN037 SCT047 13/04 Q1032 PP000=
SPZO MAR21-280500Z VRB02KT 9999 SCT037 BKN047 12/04 Q1032 PP000=
SPZO MAR21-280600Z 10004KT 9999 SCT037 BKN050 10/05 Q1031 PP000=
SPZO MAR21-280700Z 00000KT 9999 SCT037 BKN050 10/06 Q1031 PP000=
SPZO MAR21-280800Z 00000KT 9999 SCT037 BKN050 10/06 Q1030 PP000=
SPZO MAR21-280900Z 10004KT 9999 FEW037 SCT050 09/07 Q1031 PP000=
SPZO MAR21-281000Z 00000KT 9999 FEW037 BKN047 09/07 Q1031 PP000=
SPZO MAR21-281100Z 00000KT 9999 FEW037 BKN047 10/07 Q1032 PP000=
SPZO MAR21-281200Z 00000KT 9999 FEW037 BKN043 10/07 Q1032 TEMPO FEW040 BKN047 RMK PP000=
SPZO MAR21-281237Z 00000KT 9999 FEW040 SCT060 BKN300 11/07 Q1033=
SPZO MAR21-281300Z 00000KT 9999 FEW040 SCT080 BKN300 11/06 Q1033
SPZO MAR21-281330Z 00000KT 9999 SCT037 BKN100 13/07 Q1034=
SPZO MAR21-281400Z VRB01KT 9999 FEW030 SCT040 BKN100 13/06 Q1034
SPZO MAR21-281434Z VRB02KT 9999 BKN040 SCT060 14/05 Q1034=
SPZO MAR21-281434Z VRB02KT 9999 BKN040 SCT060 14/05 Q1034=
SPZO MAR21-281500Z VRB03KT 9999 BKN040 SCT060 14/05 Q1034 NOSIG
SPZO MAR21-281527Z VRB03KT 9999 BKN040 BKN080 14/06 Q1033=
SPZO MAR21-281527Z VRB03KT 9999 BKN040 BKN080 14/06 Q1033=
SPZO MAR21-281600Z VRB03KT 9999 BKN040 SCT080 16/06 Q1033 NOSIG RMK PP000=
SPZO MAR21-281700Z VRB03KT 9999 SCT043 SCT060 17/06 Q1032 NOSIG
SPZO MAR21-281800Z 09005KT 010V160 9999 SCT043 SCT060 17/06 Q1030
SPZO MAR21-281900Z VRB04KT 9999 VCSH FEW040TCU FEW043TCU BKN060
SPZO MAR21-281900Z 05004KT 350V100 9999 VCSH FEW040TCU FEW043TCU
SPZO MAR21-282000Z 10009KT 080V140 9999 VCSH SCT040 FEW043TCU 15/09
SPZO MAR21-282000Z 10009KT 080V140 9999 VCSH SCT040 FEW043TCU 15/07
SPZO MAR21-282100Z 09007KT 060V120 9999 VCSH FEW030 FEW047TCU SCT100
SPZO MAR21-282125Z 12012KT 080V140 9000 VCSH FEW030 SCT050TCU SCT100
SPZO MAR21-282200Z 10011KT 070V140 9999 FEW030 SCT050 13/08 Q1029
SPZO MAR21-282100Z 09007KT 060V120 9999 VCSH FEW030 FEW047TCU SCT100
SPZO MAR21-282125Z 12012KT 080V140 9000 VCSH FEW030 SCT050TCU SCT100
SPZO MAR21-282125Z 12012KT 080V140 9000 VCSH FEW030 SCT050TCU SCT100
SPZO MAR21-282200Z 10011KT 070V140 9999 FEW030 SCT050 13/08 Q1029
SPZO MAR21-282300Z 09008KT 9999 SCT043 SCT300 12/08 Q1029 NOSIG
SPZO MAR21-290000Z 00000KT 9999 BKN040 11/07 Q1030 RMK PP000=
SPZO MAR21-290100Z 00000KT 9999 BKN040 10/07 Q1032 RMK PP000=
SPZO MAR21-290200Z 08002KT 9999 BKN040 10/08 Q1033 RMK PP000=
SPZO MAR21-290300Z 00000KT 9999 BKN040 10/08 Q1033 RMK PP000=
SPZO MAR21-290400Z 00000KT 9999 BKN040 10/08 Q1033 RMK PP000=
SPZO MAR21-290500Z 00000KT 9999 BKN040 10/08 Q1033 RMK PP000=
SPZO MAR21-290600Z 00000KT 9999 BKN040 10/08 Q1033 RMK PP000=
SPZO MAR21-290700Z 00000KT 9999 BKN040 10/07 Q1032 RMK PP000=
SPZO MAR21-290800Z 00000KT 9999 BKN040 10/08 Q1032 RMK PP000=
SPZO MAR21-290900Z 00000KT 9999 BKN040 10/08 Q1031 RMK PP000=
SPZO MAR21-291000Z 00000KT 9999 BKN040 10/08 Q1032 RMK PP000=
SPZO MAR21-291100Z 00000KT 9999 BKN040 SCT080 09/08 Q1032 RMK PP000=
SPZO MAR21-291200Z VRB03KT 9999 FEW037 BKN043 10/08 Q1033 TEMPO
SPZO MAR21-291210Z VRB03KT 9000 FEW037 BKN060 11/08 Q1033=
SPZO MAR21-291300Z VRB03KT 9999 SCT040 BKN080 12/07 Q1034 NOSIG
SPZO MAR21-291300Z VRB03KT 9999 SCT040 BKN080 12/07 Q1034 NOSIG
SPZO MAR21-291400Z VRB03KT 9999 SCT040 BKN053 13/07 Q1034 NOSIG
SPZO MAR21-291500Z 10004KT 030V180 9999 SCT040 BKN060 14/07 Q1034
SPZO MAR21-291600Z VRB02KT 9999 SCT043 SCT060 16/09 Q1033 NOSIG
SPZO MAR21-291600Z VRB02KT 9999 SCT043 SCT060 16/09 Q1033 NOSIG
SPZO MAR21-291700Z 10005KT 050V150 9999 SCT040 SCT060 17/07 Q1032
SPZO MAR21-291800Z VRB05KT 9999 VCSH BKN043 SCT300 19/09 Q1030 NOSIG RMK W PP000=
SPZO MAR21-291900Z 10006KT 060V160 9999 BKN050 18/06 Q1028 NOSIG RMK PP000=
SPZO MAR21-292000Z 02011KT 330V100 9999 VCRA SCT043 SCT050 17/06 Q1027 RMK PP000=
SPZO MAR21-292100Z 27009KT 200V320 9999 SCT046 SCT100 17/06 Q1027 NOSIG RMK PP000=
SPZO MAR21-292200Z 01007KT 330V080 9999 BKN043 17/07 Q1027 NOSIG RMK PP000 TMX: 20.0=
SPZO MAR21-292300Z 00000KT 9999 VCRA FEW040 SCT050 14/06 Q1028 NOSIG RMK PP000=
SPZO MAR21-300000Z 24005KT 170V260 9999 BKN040 13/07 Q1029 PP000=
SPZO MAR21-300100Z 13002KT 9999 BKN040 11/07 Q1031 RMK PP000=
SPZO MAR21-300200Z 09002KT 9999 BKN040 10/07 Q1031 RMK PP000=
SPZO MAR21-300300Z 00000KT 9999 BKN040 11/07 Q1032 RMK PP000=
SPZO MAR21-300400Z 10002KT 9999 BKN040 10/08 Q1032 RMK PP000=
SPZO MAR21-300500Z 08003KT 9999 BKN040 10/08 Q1032 RMK PP000=
SPZO MAR21-300500Z 08003KT 9999 BKN040 10/08 Q1032 RMK PP000=
SPZO MAR21-300600Z 00000KT 9999 BKN040 10/08 Q1031 RMK PP000=
SPZO MAR21-300700Z 00000KT 9999 BKN040 11/08 Q1030 RMK PP000=
SPZO MAR21-300800Z 00000KT 9999 BKN040 11/08 Q1030 RMK PP000=
SPZO MAR21-300900Z 31007KT 280V350 9999 OVC040 11/07 Q1030 PP000=
SPZO MAR21-301000Z 29002KT 9999 OVC040 10/07 Q1030 RMK PP000=
SPZO MAR21-301020Z 30005KT 8000 -DZ OVC040 10/07 Q1031=
SPZO MAR21-301020Z 30005KT 8000 -DZ OVC040 10/07 Q1031=
SPZO MAR21-301100Z 00000KT 8000 -DZ OVC040 10/07 Q1031 RMK BR PP006=
SPZO MAR21-301000Z 29002KT 9999 OVC040 10/07 Q1030 RMK PP000=
SPZO MAR21-301100Z 00000KT 8000 -DZ OVC040 10/07 Q1031 RMK BR PP006=
SPZO MAR21-301100Z 00000KT 8000 -DZ OVC040 10/07 Q1031 RMK BR PP006=
SPZO MAR21-301115Z 00000KT 9999 REDZ SCT040 BKN046 10/07 Q1031=
SPZO MAR21-301115Z 00000KT 9999 REDZ SCT040 BKN046 10/07 Q1031=
SPZO MAR21-301200Z 00000KT 9999 SCT043 BKN050 10/08 Q1031 NOSIG RMK PPTRZ RWY WET=
SPZO MAR21-301300Z 00000KT 9000 DZ FEW033 OVC046 11/07 Q1032 NOSIG RMK PP000 BCBR NE=
SPZO MAR21-301400Z 00000KT 9999 REDZ FEW033 BKN046 11/08 Q1033 NOSIG RMK PP004 BCBR E-NE=
SPZO MAR21-301500Z 00000KT 9999 FEW037 SCT100 13/07 Q1032 NOSIG RMK PP000=
SPZO MAR21-301600Z 06004KT 340V130 9999 SCT037 SCT200 16/07 Q1031 NOSIG PP000=
SPZO MAR21-301700Z VRB03KT 9999 VCSH SCT037 SCT200 17/07 Q1030 NOSIG PP000=
SPZO MAR21-301800Z 06004KT 020V120 9999 VCSH SCT040 SCT050 17/08 Q1028 NOSIG PP000=
SPZO MAR21-301900Z 34008KT 300V020 9999 -RA FEW040TCU BKN050 16/07 Q1027 NOSIG PPTRZ=
SPZO MAR21-301930Z 26006KT 9999 RERA SCT040 SCT050 15/08 Q1027=
SPZO MAR21-302000Z 26005KT 9999 VCSH SCT040 SCT070 15/07 Q1026 NOSIG PPTRZ=
SPZO MAR21-302100Z 33007KT 250V060 9999 VCSH BKN040 SCT050 15/07 Q1026 NOSIG PP000=
SPZO MAR21-302200Z 31007KT 280V350 9999 BKN043 SCT080 14/07 Q1026 NOSIG PP000 TMAX.17.5=
SPZO MAR21-302300Z VRB03KT 9999 BKN040 SCT050 13/08 Q1027 NOSIG PP000=
SPZO MAR21-310000Z 31004KT 9999 BKN043 13/08 Q1028 PP000=
SPZO MAR21-310100Z 00000KT 9999 BKN040 SCT050 12/08 Q1029 PP000=
SPZO MAR21-310200Z 00000KT 9999 SCT037 BKN047 12/08 Q1030 PP000=
SPZO MAR21-310300Z 26006KT 9999 SCT037 BKN047 12/08 Q1031 PP000=
SPZO MAR21-310400Z 00000KT 9000 -RA SCT030 BKN040 10/07 Q1032 PP008=
SPZO MAR21-310500Z VRB03KT 9999 DZ FEW030 BKN040 10/08 Q1032 PP002=
SPZO MAR21-310600Z VRB03KT 8000 RA SCT030 BKN040 09/08 Q1031 PP016=
SPZO MAR21-310700Z 00000KT 9000 -RA FEW025 BKN040 09/07 Q1030 PP012=
SPZO MAR21-310800Z 00000KT 9999 FEW025 SCT037 BKN050 09/07 Q1030 RERA PP004=
SPZO MAR21-310900Z 00000KT 9999 FEW025 BKN040 09/07 Q1030 PP000=
SPZO MAR21-311000Z 00000KT 9999 FEW025 BKN040 09/07 Q1030 PP000=
SPZO MAR21-311100Z 00000KT 9999 FEW027 SCT047 08/06 Q1030 PP000=
SPZO MAR21-311200Z VRB02KT 9999 FEW033 SCT043 SCT050 09/07 Q1031 NOSIG RMK PP000=
SPZO MAR21-311300Z VRB02KT 8000E FEW037 SCT043 SCT050 11/08 Q1031 BECMG FM14 9999 RMK PP000 BCBR/FU E-NE=
SPZO MAR21-311400Z 07004KT 360V140 9999 SCT040 SCT050 14/08 Q1032 NOSIG RMK PP000=
SPZO MAR21-311500Z 10004KT 020V150 9999 SCT040 SCT050 14/05 Q1032 NOSIG RMK PP000=
SPZO MAR21-311600Z VRB03KT 9999 SCT040 SCT050 14/07 Q1031 NOSIG PP000=
SPZO MAR21-311700Z VRB02KT 9999 SCT040 SCT080 16/07 Q1030 NOSIG PP000=
SPZO MAR21-311800Z VRB03KT 9999 VCSH SCT040 SCT080 16/08 Q1029 NOSIG PP000=
SPZO MAR21-311827Z 36010KT 320V330 9000 -RA SCT040TCU BKN047 Q1028=
SPZO MAR21-311900Z VRB02KT 9999 VCSH SCT040 SCT050 14/09 Q1028 NOSIG PP002=
SPZO MAR21-312000Z VRB02KT 9999 VCSH SCT040 SCT050 16/08 Q1027 NOSIG PP000=
SPZO MAR21-312100Z VRB03KT 9999 SCT040 SCT080 16/08 Q1026 NOSIG PP000=
SPZO MAR21-312200Z 01007KT 320V050 9999 VCSH SCT040 SCT050 15/07 Q1026 TEMPO -RA PP000 TMAX 17.3=
SPZO MAR21-312300Z 00000KT 9999 VCSH BKN040 SCT050 13/09 Q1027 RERA TEMPO -RA PP002=
