SPZO 010000Z VRB04KT 9999 FEW040 11/03 Q1030 RMK PP000= 
SPZO 010100Z VRB02KT 9999 FEW040 10/02 Q1032 RMK PP000= 
SPZO 010200Z 00000KT 9999 FEW040 08/02 Q1032 RMK PP000= 
SPZO 010300Z 00000KT 9999 FEW040 07/02 Q1033 RMK PP000= 
SPZO 010400Z 00000KT 9999 FEW040 06/01 Q1034 RMK PP000= 
SPZO 010500Z 00000KT 9999 FEW040 06/02 Q1034 RMK PP000= 
SPZO 010600Z 00000KT 9999 FEW040 05/01 Q1033 RMK PP000= 
SPZO 010700Z 00000KT 9999 FEW040 05/01 Q1033 RMK PP000= 
SPZO 010800Z 00000KT 9999 FEW040 03/00 Q1033 RMK PP000= 
SPZO 010900Z 00000KT 9999 FEW040 03/00 Q1033 RMK PP000= 
SPZO 011000Z 00000KT 9999 FEW040 03/00 Q1033 RMK PP000= 
SPZO 011100Z 00000KT 9999 FEW040 02/M01 Q1034 RMK PP000= 
SPZO 011200Z 00000KT 9999 FEW050 05/01 Q1035 NOSIG RMK PP000= 
SPZO 011300Z VRB03KT 9999 FEW050 09/01 Q1035 NOSIG RMK PP000= 
SPZO 011400Z VRB03KT 9999 FEW050 12/02 Q1035 NOSIG RMK PP000= 
SPZO 011500Z 23004KT 170V320 9999 FEW050 15/M01 Q1034 NOSIG 
SPZO 011600Z 24004KT 180V330 9999 FEW050 17/M01 Q1033 NOSIG RMK PP000 RWY10 06009KT= 
SPZO 011700Z VRB04KT 9999 SCT060 18/M01 Q1032 NOSIG RMK PP000 RWY10 28009KT= 
SPZO 011800Z VRB05KT 9999 SCT050 20/M03 Q1030 NOSIG RMK PP000 RWY10 30014G33KT= 
SPZO 011900Z 28015KT 250V350 9999 FEW043TCU SCT050 20/M03 Q1029 TEMPO VCRA RMK PP000 RW10 30022G41KT= 
SPZO 012000Z 28016KT 250V350 9999 BKN046 19/M06 Q1029 NOSIG RMK PP000 RWY10 28010G48KT RA CDTE NE-E= 
SPZO 012100Z 11009KT 070V170 9999 SCT046 15/02 Q1030 NOSIG RMK PP000 RWY10 13010KT -RA CDTE NE-E= 
SPZO 012200Z 12008KT 090V180 9999 -RA 13/M01 Q1031 BECMG FM2230 NSW RMK PP000 RWY10 07022G41KT= 
SPZO 012200Z 12008KT 090V180 9999 -RA 13/M01 Q1031 BECMG FM2230 NSW RMK PP000 RWY10 07022G41KT TMX:21.4= 
SPZO 012300Z VRB04KT 9999 BKN043 12/01 Q1031 NOSIG RMK PPTRZ RWY10 07006KT= 
SPZO 020000Z 07006KT 360V100 9999 BKN040 12/02 Q1032 RMK PP000= 
SPZO 020100Z 19002KT 9999 SCT040 11/02 Q1033 RMK PP000= 
SPZO 020200Z 08004KT 360V100 9999 SCT040 08/02 Q1034 RMK PP000= 
SPZO 020300Z 28002KT 9999 SCT040 06/01 Q1035 RMK PP000= 
SPZO 020400Z 26002KT 9999 SCT040 06/01 Q1035 RMK PP000= 
SPZO 020500Z 28002KT 9999 SCT040 04/01 Q1035 RMK PP000= 
SPZO 020600Z 10002KT 9999 SCT040 04/01 Q1035 RMK PP000= 
SPZO 020700Z 00000KT 9999 SCT040 04/01 Q1034 RMK PP000= 
SPZO 020800Z 00000KT 9999 SCT040 04/01 Q1034 RMK PP000= 
SPZO 020900Z 00000KT 9999 SCT040 02/M00 Q1034 RMK PP000= 
SPZO 021000Z 00000KT 9999 SCT040 02/00 Q1034 RMK PP000= 
SPZO 021100Z 00000KT 9999 FEW040 02/00 Q1035 RMK PP000= 
SPZO 021200Z VRB02KT 9999 FEW070 04/01 Q1036 NOSIG RMK PP000= 
SPZO 021300Z 00000KT 9999 FEW043 09/02 Q1037 NOSIG RMK PP000= 
SPZO 021400Z VRB02KT 9999 FEW043 12/02 Q1037 NOSIG RMK PP000= 
SPZO 021500Z VRB03KT 9999 SCT050 14/01 Q1036 NOSIG RMK PP000 RWY10 17007KT= 
SPZO 021506Z VRB02KT 9999 FEW050 15/01 Q1036 NOSIG RMK HAZARD BIRD OVER RWY= 
SPZO 021506Z VRB02KT 9999 FEW050 15/01 Q1036 NOSIG RMK HAZARD BIRD OVER RWY= 
SPZO 021600Z VRB04KT 9999 SCT050 17/00 Q1035 NOSIG RMK PP000 VRB06KT= 
SPZO 021700Z VRB03KT 9999 SCT050 18/M01 Q1034 NOSIG RMK PP000 03011KT= 
SPZO 021800Z 28008KT 9999 SCT050 18/M03 Q1032 NOSIG RMK PP000 RWY10 30012G25KT= 
SPZO 021900Z 25008KT 180V330 9999 SCT050 20/M03 Q1031 NOSIG RMK PP000 RWY10 21008KT= 
SPZO 022000Z 27014KT 250V350 9999 FEW040 BKN046 18/M05 Q1030 TEMPO VCRA RMK PP000 RWY10 27023KT= 
SPZO 022100Z VRB03KT 9999 FEW040 BKN046 17/M02 Q1031 NOSIG RMK PP000 RWY10 29015G25KT RA CDTE NE-E= 
SPZO 022200Z 11014KT 080V170 9999 SCT043 13/03 Q1032 NOSIG RMK PP000 RWY10 11024G33KT TMX:21.0= 
SPZO 022300Z 10007KT 070V170 9999 SCT043 11/03 Q1032 NOSIG RMK PP000 RWY10 08012KT= 
SPZO 030000Z 10004KT 9999 FEW040 09/03 Q1033 RMK PP002= 
SPZO 030100Z VRB02KT 9999 SKC 08/03 Q1034 RMK PP000= 
SPZO 030200Z 00000KT 9999 SKC 07/02 Q1034 RMK PP000= 
SPZO 030300Z 00000KT 9999 SKC 06/02 Q1035 RMK PP000= 
SPZO 030400Z 00000KT 9999 SKC 06/02 Q1035 RMK PP000= 
SPZO 030500Z 00000KT 9999 SKC 05/01 Q1035 RMK PP000= 
SPZO 030600Z 00000KT 9999 SKC 04/01 Q1035 RMK PP000= 
SPZO 030700Z 00000KT 9999 SKC 03/00 Q1034 RMK PP000= 
SPZO 030800Z 00000KT 9999 SKC 03/00 Q1034 RMK PP000= 
SPZO 030900Z 00000KT 9999 SKC 02/M00 Q1034 RMK PP000= 
SPZO 031000Z VRB02KT 9999 FEW040 SCT050 04/01 Q1035 RMK PP000= 
SPZO 031035Z 00000KT 9999 SCT040 SCT050 04/01 Q1035= 
SPZO 031035Z 00000KT 9999 SCT040 SCT050 04/01 Q1035= 
SPZO 031100Z VRB01KT 9000 SCT040 SCT050 03/01 Q1036 RMK PP000= 
SPZO 031200Z VRB02KT 9000 BKN043 06/02 Q1036 NOSIG RMK PP000= 
SPZO 031300Z 00000KT 9999 BKN046 08/02 Q1037 NOSIG RMK PP000= 
SPZO 031330Z VRB02KT 9999 SCT040 11/01 Q1037 RMK HAZARD BIRD OVER RWY= 
SPZO 031400Z VRB02KT 9999 SCT040 12/01 Q1037 NOSIG RMK PP000= 
SPZO 031500Z VRB05KT 9999 SCT050 14/M01 Q1036 NOSIG RMK PP000 RWY10 16005KT= 
SPZO 031600Z VRB04KT 9999 SCT060 16/M01 Q1035 NOSIG RMK PP000 RWY10 14007KT= 
SPZO 031700Z 05006KT 340V110 9999 SCT060 18/M01 Q1033 NOSIG RMK PP000 RWY10 30010KT 200V090= 
SPZO 031800Z VRB06KT 9999 SCT060 19/M05 Q1032 NOSIG RMK PP000 RWY10 27017KT= 
SPZO 031900Z VRB005KT 9999 SCT050 21/M05 Q1030 NOSIG RMK PP000 RWY10 30015G26KT= 
SPZO 031900Z VRB005KT 9999 SCT050 21/M05 Q1030 NOSIG RMK PP000 RWY10 30015G26KT= 
SPZO 031900Z VRB05KT 9999 SCT050 21/M05 Q1030 NOSIG RMK PP000 RWY10 30015G26KT= 
SPZO 032000Z 25011KT 180V290 9999 BKN046 18/M03 Q1029 NOSIG RMK PP000 RWY10 26021G31KT= 
SPZO 032100Z VRB08KT 9999 BKN046 19/M03 Q1030 NOSIG RMK PP000 RWY10 26016G28KT RA CDTE E= 
SPZO 032200Z 11014KT 090V170 9999 SCT050 16/01 Q1030 NOSIG RMK PP000 RWY10 09010KT= 
SPZO 032200Z 11014KT 090V170 9999 SCT050 16/01 Q1030 NOSIG RMK PP000 RWY10 09010KT TMX:21.6= 
SPZO 032300Z 10011KT 9999 FEW046 13/03 Q1031 NOSIG RMK PP000 RWY10 10017KT= 
SPZO 040000Z 10008KT 9999 FEW050 11/03 Q1031 RMK PP000= 
SPZO 040100Z VRB01KT 9999 FEW050 11/03 Q1033 RMK PP000= 
SPZO 040200Z 00000KT 9999 FEW050 10/03 Q1034 RMK PP000= 
SPZO 040300Z VRB03KT 9999 FEW050 08/03 Q1035 RMK PP000= 
SPZO 040400Z 00000KT 9999 SKC 07/02 Q1035 RMK PP000= 
SPZO 040500Z 00000KT 9999 SKC 06/02 Q1035 RMK PP000= 
SPZO 040600Z 00000KT 9999 SKC 06/02 Q1034 RMK PP000= 
SPZO 040700Z 00000KT 9999 FEW040 06/02 Q1034 RMK PP000= 
SPZO 040800Z 00000KT 9999 FEW040 05/02 Q1033 RMK PP000= 
SPZO 040900Z 00000KT 9999 FEW040 04/01 Q1033 RMK PP000= 
SPZO 041000Z VRB02KT 9999 FEW040 SCT050 03/01 Q1034 RMK PP000= 
SPZO 041100Z 00000KT 9000 FEW040 SCT050 04/01 Q1034 RMK PP000= 
SPZO 041200Z 10002KT 8000E SCT040 SCT046 05/02 Q1035 BECMG FM14 9999 RMK PP000= 
SPZO 041300Z 09002KT 9999 FEW040 SCT050 08/03 Q1036 NOSIG RMK PP000 RWY10 11006KT= 
SPZO 041400Z VRB02KT 9999 FEW040 SCT050 11/03 Q1036 NOSIG RMK PP000 RWY10 10008KT= 
SPZO 041500Z VRB03KT 9999 SCT050 15/02 Q1035 NOSIG RMK PP000 RWY10 05005KT= 
SPZO 041600Z VRB04KT 9999 BKN050 17/00 Q1034 NOSIG RMK PP000 RWY10 02008KT 250V090= 
SPZO 041700Z VRB05KT 9999 BKN060 17/M01 Q1033 NOSIG RMK PP000 RWY10 36007KT= 
SPZO 041800Z VRB05KT 9999 FEW043 SCT060 17/M02 Q1031 NOSIG RMK PP000 RWY10 26006KT= 
SPZO 041900Z VRB05KT 9999 BKN060 19/M01 Q1030 NOSIG RMK PP000 RWY10 34011G22KT= 
SPZO 042000Z 01012KT 340V080 9999 SCT050 18/00 Q1030 NOSIG RMK PP000 RWY10 02018G36KT 300V150= 
SPZO 042100Z 36013KT 9999 SCT050 16/01 Q1029 NOSIG RMK PP000 RWY10 02017G29KT= 
SPZO 042200Z 01008KT 9999 FEW060 16/M00 Q1029 NOSIG RMK PP000 RWY10 03012KT TMX:19.6= 
SPZO 042300Z 01006KT 340V080 9999 FEW050 15/00 Q1030 NOSIG RMK PP000 RWY10 01009KT= 
SPZO 050000Z 15004KT 190V280 9999 FEW040 11/01 Q1031 RMK PP000= 
SPZO 050100Z 01005KT 340V080 9999 BKN040 12/02 Q1032 RMK PP000= 
SPZO 050200Z VRB03KT 9999 SCT040 10/02 Q1033 RMK PP000= 
SPZO 050300Z 00000KT 9999 SCT040 09/02 Q1034 RMK PP000= 
SPZO 050400Z 00000KT 9999 SCT040 07/02 Q1034 RMK PP000= 
SPZO 050500Z 00000KT 9999 SCT040 05/01 Q1033 RMK PP000= 
SPZO 050600Z 00000KT 9999 SCT040 05/01 Q1033 RMK PP000= 
SPZO 050700Z 00000KT 9999 SCT040 06/02 Q1033 RMK PP000= 
SPZO 050800Z 00000KT 9999 SCT040 07/02 Q1033 RMK PP000= 
SPZO 050900Z 00000KT 9999 BKN040 07/02 Q1033 RMK PP000= 
SPZO 051000Z 00000KT 9999 BKN040 08/02 Q1033 RMK PP000= 
SPZO 051100Z 00000KT 8000 OVC040 07/02 Q1033 RMK BR PP000= 
SPZO 051115Z 08001KT 9000E BKN046 07/03 Q1034= 
SPZO 051200Z 00000KT 9000E FEW040 BKN050 08/03 Q1034 NOSIG RMK PP000= 
SPZO 051300Z 00000KT 8000E FEW040 BKN050 11/M03 Q1035 NOSIG RMK PP000= 
SPZO 051400Z VRB02KT 9999 FEW040 BKN050 12/03 Q1035 NOSIG RMK PP000= 
SPZO 051500Z VRB03KT 9999 FEW040 BKN046 13/02 Q1035 NOSIG RMK PP000= 
SPZO 051600Z VRB03KT 9999 FEW040 SCT050 14/02 Q1034 NOSIG RMK PP000 RWY10 13010KT= 
SPZO 051700Z 27008KT 250V350 9999 BKN050 15/02 Q1034 NOSIG RMK PP000= 
SPZO 051800Z 27010KT 250V350 9999 BKN050 17/M01 Q1032 NOSIG RMK PP000 RWY10 28018G29KT= 
SPZO 051900Z VRB06KT 9999 BKN050 17/M01 Q1031 NOSIG RMK PP000 RWY10 25014KT= 
SPZO 052000Z 28013KT 260V350 9999 BKN050 17/M00 Q1030 NOSIG RMK PP000 RWY10 30019KT= 
SPZO 052100Z 29013KT 260V350 9999 BKN060 18/00 Q1029 NOSIG RMK PP000 RWY10 30020G31KT= 
SPZO 052200Z 29011KT 250V350 9999 FEW060 16/M00 Q1029 NOSIG RMK PP000 RWY10 30016G26KT TMX:18.9= 
SPZO 052300Z 27008KT 9999 SKC 13/M00 Q1029 NOSIG RMK PP000 RWY10 28012KT= 
SPZO 060000Z 29007KT 250V350 9999 SKC 12/02 Q1030 RMK PP000= 
SPZO 060100Z 27008KT 9999 SKC 10/02 Q1031 RMK PP000= 
SPZO 060200Z 34002KT 9999 SKC 10/01 Q1032 RMK PP000= 
SPZO 060300Z 28003KT 9999 SKC 07/01 Q1032 RMK PP000= 
SPZO 060400Z 00000KT 9999 SKC 07/01 Q1033 RMK PP000= 
SPZO 060500Z 00000KT 9999 SKC 05/00 Q1033 RMK PP000= 
SPZO 060600Z 00000KT 9999 SKC 05/00 Q1033 RMK PP000= 
SPZO 060700Z 00000KT 9999 SKC 04/01 Q1033 RMK PP000= 
SPZO 060800Z 00000KT 9999 SKC 04/01 Q1032 RMK PP000= 
SPZO 060900Z 00000KT 9999 SKC 04/01 Q1032 RMK PP000= 
SPZO 061000Z 00000KT 9999 SKC 03/00 Q1032 RMK PP000= 
SPZO 061100Z 00000KT 9999 SKC 02/M01 Q1033 RMK PP000= 
SPZO 061200Z 00000KT 9000E SCT050 06/02 Q1034 NOSIG RMK PP000= 
SPZO 061300Z VRB01KT 9999 SCT050 11/03 Q1035 NOSIG RMK PP000= 
SPZO 061400Z VRB03KT 9999 SCT060 13/02 Q1035 NOSIG RMK PP000 RWY10 31005KT= 
SPZO 061500Z VRB03KT 9999 SCT060 15/00 Q1034 NOSIG RMK PP000 RWY10 02008KT= 
SPZO 061600Z VRB04KT 9999 SCT060 18/01 Q1033 NOSIG RMK PP000= 
SPZO 061700Z VRB04KT 9999 BKN050 17/M00 Q1032 NOSIG RMK PP000 RWY10 01008KT= 
SPZO 061800Z 31011KT 270V360 9999 SCT043 SCT050 17/00 Q1031 NOSIG RMK PP000 RWY10 28017G27KT= 
SPZO 061900Z 26010KT 9999 SCT043 SCT050 18/00 Q1029 NOSIG RMK PP000 RWY10 30018G31KT= 
SPZO 062000Z 34007KT 250V070 9999 FEW043 SCT050 19/M00 Q1028 TEMPO VCRA RMK PP000 RWY10 29022G33KT= 
SPZO 062100Z 30010KT 250V340 9999 BKN050 17/01 Q1028 NOSIG RMK PP000 RWY10 30021G35= 
SPZO 062100Z 30010KT 250V340 9999 BKN050 17/01 Q1028 NOSIG RMK PP000 RWY10 30021G35KT= 
SPZO 062200Z 32012KT 270V350 9999 FEW050 16/01 Q1028 NOSIG RMK PP000 RWY10 29017KT TMX:19.2= 
SPZO 062300Z 32005KT 260V010 9999 FEW050 14/01 Q1028 NOSIG RMK PP000 RWY10 31009KT= 
SPZO 070000Z 26007KT 9999 SKC 12/01 Q1029 RMK PP000= 
SPZO 070100Z 27007KT 9999 SKC 10/02 Q1030 RMK PP000= 
SPZO 070200Z 28006KT 9999 SKC 09/02 Q1031 RMK PP000= 
SPZO 070200Z 28006KT 9999 SKC 09/02 Q1031 RMK PP000= 
SPZO 070300Z 28007KT 9999 SKC 09/02 Q1032 RMK PP000= 
SPZO 070400Z VRB03KT 9999 SKC 08/02 Q1032 RMK PP000= 
SPZO 070500Z 00000KT 9999 SCT040 08/02 Q1032 RMK PP000= 
SPZO 070600Z 00000KT 9999 SKC 09/02 Q1031 RMK PP000= 
SPZO 070700Z 00000KT 9999 SKC 07/02 Q1031 RMK PP000= 
SPZO 070800Z 00000KT 9999 SCT040 09/03 Q1031 RMK PP000= 
SPZO 070900Z VRB03KT 9999 FEW040 SCT050 08/03 Q1030 RMK PP000= 
SPZO 071000Z VRB02KT 9999 FEW040 SCT050 06/02 Q1030 RMK PP000= 
SPZO 071100Z VRB01KT 9000 SKC 05/01 Q1031 RMK PP000= 
SPZO 071133Z 00000KT 8000E FEW047 05/01 Q1032 RMK HZ= 
SPZO 071200Z 00000KT 8000E FEW047 07/03 Q1032 TEMPO 9000E RMK HZ PP000= 
SPZO 071300Z VRB01KT 9000E FEW043 12/03 Q1033 BECMG 9999 RMK HZ PP000= 
SPZO 071400Z VRB03KT 9999 SCT043 14/02 Q1033 NOSIG RMK BIRDS HAZARD RWY 28 PP000= 
SPZO 071500Z 30004KT 250V0250 9999 FEW040 SCT047 17/M01 Q1032 NOSIG RMK PP000= 
SPZO 071500Z 30004KT 250V020 9999 FEW040 SCT047 17/M01 Q1032 NOSIG RMK PP000= 
SPZO 071600Z VRB03KT 9999 FEW040 SCT047 19/M03 Q1031 NOSIG RMK PP000= 
SPZO 071700Z 32012KT 270V020 9999 FEW040 SCT047 19/M04 Q1030 NOSIG RMK RWY10 33016G31KT 250V030 PP000= 
SPZO 071800Z 28013KT 250V350 9999 FEW040 SCT047 20/M03 Q1028 NOSIG RMK RWY10 30019G32KT 240V030 PP000= 
SPZO 071900Z 30010KT 250V360 9999 FEW040 SCT047 21/M05 Q1026 NOSIG RMK RWY10 30017G30KT 240V030 PP000= 
SPZO 072000Z 27008KT 250V350 9999 VCSH FEW043TCU BKN047 18/M03 Q1026 NOSIG RMK RWY10 VRB13KT PP000= 
SPZO 072100Z 29017KT 270V350 9999 FEW040 SCT043 20/M08 Q1025 NOSIG RMK 30023G40KT 250V350 PP000= 
SPZO 072300Z 28010KT 9999 FEW043 14/M02 Q1026 NOSIG RMK PP000= 
SPZO 080000Z 26007KT 9999 SKC 13/M01 Q1028 RMK PP000= 
SPZO 080000Z 26007KT 9999 SKC 13/M01 Q1028 RMK PP000= 
SPZO 080100Z 00000KT 9999 SKC 11/M01 Q1029 RMK PP000= 
SPZO 080100Z 00000KT 9999 SKC 11/M01 Q1029 RMK PP000= 
SPZO 080100Z 00000KT 9999 SKC 11/M01 Q1029 RMK PP000= 
SPZO 080200Z 00000KT 9999 SKC 10/M01 Q1030 RMK PP000= 
SPZO 080300Z 00000KT 9999 SKC 07/M01 Q1031 RMK PP000= 
SPZO 080400Z 00000KT 9999 SKC 07/M01 Q1031 RMK PP000= 
SPZO 080500Z 00000KT 9999 SKC 05/M01 Q1031 RMK PP000= 
SPZO 080600Z 00000KT 9999 SKC 05/M01 Q1031 RMK PP000= 
SPZO 080700Z 00000KT 9999 SKC 04/M01 Q1030 RMK PP000= 
SPZO 080800Z 00000KT 9999 SKC 04/M01 Q1030 RMK PP000= 
SPZO 080900Z VRB03KT 9999 SKC 02/M02 Q11030 RMK PP000= 
SPZO 081000Z VRB02KT 9999 SKC 02/M01 Q1031 RMK PP000= 
SPZO 081100Z 00000KT 9999 SKC 02/M01 Q1032 RMK PP000= 
SPZO 081121Z 00000KT 8000E SKC 02/M01 Q1032 RMK HZ= 
SPZO 081200Z 00000KT 8000E FEW043 05/00 Q1033 TEMPO 9000E RMK HZ PP000= 
SPZO 081300Z 00000KT 9000E FEW043 10/00 Q1033 BECMG 9999 RMK HZ PP000= 
SPZO 081400Z VRB02KT 9999 FEW043 12/M02 Q1033 NOSIG RMK PP000= 
SPZO 081500Z VRB03KT 9999 FEW043 15/M03 Q1033 NOSIG RMK PP000= 
SPZO 081600Z 21005KT 100V270 9999 FEW043 17/M08 Q1031 NOSIG RMK PP000= 
SPZO 081700Z VRB06KT 9999 FEW043 18/M10 Q1029 NOSIG RWY10 26016G28KT 200V330 RMK PP000= 
SPZO 081700Z VRB06KT 9999 FEW043 18/M10 Q1029 NOSIG RMK RWY10 26016G28KT 200V330 PP000= 
SPZO 081800Z VRB08KT 9999 FEW043 21/M09 Q1028 NOSIG RMK RWY10 01008KT 330V060 PP000= 
SPZO 081900Z VRB07KT 9999 FEW043 21/M08 Q1026 NOSIG RMK RWY10 VRB15KT PP000= 
SPZO 082000Z 29010KT 270V350 9999 FEW043 21/M10 Q1025 NOSIG RMK RWY10 33019G40KT 250V050 PP000= 
SPZO 082100Z 30012KT 270V350 9999 FEW043 21/M11 Q1024 NOSIG RMK RWY10 31020G33KT 270V020 PP000= 
SPZO 082200Z 30011KT 260V350 9999 FEW043 19/M10 Q1025 NOSIG RMK RWY10 30018G29KT 250V020 PP000 TMAX 22 
SPZO 082300Z 28010KT 270V350 9999 SKC 17/M09 Q1025 NOSIG RMK PP000= 
SPZO 090000Z VRB03KT 9999 SKC 14/M04 Q1027 RMK PP000= 
SPZO 090100Z 28005KT 250V350 9999 SKC 11/00 Q1028 RMK PP000= 
SPZO 090200Z VRB02KT 9999 SKC 11/02 Q1029 RMK PP000= 
SPZO 090300Z 00000KT 9999 SKC 10/02 Q1030 RMK PP000= 
SPZO 090400Z 00000KT 9999 SKC 08/01 Q1031 RMK PP000= 
SPZO 090500Z 00000KT 9999 SKC 07/01 Q1031 RMK PP000= 
SPZO 090600Z 00000KT 9999 SKC 06/01 Q1030 RMK PP000= 
SPZO 090700Z 00000KT 9999 SKC 06/01 Q1030 RMK PP000= 
SPZO 090800Z 00000KT 9999 SKC 05/01 Q1030 RMK PP000= 
SPZO 090900Z 00000KT 9999 SKC 04/00 Q1030 RMK PP000= 
SPZO 091000Z 00000KT 9999 SKC 04/00 Q1030 RMK PP000= 
SPZO 091100Z 00000KT 9999 SKC 03/00 Q1031 RMK PP000= 
SPZO 091116Z 00000KT 9000E SCT300 03/00 Q1032 RMK HZ= 
SPZO 091200Z 00000KT 8000E FEW030 SCT300 06/02 Q1032 TEMPO 9000E RMK HZ PP000= 
SPZO 091300Z VRB01KT 9000E FEW043 BKN300 09/02 Q1033 BECMG 9999 RMK HZ PP000= 
SPZO 091400Z VRB03KT 9999 SCT043 SCT300 13/03 Q1033 NOSIG RMK PP000= 
SPZO 091500Z VRB03KT 9999 SCT043 SCT300 15/M00 Q1033 NOSIG RMK PP000= 
SPZO 091600Z VRB05KT 9999 SCT043 18/M01 Q1031 NOSIG RMK RWY10 27018G34KT 190V330 PP000= 
SPZO 091700Z 29011KT 230V340 9999 FEW040 SCT043 19/M04 Q1030 NOSIG RMK RWY10 VRB15KT PP000= 
SPZO 091800Z 29008KT 220V350 9999 FEW040 SCT043 20/M03 Q1028 NOSIG RMK RWY10 32017G29KT 240V040 PP000= 
SPZO 091900Z 29008KT 230V350 9999 FEW040 SCT043 BKN300 20/M03 Q1026 NOSIG RMK RWY10 29010G22KT 210V360 PP000= 
SPZO 092000Z 30009KT 230V360 9999 FEW040 SCT043 BKN300 21/M03 Q1025 NOSIG RMK RWY10 26020G31KT 180V300 PP000= 
SPZO 092100Z 30011KT 260V340 9999 SCT043 BKN300 20/M05 Q1025 NOSIG RMK PP000= 
SPZO 092200Z 35007KT 300V060 9999 SCT043 BKN300 18/M00 Q1025 NOSIG RMK PP000 TMAX 21.2= 
SPZO 092300Z 02007KT 340V080 9999 FEW043 BKN300 15/03 Q1026 NOSIG RMK PP000= 
SPZO 100000Z VRB02KT 9999 SCT040 14/03 Q1028 RMK PP000= 
SPZO 100100Z VRB03KT 9999 SCT040 13/04 Q1029 RMK PP000= 
SPZO 100200Z 09005KT 070V170 9999 SCT040 11/04 Q1030 RMK PP000= 
SPZO 100300Z 00000KT 9999 SCT040 11/04 Q1031 RMK PP000= 
SPZO 100400Z 00000KT 9999 SCT040 09/03 Q1031 RMK PP000= 
SPZO 100500Z 00000KT 9999 SCT040 09/03 Q1031 RMK PP000= 
SPZO 100600Z 00000KT 9999 SCT040 08/03 Q1030 RMK PP000= 
SPZO 100700Z 00000KT 9999 SCT050 07/03 Q1030 RMK PP000= 
SPZO 100800Z 00000KT 9999 SCT050 06/02 Q1030 RMK PP000= 
SPZO 100900Z 00000KT 9999 BKN050 07/02 Q1030 RMK PP000= 
SPZO 101000Z 00000KT 9999 BKN050 08/03 Q1030 RMK PP000= 
SPZO 101100Z 00000KT 9999 OVC040 09/03 Q1030 RMK PP000= 
SPZO 101123Z 08005KT 9000E FEW033 SCT040 BKN053 08/04 Q1031 RMK HZ= 
SPZO 101123Z 08005KT 9000E FEW033 SCT040 BKN053 08/04 Q1031 RMK HZ= 
SPZO 101123Z 08005KT 9000E FEW033 SCT040 BKN053 08/04 Q1031 RMK HZ= 
SPZO 101200Z VRB02KT 9999 FEW033 SCT040 BKN060 09/04 Q1031 TEMPO BKN080 PP000= 
SPZO 101200Z VRB02KT 9999 FEW033 SCT040 BKN060 09/04 Q1031 TEMPO BKN080 RMK BIRDS HAZARD RWY 10/28 PP000= 
SPZO 101300Z VRB02KT 9999 SCT040 BKN060 11/03 Q1032 NOSIG RMK PP000= 
SPZO 101400Z 00000KT 9999 SCT040 BKN060 11/03 Q1033 NOSIG RMK PP000= 
SPZO 101500Z 00000KT 9999 VCSH FEW030 SCT040 BKN050 13/03 Q1032 NOSIG RMK PP000= 
SPZO 101600Z VRB03KT 9999 VCSH FEW030 SCT040 BKN050 13/03 Q1031 NOSIG RMK PP000= 
SPZO 101634Z VRB04KT 9999 -RA FEW030 SCT040 BKN050 14/03 Q1031= 
SPZO 101634Z VRB04KT 9999 -RA FEW030 SCT040 BKN050 14/03 Q1031= 
SPZO 101700Z 30010KT 250V360 8000E -RA VCSH FEW030 SCT040 BKN043 12/06 Q1031 BECMG FM1730 9999 NSW RMK PPTRZ= 
SPZO 101730Z 14004KT 090V250 9999 VCSH FEW033 SCT040 BKN047 11/05 Q1030 RERA= 
SPZO 101800Z 13004KT 090V200 9999 SCT040 SCT043 13/06 Q1030 NOSIG RMK PP002= 
SPZO 101900Z VRB04KT 9999 SCT040 SCT047 16/05 Q1028 NOSIG RMK PP000= 
SPZO 102000Z 08005KT 360V150 9999 FEW040 BKN043 16/04 Q1027 NOSIG RMK TCU DISTANTE AL SSW PP000= 
SPZO 102100Z 28014KT 250V350 9999 SCT040 SCT043 17/03 Q1027 NOSIG RMK RWY10 29020KT 260V340 PP000= 
SPZO 102200Z 29013KT 250V320 9999 SCT040 SCT043TCU 17/02 Q1028 NOSIG RMK RWY10 30019G32KT 230V030 PP000 TMAX 17.7= 
SPZO 102300Z 30009KT 270V350 9999 BKN043 14/04 Q1028 NOSIG 
SPZO 110000Z VRB02KT 9999 SCT040 12/03 Q1029 RMK PP000= 
SPZO 110100Z VRB02KT 9999 FEW040 SCT080 11/04 Q1030 RMK PP000= 
SPZO 110200Z 27007KT 9999 SCT040 SCT060 11/04 Q1032 RMK PP000= S 
SPZO 110300Z 24005KT 9999 FEW040 SCT050 10/04 Q1032 RMK PP000= 
SPZO 110400Z VRB03KT 9999 FEW040 SCT060 10/04 Q1032 RMK PP000= 
SPZO 110500Z VRB03KT 9999 SCT060 10/04 Q1032 RMK PP000= 
SPZO 110600Z 00000KT 9999 SCT040 10/04 Q1031 RMK PP000= 
SPZO 110700Z 00000KT 9999 FEW040 SCT050 10/05 Q1030 RMK PP000= 
SPZO 110800Z VRB03KT 9999 SCT040 SCT050 09/04 Q1030 RMK PP000= 
SPZO 110900Z 00000KT 9999 SCT040 SCT050 09/05 Q1030 RMK PP000= 
SPZO 111000Z 00000KT 9999 BKN040 SCT050 09/05 Q1030 RMK PP000= 
SPZO 111100Z VRB01KT 9999 VCRA BKN040 SCT050 09/05 Q1031 RMK PP000= 
SPZO 111115Z 00000KT 8000E -DZ VCSH SCT037 BKN043 09/05 Q1031= 
SPZO 111200Z 00000KT 9999 -RA FEW030 SCT037 BKN053 09/04 Q1032 TEMPO 9000E RMK PPTRZ= 
SPZO 111232Z VRB01KT 9999 FEW033 SCT037 BKN060 10/05 Q1032 RMK BIRDS HAZARD RWY 10/28= 
SPZO 111300Z 00000KT 9999 SCT033 SCT043 BKN060 11/05 Q1032 NOSIG RMK PPTRZ= 
SPZO 111332Z VRB03KT 9999 VCSH SCT033 SCT040 BKN053 11/04 Q1032 RMK BIRDS HAZARD RWY 10/28= 
SPZO 111340Z VRB03KT 9999 -RA SCT033 BKN043 11/0 RMK BIRDS HAZARD RWY 10/28= 
SPZO 111400Z VRB02KT 9999 SCT033 BKN043 11/05 Q1032 RERA TEMPO VCSH RMK PPTRZ= 
SPZO 111436Z VRB05KT 9999 FEW033 SCT040 BKN060 13/04 Q1032= 
SPZO 111500Z VRB03KT 9999 FEW033 BKN043 BKN060 14/04 Q1032 NOSIG RMK PP000= 
SPZO 111540Z VRB03KT 9999 VCSH SCT037TCU SCT043 B Q1031= 
SPZO 111600Z 00000KT 9999 -RA VCSH FEW030 SCT040TCU BKN043 13/04 Q1031 NOSIG RMK PP000= 
SPZO 111624Z VRB01KT 9999 FEW033 SCT043TCU BKN053 13/05 Q1031 RMK SH DISTANTE AL E= 
SPZO 111700Z VRB04KT 9999 VCSH FEW030 SCT043TCU BKN060 15/04 Q1030 NOSIG RMK PPTRZ= 
SPZO 111800Z 15006KT 070V190 9999 FEW033 SCT043 BKN060 15/04 Q1029 RESHRA NOSIG RMK PP002= 
SPZO 111900Z 10008KT 080V170 9999 FEW033 BKN043 15/05 Q1028 NOSIG RA DISTANTE AL E PP000= 
SPZO 111900Z 10008KT 080V170 9999 FEW033 BKN043 15/05 Q1028 NOSIG RMK RA DISTANTE AL E PP000= 
SPZO 112000Z 10011KT 070V170 9999 FEW040 BKN043 15/05 Q1027 TEMPO VCSH RMK PP000= 
SPZO 112100Z 10011KT 9999 FEW040 SCT043TCU 15/05 Q1026 NOSIG RKM PP000= 
SPZO 112100Z 10011KT 9999 FEW040 SCT043TCU 15/05 Q1026 NOSIG RKM PP000= 
SPZO 112200Z 09011KT 9999 FEW040 SCT043 15/05 Q1027 NOSIG RMK PP000 TMAX 16.5= 
SPZO 112300Z 28012KT 250V350 9999 FEW040 SCT043 13/02 Q1028 NOSIG RMK PP000= 
SPZO 120000Z 30005KT 9999 FEW040 SCT050 11/02 Q1029 RMK PP000= 
SPZO 120100Z 12008KT 9999 FEW040 11/04 Q1030 RMK PP000= 
SPZO 120200Z VRB01KT 9999 SCT060 09/03 Q1031 RMK PP000= 
SPZO 120300Z 09004KT 9999 SCT050 09/03 Q1032 RMK PP000= 
SPZO 120400Z 00000KT 9999 FEW040 SCT050 09/04 Q1033 RMK PP000= 
SPZO 120500Z 00000KT 9999 SCT040 09/03 Q1033 RMK PP000= 
SPZO 120600Z 00000KT 9999 SCT040 SCT050 08/03 Q1032 RMK PP000= 
SPZO 120700Z 00000KT 9999 SCT040 SCT050 08/02 Q1032 RMK PP000= 
SPZO 120800Z 00000KT 9999 SCT040 SCT050 07/02 Q1032 RMK PP000= 
SPZO 120900Z 27004KT 9999 SCT040 SCT060 08/02 Q1032 RMK PP000= 
SPZO 121000Z VRB02KT 9999 SCT040 SCT050 08/02 Q1033 RMK PP000= 
SPZO 121100Z VRB02KT 9999 VCSH BKN040 SCT060 07/02 Q1033 RMK PP000= 
SPZO 121142Z 00000KT 9999 FEW030 SCT040 BKN060 08/02 Q1034= 
SPZO 121000Z VRB02KT 9999 SCT040 SCT050 08/02 Q1033 RMK PP000= 
SPZO 121100Z VRB02KT 9999 VCSH BKN040 SCT060 07/02 Q1033 RMK PP000= 
SPZO 121142Z 00000KT 9999 FEW030 SCT040 BKN060 08/02 Q1034= 
SPZO 121200Z VRB01KT 9000E FEW030 SCT043 BKN060 08/02 Q1034 BECMG 9999 RMK PP000= 
SPZO 121216Z VRB03KT 9999 FEW030 BKN043 BKN060 09/02 Q1034= 
SPZO 121300Z 00000KT 9999 SCT037 SCT043 BKN080 10/02 Q1034 NOSIG RMK PP000= 
SPZO 121400Z VRB01KT 9999 SCT033 BKN080 11/02 Q1035 NOSIG RMK BIRDS HAZARD RWY 10/28 PP000= 
SPZO 121424Z VRB02KT 9999 SCT040 BKN100 12/00 Q1035= 
SPZO 121500Z 03005KT 340V100 9999 SCT040 BKN080 14/M01 Q1035 NOSIG RMK PP000= 
SPZO 121600Z VRB05KT 9999 BKN043 16/M08 Q1033 NOSIG RMK PP000= 
SPZO 121700Z VRB03KT 9999 SCT043 BKN050 16/M01 Q1032 NOSIG RMK PP000= 
SPZO 121800Z VRB06KT 9999 VCSH SCT043TCU BKN050 17/M01 Q1031 NOSIG RMMK PP000= 
SPZO 121900Z 36008KT 320V050 9999 SCT043 SCT060 16/01 Q1030 
SPZO 122000Z 28016KT 250V330 9999 VCSH SCT043TCU SCT047 16/02 Q1029 NOSIG RMK 29024G37KT 230V330 PP000= 
SPZO 122000Z 28016KT 250V330 9999 VCSH SCT043TCU SCT047 16/02 Q1029 NOSIG RMK RWY10 29024G37KT 230V330 PP000= 
SPZO 122100Z VRB02KT 9999 SCT043 SCT060 15/02 Q1029 NOSIG RMK RWY10 30012KT 240V030 TCU DISTANTE AL E PP000= 
SPZO 122200Z 36008KT 9999 SCT043 SCT047TCU 13/03 Q1030 NOSIG RMK PP000 TMAX 16.8= 
SPZO 122300Z 34004KT 270V080 9999 SCT043 SCT060 12/03 Q1030 NOSIG RMK PP000= 
SPZO 130000Z VRB03KT 9999 BKN040 11/03 Q1031 RMK PP000= 
SPZO 130100Z 07005KT 360V100 9999 BKN040 10/03 Q1032 RMK PP000= 
SPZO 130200Z 00000KT 9999 BKN040 08/03 Q1033 RMK PP000= 
SPZO 130300Z 00000KT 9999 BKN040 08/03 Q1034 RMK PP000= 
SPZO 130400Z 28004KT 9999 BKN040 07/03 Q1034 RMK PP000= 
SPZO 130500Z 26003KT 9999 BKN040 08/03 Q1033 RMK PP000= 
SPZO 130600Z 13002KT 9999 OVC040 08/03 Q1033 RMK PP000= 
SPZO 130700Z 09002KT 9999 OVC040 07/03 Q1032 RMK PP000= 
SPZO 130800Z 10002KT 9999 OVC040 07/03 Q1032 RMK PP000= 
SPZO 130900Z 00000KT 9999 OVC040 07/03 Q1032 RMK PP000= 
SPZO 131000Z 00000KT 9999 OVC040 07/02 Q1033 RMK PP000= 
SPZO 131100Z 10002KT 8000 BKN040 SCT080 07/03 Q1034 RMK BR PP000= 
SPZO 131120Z 00000KT 8000E SCT037 BKN043 08/03 Q1034 RMK HZ= 
SPZO 131200Z 00000KT 8000E SCT033 BKN043 09/03 Q1035 TEMPO 9000E RMK HZ PP000= 
SPZO 131244Z VRB02KT 9999 SCT043 SCT060 12/04 Q1034= 
SPZO 131300Z 00000KT 9999 SCT043 12/03 Q1034 NOSIG RMK PP000= 
SPZO 131328Z VRB03KT 9999 SCT043 SCT080 13/03 Q1034= 
SPZO 131400Z VRB03KT 9999 SCT043 BKN080 13/03 Q1034 NOSIG RMK PP000= 
SPZO 131500Z VRB04KT 9999 SCT043 BKN060 15/02 Q1034 NOSIG RKM PP000= 
SPZO 131600Z VRB03KT 9999 -RA FEW040 SCT043TCU BKN047 13/04 Q1034 TEMPO NSW RMK PP000= 
SPZO 131641Z 15004KT 090V200 9999 -RA SCT043TCU SCT047 14/03 Q1033= 
SPZO 131700Z 32004KT 180V350 9999 -RA VCSH SCT043TCU SCT047 14/04 Q1033 TEMPO NSW RMK PP004= 
SPZO 131615Z 28004KT 180V350 9999 VCSH FEW033 SCT040 FEW043TCU 12/06 Q1034 RMK TCU AL E= 
SPZO 131641Z 15004KT 090V200 9999 -RA SCT043TCU SCT047 Q1033= 
SPZO 131641Z 15004KT 090V200 9999 -RA SCT043TCU SCT047 Q1033= 
SPZO 131700Z 32004KT 180V350 9999 -RA VCSH SCT043TCU SCT047 14/04 Q1033 TEMPO NSW RMK PP004= 
SPZO 131720Z VRB04KT 9999 VCSH SCT040 SCT043TCU 13/06 Q1033= 
SPZO 131720Z VRB04KT 9999 VCSH SCT040 SCT043TCU 13/06 Q1033= 
SPZO 131800Z VRB01KT 9999 -RA VCSH SCT040TCU SCT043 14/04 Q1032 TEMPO FM1820 NSW RMK PPTRZ= 
SPZO 131808Z VRB06KT 8000E -RA VCSH SCT040 SCT043TCU 12/06 Q1033 TEMPO 9999= 
SPZO 131808Z VRB06KT 8000E -RA VCSH SCT040 SCT043TCU 12/06 Q1033 TEMPO 9999= 
SPZO 131820Z 11005KT 070V140 9999 VCSH SCT040 SCT043TC Q1032= 
SPZO 131820Z 11005KT 070V140 9999 VCSH SCT040 SCT043TC Q1032= 
SPZO 131900Z 17006KT 090V260 9999 VCSH FEW040 SCT047TCU BKN060 13/04 Q1032 NOSIG RMK PP0 
SPZO 131900Z 17006KT 090V260 9999 VCSH FEW040 SCT047TCU BKN060 13/04 Q1032 NOSIG RMK PP004= 
SPZO 131927Z 21006KT 170V260 9000 RA BKN043TCU SCT050 13/04 Q1032= 
SPZO 131927Z 21006KT 170V260 9000 RA BKN043TCU SCT050 13/04 Q1032= 
SPZO 131948Z 21006KT 170V260 8000E RA SCT040 BKN050TCU 11/06 Q1032 TEMPO 7000= 
SPZO 131948Z 21006KT 170V260 8000E RA SCT040 BKN050TCU 11/06 Q1032 TEMPO 7000= 
SPZO 132000Z VRB02KT 7000E -RA VCSH SCT040 BKN050TCU 11/07 Q1032 TEMPO FM2015 9000 PP012= 
SPZO 132030Z 08005KT 8000E VCSH SCT043 SCT060 10/07 Q1032= 
SPZO 132030Z 08005KT 8000E VCSH SCT043 SCT060 10/07 Q1032= 
SPZO 132100Z 10006KT 070V180 9999 VCSH SCT043 SCT060 11/07 Q1032 NOSIG RMK PP006= 
SPZO 132200Z 09011KT 9999 SCT043 SCT060 10/06 Q1032 NOSIG RMK PP000 TMAX 16.3= 
SPZO 132300Z 10008KT 080V170 9999 BKN040 SCT043 09/05 Q1033 TEMPO RA PP000= 
SPZO 140000Z VRB03KT 9999 OVC040 09/05 Q1034 RMK PP000= 
SPZO 140100Z 08002KT 9999 OVC040 09/05 Q1034 RMK PP000= 
SPZO 140200Z 09002KT 9999 OVC040 08/04 Q1035 RMK PP000= 
SPZO 140300Z 10002KT 9999 BKN040 07/04 Q1035 RMK PP000= 
SPZO 140400Z 00000KT 9999 BKN040 06/04 Q1035 RMK PP000= 
SPZO 140500Z 00000KT 9999 BKN040 04/02 Q1035 RMK PP000= 
SPZO 140600Z 00000KT 9999 BKN040 04/02 Q1035 RMK PP000= 
SPZO 140700Z 00000KT 9999 BKN040 04/02 Q1034 RMK PP000= 
SPZO 140800Z 00000KT 9999 BKN040 04/02 Q1034 RMK PP000= 
SPZO 140900Z 00000KT 9999 BKN040 04/02 Q1034 RMK PP000= 
SPZO 141000Z 00000KT 9999 BKN040 04/02 Q1034 RMK PP000= 
SPZO 141100Z 00000KT 9999 BKN040 05/03 Q1035 RMK PP000= 
SPZO 141150Z VRB02KT 8000E FEW050 07/04 Q1035= 
SPZO 141150Z VRB02KT 8000E FEW050 07/04 Q1035= 
SPZO 141200Z VRB02KT 8000E FEW050 07/04 Q1035 TEMPO 9000E RMK HZ PP000= 
SPZO 141137Z VRB03KT 9999 FEW043 09/04 Q1036= 
SPZO 141137Z VRB03KT 9999 FEW043 09/04 Q1036= 
SPZO 141237Z VRB03KT 9999 FEW043 09/04 Q1036= 
SPZO 141237Z VRB03KT 9999 FEW043 09/04 Q1036= 
SPZO 141300Z VRB03KT 9999 FEW043 10/05 Q1036 NOSIG RMK PP000= 
SPZO 141318Z 00000KT 9999 FEW043 10/02 Q1036 RMK BIRDS HAZARD RWY 10/28= 
SPZO 141318Z 00000KT 9999 FEW043 10/02 Q1036 RMK BIRDS HAZARD RWY 10/28= 
SPZO 141400Z VRB03KT 9999 SCT043 12/03 Q1036 NOSIG RMK PP000= 
SPZO 141500Z VRB03KT 9999 FEW040 SCT043 14/01 Q1035 NOSIG RMK PP000= 
SPZO 141600Z VRB04KT 9999 FEW040 SCT043 16/M00 Q1034 NOSIG RMK PP000= 
SPZO 141607Z VRB04KT 9999 BKN043 15/M00 Q1033= 
SPZO 141607Z VRB04KT 9999 BKN043 15/M00 Q1033= 
SPZO 141700Z VRB05KT 9999 FEW040 BKN043 16/00 Q1032 NOSIG RMK PP000= 
SPZO 141800Z 21004KT 160V260 9999 SCT040 BKN047 16/00 Q1031 NOSIG RMK PP000= 
SPZO 141900Z VRB02KT 9999 SCT043 SCT060 18/00 Q1030 NOSIG RKM PP000= 
SPZO 142000Z VRB03KT 9999 VCSH SCT043TCU BKN047 17/00 Q1029 TEMPO -SHRA RMK PP000= 
SPZO 142006Z VRB08KT 9999 -SHRA SCT043TCU BKN047 16/02 Q1029= 
SPZO 142033Z VRB04KT 9999 SCT043 SCT060 16/06 Q1 
SPZO 142100Z VRB02KT 9999 SCT043 SCT060 17/02 Q1029 NOSIG RMK PP004= 
SPZO 142200Z 28009KT 250V350 9999 FEW040 SCT043 16/01 Q1029 NOSIG RMK PP000 TMAX 19.7= 
SPZO 142300Z 27010KT 9999 SCT043 13/02 Q1029 NOSIG RMK PP000= 
SPZO 150000Z 29005KT 9999 FEW050 12/02 Q1030 RMK PP000= 
SPZO 150100Z 02004KT 9999 FEW050 11/03 Q1030 RMK PP000= 
SPZO 150200Z VRB02KT 9999 FEW050 09/03 Q1031 RMK PP000= 
SPZO 150300Z VRB02KT 9999 FEW050 08/02 Q1032 RMK PP000= 
SPZO 150400Z 00000KT 9999 SKC 06/02 Q1032 RMK PP000= 
SPZO 150500Z 00000KT 9999 SKC 06/02 Q1032 RMK PP000= 
SPZO 150600Z 00000KT 9999 SKC 05/02 Q1032 RMK PP000= 
SPZO 150600Z 00000KT 9999 SKC 05/02 Q1032 RMK PP000= 
SPZO 150700Z 00000KT 9999 FEW040 04/01 Q1031 RMK PP000= 
SPZO 150800Z 00000KT 9999 FEW050 04/01 Q1031 RMK PP000= 
SPZO 150900Z 00000KT 9999 SCT080 04/01 Q1031 RMK PP000= 
SPZO 151000Z VRB02KT 9999 FEW040 SCT080 04/02 Q1031 RMK PP000= 
SPZO 151100Z 00000KT 9999 SKC 04/02 Q1032 RMK PP000= 
SPZO 151121Z VRB02KT 8000E FEW043 04/01 Q1032 RMK HZ= 
SPZO 151200Z VRB01KT 9000E FEW043 07/03 Q1032 BECMG 9999 RMK HZ PP000= 
SPZO 151300Z VRB01KT 9999 FEW043 10/03 Q1033 NOSIG RMK PP000= 
SPZO 151400Z VRB03KT 9999 FEW043 14/02 Q1033 NOSIG RMK PP000= 
SPZO 151500Z VRB04KT 9999 FEW043 16/00 Q1032 NOSIG RMK PP000= 
SPZO 151600Z VRB04KT 9999 SCT043 18/M02 Q1030 NOSIG RMK PP000= 
SPZO 151700Z 28009KT 180V350 9999 SCT043 20/M04 Q1029 NOSIG RMK RWY10 28020G30KT 240V330 PP000= 
SPZO 151800Z VRB10KT 9999 FEW040 SCT047 21/M03 Q1028 NOSIG RMK RWY10 26024G39KT 210V310 PP000= 
SPZO 151900Z 30012KT 250V360 9999 FEW040 SCT047 22/M06 Q1026 NOSIG RMK RWY10 28020G31KT 230V350 PP000= 
SPZO 152000Z 29014KT 250V330 9999 FEW040 FEW043TCU SCT047 20/M06 Q1025 NOSIG RMK RWY10 31023G36KT 270V070 PP000= 
SPZO 152100Z 29015KT 250V320 9999 FEW040 FEW043TCU SCT047 19/M08 Q1026 NOSIG RMK RWY10 32021G39KT 210V010 PP000= 
SPZO 152126Z 36005KT 270V050 9999 SCT043TCU SCT047 18 Q1026 RWY10 31017KT 240V030= 
SPZO 152200Z 12011KT 080V160 9999 SCT040 SCT043 16/02 Q1027 NOSIG RMK PP000 TMAX 22.6= 
SPZO 152300Z 08007KT 010V150 9999 FEW040 SCT047 14/03 Q1028 NOSIG RMK PP000= 
SPZO 152300Z 08007KT 010V150 9999 FEW040 SCT047 14/03 Q1028 NOSIG RMK PP000= 
SPZO 152300Z 08007KT 010V150 9999 FEW040 SCT047 14/03 Q1028 NOSIG RMK PP000= 
SPZO 160000Z 09005KT 9999 FEW050 12/04 Q1029 RMK PP000= 
SPZO 160000Z 09005KT 9999 FEW050 12/04 Q1029 RMK PP000= 
SPZO 160100Z 07005KT 9999 SKC 11/04 Q1030 RMK PP000= 
SPZO 160200Z 00000KT 9999 SKC 10/03 Q1031 RMK PP000= 
SPZO 160300Z 00000KT 9999 SKC 08/03 Q1031 RMK PP000= 
SPZO 160400Z 00000KT 9999 SKC 07/03 Q1032 RMK PP000= 
SPZO 160500Z 00000KT 9999 SKC 06/02 Q1032 RMK PP000= 
SPZO 160600Z 00000KT 9999 SKC 05/02 Q1032 RMK PP000= 
SPZO 160700Z 00000KT 9999 SKC 05/01 Q1032 RMK PP000= 
SPZO 160800Z 00000KT 9999 SKC 04/00 Q1031 RMK PP000= 
SPZO 160900Z 00000KT 9999 FEW040 SCT050 04/01 Q1032 RMK PP000= 
SPZO 161000Z VRB02KT 9999 FEW050 04/01 Q1032 RMK PP000= 
SPZO 161100Z 00000KT 9999 SKC 03/01 Q1032 RMK PP000= 
SPZO 161130Z 00000KT 9000E FEW050 05/02 Q1033 RMK HZ= 
SPZO 161130Z 00000KT 9000E FEW050 05/02 Q1033 RMK HZ= 
SPZO 161200Z 00000KT 9000E FEW050 07/02 Q0133 BECMG 9999 RMK HZ PP000= 
SPZO 161300Z VRB02KT 9999 FEW043 10/03 Q1034 NOSIG RMK PP000= 
SPZO 161400Z VRB04KT 9999 FEW040 SCT043 14/02 Q1033 NOSIG RMK PP000= 
SPZO 161500Z VRB03KT 9999 SCT043 SCT047 16/01 Q1033 NOSIG RMK PP000= 
SPZO 161600Z VRB04KT 9999 FEW040 SCT047 19/M00 Q1032 NOSIG RMK PP000= 
SPZO 161700Z VRB06KT 9999 SCT043 SCT060 18/M02 Q1030 NOSIG RMK PP000= 
SPZO 161800Z VRB04KT 9999 SCT043 SCT047 20/M03 Q1029 NOSIG RMK PP000= 
SPZO 161900Z VRB03KT 9999 BKN043 21/M03 Q1027 NOSIG RMK PP000= 
SPZO 162000Z 35008KT 270V020 9999 BKN043 19/00 Q1026 NOSIG RMK PP000= 
SPZO 162100Z 01014KT 340V080 9999 SCT043 17/01 Q1026 NOSIG RMK PP000= 
SPZO 162200Z 02010KT 340V060 9999 FEW043 17/02 Q1026 NOSIG RMK PP000 TMAX 22.4= 
SPZO 162300Z 10008KT 080V150 9999 FEW043 13/02 Q1028 TEMPO SKC RMK PP000= 
SPZO 170000Z 10007KT 080V170 9999 SKC 11/03 Q1029 RMK PP000= 
SPZO 170100Z 10005KT 070V170 9999 SKC 10/03 Q1031 RMK PP000= 
SPZO 170200Z 00000KT 9999 SKC 09/02 Q1032 RMK PP000= 
SPZO 170300Z 00000KT 9999 SKC 08/02 Q1033 RMK PP000= 
SPZO 170400Z 00000KT 9999 SKC 07/02 Q1034 RMK PP000= 
SPZO 170500Z 00000KT 9999 SKC 07/02 Q1033 RMK PP000= 
SPZO 170600Z 00000KT 9999 SKC 06/01 Q1033 RMK PP000= 
SPZO 170700Z 00000KT 9999 SKC 05/01 Q1033 RMK PP000= 
SPZO 170800Z 00000KT 9999 SKC 03/M00 Q1032 RMK PP000= 
SPZO 170500Z 00000KT 9999 SKC 07/02 Q1033 RMK PP000= 
SPZO 170600Z 00000KT 9999 SKC 06/01 Q1033 RMK PP000= 
SPZO 170700Z 00000KT 9999 SKC 05/01 Q1033 RMK PP000= 
SPZO 170800Z 00000KT 9999 SKC 03/M00 Q1032 RMK PP000= 
SPZO 170900Z 00000KT 9999 SKC 04/00 Q1033 RMK PP000= 
SPZO 171000Z 00000KT 9999 SKC 04/00 Q1033 RMK PP000= 
SPZO 171030Z 00000KT 9999 SKC 03/00 Q1033= 
SPZO 171100Z 00000KT 9999 SKC 03/M00 Q1033 RMK PP000= 
SPZO 171200Z 00000KT 9999 SKC 08/01 Q1034 NOSIG RMK PP000= 
SPZO 171300Z VRB02KT 9999 FEW050 11/01 Q1034 NOSIG RMK PP000= 
SPZO 171400Z VRB02KT 9999 FEW050 13/01 Q1034 NOSIG RMK PP000= 
SPZO 171500Z VRB03KT 9999 FEW050 16/01 Q1033 NOSIG RMK PP000= 
SPZO 171600Z VRB04KT 9999 FEW050 18/M01 Q1032 NOSIG RMK PP000 RWY10 28011KT= 
SPZO 171700Z VRB03KT 9999 FEW050 19/M03 Q1030 NOSIG RMK PP000 RWY10 14005KT= 
SPZO 171800Z VRB08KT 9999 SCT050 22/M02 Q1028 NOSIG RMK PP000 RWY10 07008KT= 
SPZO 171900Z 35004KT 260V060 9999 SCT050 22/M05 Q1026 NOSIG= 
SPZO 172000Z 35005KT 9999 FEW050 22/M03 Q1025 NOSIG RMK PP000 RWY10 01014KT= 
SPZO 172100Z 10024KT 070V170 9999 FEW043TCU SCT050 17/M02 Q1027 TEMPO VCRA NOSIG RMK PP000 RWY10 11050G69KT= 
SPZO 172200Z 14004KT 070V200 9999 BKN050 16/M03 Q1027 NOSIG RMK PP000 RWY10 14007KT TMX:23.0= 
SPZO 172300Z 03006KT 350V070 9999 BKN043 16/M04 Q1028 NOSIG RMK PP000 RWY10 24009KT= 
SPZO 180000Z 10007KT 080V150 9999 SCT040 14/00 Q1029 RMK PP000= 
SPZO 180100Z 31005KT 240V010 9999 SCT040 14/M03 Q1030 RMK PP000= 
SPZO 180200Z 08005KT 050V110 9999 SCT040 10/00 Q1031 RMK PP000= 
SPZO 180300Z 10006KT 9999 SCT040 10/00 Q1032 RMK PP000= 
SPZO 180400Z 00000KT 9999 SCT040 09/00 Q1032 RMK PP000= 
SPZO 180500Z 00000KT 9999 SCT040 06/M01 Q1032 RMK PP000= 
SPZO 180500Z 00000KT 9999 SCT040 06/M01 Q1032 RMK PP000= 
SPZO 180600Z 00000KT 9999 SCT040 05/M01 Q1032 RMK PP000= 
SPZO 180700Z 00000KT 9999 SCT040 04/M01 Q1032 RMK PP000= 
SPZO 180800Z 00000KT 9999 SCT040 04/M01 Q1032 RMK PP000= 
SPZO 180900Z 00000KT 9999 FEW040 02/M01 Q1032 RMK PP000= 
SPZO 181000Z 00000KT 9999 FEW040 03/M01 Q1032 RMK PP000= 
SPZO 181100Z 00000KT 9999 FEW040 02/M01 Q1033 RMK PP000= 
SPZO 181130Z VRB01KT 9999 FEW037 SCT046 04/01 Q1034= 
SPZO 181130Z VRB01KT 9999 FEW037 SCT046 04/01 Q1034= 
SPZO 181200Z VRB02KT 9999 FEW037 SCT050 05/01 Q1035 NOSIG RMK PP000= 
SPZO 181300Z VRB01KT 9999 FEW046 10/M01 Q1035 NOSIG RMK PP000= 
SPZO 181400Z VRB02KT 9999 FEW050 13/01 Q1035 NOSIG RMK PP000= 
SPZO 181500Z VRB02KT 9999 FEW060 16/M02 Q1034 NOSIG RMK PP000= 
SPZO 181600Z VRB03KT 9999 FEW060 19/M05 Q1033 NOSIG RMK PP000 RWY10 13007KT= 
SPZO 181700Z VRB03KT 9999 FEW060 20/M06 Q1031 NOSIG RMK PP000= 
SPZO 181800Z 15009KT 100V210 9999 FEW060 21/M07 Q1029 NOSIG 
SPZO 181900Z 36012KT 320V020 9999 FEW060 22/M08 Q1027 NOSIG 
SPZO 182000Z 01012KT 320V060 9999 FEW060 21/M06 Q1026 NOSIG 
SPZO 182100Z 01012KT 340V080 9999 FEW060 20/M05 Q1026 NOSIG 
SPZO 182200Z 01014KT 340V080 9999 SKC 17/M07 Q1027 NOSIG RMK 
SPZO 182300Z 11008KT 070V170 9999 SKC 15/M09 Q1028 NOSIG RMK 
SPZO 190000Z 12005KT 9999 SKC 13/M06 Q1029 RMK PP000= 
SPZO 190100Z 08004KT 9999 SKC 11/M05 Q1030 RMK PP000= 
SPZO 190200Z VRB02KT 9999 SKC 08/M04 Q1031 RMK PP000= 
SPZO 190300Z VRB03KT 9999 SKC 08/M03 Q1031 RMK PP000= 
SPZO 190400Z VRB03KT 9999 SKC 08/M03 Q1032 RMK PP000= 
SPZO 190500Z 00000KT 9999 SKC 05/M06 Q1032 RMK PP000= 
SPZO 190600Z 00000KT 9999 SKC 04/M05 Q1032 RMK PP000= 
SPZO 190700Z 00000KT 9999 SKC 03/M05 Q1031 RMK PP000= 
SPZO 190800Z 00000KT 9999 SKC 03/M05 Q1031 RMK PP000= 
SPZO 190900Z 00000KT 9999 SKC 03/M06 Q1031 RMK PP000= 
SPZO 191000Z 00000KT 9999 SKC 01/M05 Q1031 RMK PP000= 
SPZO 191100Z 00000KT 9999 SKC 01/M06 Q1032 RMK PP000= 
SPZO 191200Z 00000KT 9999 SKC 07/M03 Q1033 NOSIG RMK PP000= 
SPZO 191300Z VRB02KT 9999 SKC 10/M05 Q1033 NOSIG RMK PP000= 
SPZO 191400Z VRB03KT 9999 SKC 14/M04 Q1033 NOSIG RMK PP000= 
SPZO 191500Z VRB02KT 9999 FEW060 17/M04 Q1032 NOSIG RMK PP000 
SPZO 191600Z VRB05KT 9999 FEW060 20/M03 Q1030 NOSIG RMK PP000 
SPZO 191700Z VRB03KT 9999 FEW050 22/M04 Q1028 NOSIG RMK PP000 
SPZO 191800Z 27010KT 9999 FEW060 22/M07 Q1027 NOSIG RMK PP000 RWY10 36008KT 210V090= 
SPZO 191900Z VRB02KT 9999 SCT060 23/M07 Q1025 NOSIG RMK PP000 RWY10 20009KT= 
SPZO 192000Z 01014KT 340V080 9999 FEW043 SCT050 20/M02 Q1024 TEMPO VC-RA RMK PP000 RWY10 03018G32KT= 
SPZO 192100Z 02013KT 340V080 9999 SCT050 18/M00 Q1025 NOSIG RMK PP000 RWY10 04022 330V150= 
SPZO 192200Z 11010KT 070V190 9999 BKN046 17/00 Q1026 NOSIG RMK PP000 RWY10 01024KT= 
SPZO 192200Z 11010KT 070V190 9999 BKN046 17/00 Q1026 NOSIG RMK PP000 RWY10 01024KT TMX:23.8= 
SPZO 192243Z 13009KT 080V170 8000 RA BKN043TCU 15/01 Q1028= 
SPZO 192300Z 19013KT 160V260 8000 TSRA BKN043TCU 11/04 Q1028 BECMG FM2320 NSW RMK RWY10 18007KT= 
SPZO 200000Z 24004KT 9999 SCT040 SCT080 11/05 Q1029 RMK PP004= 
SPZO 200100Z 00000KT 9999 FEW100 09/04 Q1030 RMK PP000= 
SPZO 200200Z VRB02KT 9999 FEW100 08/04 Q1030 RMK PP000= 
SPZO 200300Z 27005KT 9999 SKC 08/05 Q1031 RMK PP000= 
SPZO 200400Z 00000KT 9999 SKC 06/04 Q1031 RMK PP000= 
SPZO 200500Z 00000KT 9999 SKC 06/03 Q1030 RMK PP000= 
SPZO 200600Z 00000KT 9999 SKC 06/03 Q1030 RMK PP000= 
SPZO 200700Z 00000KT 9999 FEW040 05/03 Q1030 RMK PP000= 
SPZO 200800Z 00000KT 9999 FEW050 05/03 Q1029 RMK PP000= 
SPZO 200900Z 00000KT 9999 SCT040 SCT070 04/02 Q1030 RMK PP002= 
SPZO 201000Z VRB01KT 9999 FEW037 SCT070 04/02 Q1030 RMK PP000= 
SPZO 201100Z VRB03KT 9000 FEW040 SCT050 04/02 Q1031 RMK PP000= 
SPZO 201113Z 00000KT 8000 SCT037 BKN040 04/03 Q1032 RMK BR= 
SPZO 201200Z 00000KT 9000 SCT037 BKN043 05/03 Q1032 BECMG 9999 RMK HZ PP000= 
SPZO 201300Z VRB01KT 9999 FEW040 BKN060 09/04 Q1033 NOSIG RMK PP000= 
SPZO 201322Z 00000KT 9999 FEW043 12/03 Q1033= 
SPZO 201400Z VRB03KT 9999 SCT043 12/04 Q1033 NOSIG RMK PP000= 
SPZO 201500Z VRB02KT 9999 SCT043 14/03 Q1032 NOSIG RMK PP000= 
SPZO 201600Z VRB03KT 9999 FEW040 SCT047 17/03 Q1031 NOSIG RMK PP000= 
SPZO 201700Z 09004KT 360V170 9999 SCT043 SCT047 17/M00 Q1029 TEMPO VCSH FEW040TCU BKN043 RMK PP000= 
SPZO 201800Z VRB02KT 9999 VCSH FEW043TCU SCT047 BKN100 17/M01 Q1029 TEMPO -SHRA RMK PP000= 
SPZO 201900Z 25008KT 200V310 9999 VCSH SCT043TCU SCT047 BKN080 15/M02 Q1028 NOSIG RMK PP000= 
SPZO 202000Z 35010KT 270V350 9999 SCT043 SCT060 BKN080 15/M00 Q1028 NOSIG RMK PP000= 
SPZO 202100Z 31006KT 270V360 9999 FEW043 16/M00 Q1027 NOSIG RMK PP000= 
SPZO 202200Z 26005KT 250V350 9999 FEW043 16/00 Q1027 NOSIG RMK PP000 TMAX 19.2= 
SPZO 202300Z 01006KT 340V080 9999 FEW300 14/02 Q1027 TEMPO SKC RMK PP000= 
SPZO 210000Z 34006KT 270V020 9999 FEW040 12/02 Q1029 RMK PP000= 
SPZO 210100Z 12002KT 9999 FEW040 10/02 Q1030 RMK PP000= 
SPZO 210200Z 00000KT 9999 FEW040 09/02 Q1031 RMK PP000= 
SPZO 210300Z 00000KT 9999 FEW040 07/01 Q1032 RMK PP000= 
SPZO 210400Z 00000KT 9999 FEW040 06/01 Q1032 RMK PP000= 
SPZO 210500Z 00000KT 9999 FEW040 06/02 Q1032 RMK PP000= 
SPZO 210600Z 00000KT 9999 SCT040 08/02 Q1032 RMK PP000= 
SPZO 210700Z 00000KT 9999 SCT040 07/02 Q1031 RMK PP000= 
SPZO 210800Z 00000KT 9999 SCT040 06/01 Q1031 RMK PP000= 
SPZO 210900Z 00000KT 9999 SCT040 05/01 Q1032 RMK PP000= 
SPZO 211000Z 00000KT 9999 SCT040 05/02 Q1032 RMK PP000= 
SPZO 211100Z 00000KT 9999 FEW040 04/01 Q1032 RMK PP000= 
SPZO 211200Z 00000KT 9000E SKC 08/03 Q1033 BECMG 9999 RMK HZ PP000= 
SPZO 211300Z 00000KT 9999 SKC 11/02 Q1033 NOSIG RMK PP000= 
SPZO 211400Z 03004KT 340V080 9999 FEW043 14/01 Q1033 NOSIG RMK PP000= 
SPZO 211500Z VRB04KT 9999 SCT043 17/M01 Q1032 NOSIG RMK PP000= 
SPZO 211600Z VRB04KT 9999 FEW043 SCT047 18/M03 Q1031 NOSIG RKM PP000= 
SPZO 211700Z VRB04KT 9999 FEW040 SCT050 19/M03 Q1030 NOSIG RMK PP000= 
SPZO 211800Z 35008KT 270V020 9999 FEW040 BKN050 18/M02 Q1029 NOSIG RMK PP000= 
SPZO 211800Z 35008KT 270V020 9999 FEW040 BKN050 18/M02 Q1029 NOSIG RMK PP000= 
SPZO 211900Z VRB04KT 9999 FEW043 SCT050 19/M04 Q1028 NOSIG RMK PP000 RWY10 23008KT= 
SPZO 212000Z VRB03KT 9999 FEW043 SCT050 18/M02 Q1027 NOSIG RMK PP000 RWY10 35007KT= 
SPZO 212100Z 26004KT 180V350 9999 FEW043 SCT050 19/M02 Q1026 NOSIG RMK PP000 RWY10 34007KT= 
SPZO 212200Z 36011KT 9999 BKN050 16/03 Q1027 NOSIG RMK PP000 RWY10 02019KT TMX:20.7= 
SPZO 212300Z 36008KT 340V080 9999 SCT050 14/02 Q1028 NOSIG RMK PP000 RWY10 32006KT= 
SPZO 220000Z 00000KT 9999 SCT040 14/03 Q1029 RMK PP000= 
SPZO 220100Z 00000KT 9999 SCT040 13/03 Q1031 RMK PP000= 
SPZO 220200Z 00000KT 9999 SCT040 12/03 Q1032 RMK PP000= 
SPZO 220300Z 11007KT 080V170 9999 SCT040 11/03 Q1032 RMK PP000= 
SPZO 220400Z 11004KT 070V170 9999 SCT040 10/03 Q1033 RMK PP000= 
SPZO 220500Z 10005KT 9999 SCT040 10/02 Q1033 RMK PP000= 
SPZO 220600Z 08002KT 9999 SCT040 10/02 Q1032 RMK PP000= 
SPZO 220700Z 13002KT 9999 SCT040 10/02 Q1032 RMK PP000= 
SPZO 220800Z 00000KT 9999 SCT040 10/02 Q1031 RMK PP000= 
SPZO 220900Z 00000KT 9999 BKN040 09/02 Q1031 RMK PP000= 
SPZO 221000Z 00000KT 9999 BKN040 09/03 Q1031 RMK PP000= 
SPZO 221100Z 00000KT 9999 BKN040 09/03 Q1032 RMK PP000= 
SPZO 221115Z VRB02KT 9999 BKN046 09/03 Q1032= 
SPZO 221115Z VRB02KT 9999 BKN046 09/03 Q1032= 
SPZO 221200Z 00000KT 9999 SCT040 SCT050 11/03 Q1033 NOSIG RMK PP000 RWY10 16005KT= 
SPZO 221231K VRB02KT 9999 SCT045 SCT060 11/02 Q1034= 
SPZO 221231K VRB02KT 9999 SCT045 SCT060 11/02 Q1034= 
SPZO 221300Z VRB04KT 9999 BKN050 12/02 Q1034 NOSIG RMK PP000 RWY10 09006KT= 
SPZO 221400Z VRB05KT 9999 SCT043 SCT050 13/02 Q1035 NOSIG RMK PP000 RWY10 13011KT 060V210= 
SPZO 221500Z VRB04KT 9999 SCT043 SCT050 15/02 Q1034 NOSIG RMK PP000 RWY10 VRB08KT= 
SPZO 221600Z 30004KT 250V050 9999 FEW043 BKN050 16/02 Q1034 NOSIG RMK PP000 RWY10 35005KT= 
SPZO 221700Z 34009KT 270V020 9999 FEW043 SCT050 18/01 Q1032 NOSIG RMK PP000 RWY10 35008KT= 
SPZO 221800Z 35009KT 270V020 9999 SCT043 SCT050 16/02 Q1031 TEMPO VCRA RMK PP000 RWY10 01008KT= 
SPZO 221900Z 36007KT 270V080 9999 FEW043 SCT050 17/01 Q1030 NOSIG RMK PP000 RWY10 04013KT= 
SPZO 222000Z 35005KT 270V080 9999 FEW043 SCT050 17/01 Q1029 NOSIG RMK PP000 RWY10 02009KT= 
SPZO 222100Z 02005KT 340V110 9999 BKN050 19/00 Q1028 NOSIG RMK PP000 RWY10 VRB07KT= 
SPZO 222200Z 27009KT 9999 FEW043 SCT0050 17/01 Q1028 NOSIG RMK PP000 RWY10 26018KT TMX:19.7= 
SPZO 222300Z 28005KT 9999 SCT046 15/01 Q1029 NOSIG RMK PP000 RWY10 33004KT= 
SPZO 230000Z 36007KT 9999 FEW040 SCT080 14/03 Q1030 RMK PP000= 
SPZO 230100Z 02004KT 9999 FEW040 SCT100 13/03 Q1031 RMK PP000= 
SPZO 230200Z VRB03KT 9999 FEW100 12/04 Q1032 RMK PP000= 
SPZO 230300Z VRB03KT 9999 SCT100 10/03 Q1033 RMK PP000= 
SPZO 230400Z 00000KT 9999 FEW100 10/04 Q1033 RMK PP000= 
SPZO 230500Z 00000KT 9999 FEW040 SCT080 10/04 Q1033 RMK PP000= 
SPZO 230600Z 00000KT 9999 SCT050 09/04 Q1032 RMK PP000= 
SPZO 230700Z 00000KT 9999 SCT050 08/03 Q1032 RMK PP000= 
SPZO 230800Z 00000KT 9999 SCT040 08/03 Q1032 RMK PP000= 
SPZO 230900Z 00000KT 9999 SCT040 SCT050 08/04 Q1031 RMK PP000= 
SPZO 231000Z 00000KT 9999 SCT040 SCT050 09/04 Q1032 RMK PP000= 
SPZO 231100Z 00000KT 9999 SCT040 SCT100 08/04 Q1032 RMK PP000= 
SPZO 231130Z VRB01KT 9999 SCT043 BKN120 09/04 Q1033 RMK HAZAR BIRD OVER RWY= 
SPZO 231200Z 00000KT 9999 SCT043 BKN050 09/05 Q1034 NOSIG RMK 
SPZO 231300Z VRB02KT 9999 FEW043 SCT100 14/05 Q1034 NOSIG RMK PP000 RWY10 02004KT HAZARD BIRD OVER RWY= 
SPZO 231400Z VRB03KT 9999 SCT046 SCT060 16/04 Q1034 NOSIG RMK PP000 RWY10 05007KT= 
SPZO 231500Z VRB03KT 9999 FEW043 SCT050 18/02 Q1033 NOSIG RMK PP000 RWY10 26004KT 150V360= 
SPZO 231600Z VRB06KT 9999 FEW043 SCT050 21/03 Q1032 NOSIG RMK PP000 RWY10 31006KT= 
SPZO 231700Z 34015KT 270V010 9000 VCRA SCT040TCU BKN046 17/03 Q1031 TEMPO -RA RMK PP000 RWY10 35015KT= 
SPZO 231706Z 33012KT 9000 -DZ SCT040TCU BKN050 15/08 Q1031 
SPZO 231800Z 26007KT 180V290 9999 FEW043 SCT060 18/03 Q1030 NOSIG RMK PPTRZ RWY10 03011G22KT= 
SPZO 231900Z VRB03KT 9999 BKN043 19/01 Q1028 NOSIG RMK PP000= 
SPZO 232000Z 36012KT 340V080 9999 VCSH BKN043 18/03 Q1028 NOSIG RMK PP000= 
SPZO 232100Z 36011KT 9999 VCSH BKN043 SCT080 14/04 Q1029 NOSIG RMK PP000= 
SPZO 232200Z 25008KT 180V280 9999 VCSH BKN043 SCT060 14/04 Q1029 TEMPO -RA RMK PP000 TMAX 19.1= 
SPZO 232300Z 27008KT 9999 SCT043 BKN060 13/05 Q1030 NOSIG RMK PP000= 
SPZO 240000Z 31005KT 9999 SCT040 SCT080 12/06 Q1031 RMK PP000= 
SPZO 240100Z 27004KT 9999 FEW040 SCT080 11/05 Q1032 RMK PP000= 
SPZO 240200Z 00000KT 9999 SCT080 10/05 Q1033 RMK PP000= 
SPZO 240300Z VRB03KT 9999 SCT100 09/04 Q1033 RMK PP000= 
SPZO 240400Z 00000KT 9999 SCT060 11/06 Q1033 RMK PP000= 
SPZO 240500Z 00000KT 9999 SCT050 11/06 Q1033 RMK PP000= 
SPZO 240600Z 00000KT 9999 FEW040 SCT050 09/06 Q1033 RMK PP000= 
SPZO 240600Z 00000KT 9999 FEW040 SCT050 09/06 Q1033 RMK PP002= 
SPZO 240700Z 00000KT 9999 BKN040 08/04 Q1032 RMK PP000= 
SPZO 240800Z 00000KT 9999 SCT040 SCT050 08/04 Q1031 RMK PP000= 
SPZO 240900Z VRB02KT 9999 SCT040 SCT080 08/04 Q1031 RMK PP000= 
SPZO 241000Z 26004KT 9999 SCT040 SCT080 08/04 Q1031 RMK PP000= 
SPZO 241100Z VRB03KT 9999 FEW037 SCT040 BKN050 09/04 Q1032 RMK PP000= 
SPZO 241200Z 00000KT 9999 FEW037 SCT040 BKN053 10/04 Q1032 NOSIG RMK PP000= 
SPZO 241300Z VRB02KT 9999 SCT040 BKN060 11/04 Q1033 NOSIG RMK PP000= 
SPZO 241400Z VRB03KT 9999 SCT043 14/05 Q1033 NOSIG RMK PP000= 
SPZO 241500Z VRB02KT 9999 FEW040 SCT043 17/03 Q1032 NOSIG RMK PP000= 
SPZO 241600Z VRB05KT 9999 BKN043 20/02 Q1031 NOSIG RMK PP000= 
SPZO 241700Z 31009KT 270V360 9999 BKN043 SCT100 20/03 Q1030 NOSIG RMK PP000= 
SPZO 241800Z 01006KT 270V080 9999 BKN043 19/03 Q1028 NOSIG RMK PP000= 
SPZO 241900Z 27011KT 240V350 9999 VCSH SCT043TCU SCT047 19/05 Q1026 NOSIG RMK PP000= 
SPZO 242000Z 35010KT 270V080 9999 BKN043 21/03 Q1026 NOSIG RMK PP000= 
SPZO 242100Z 01008KT 340V080 9999 FEW040 SCT043 18/03 Q1026 NOSIG RMK PP000= 
SPZO 242200Z 36006KT 340V080 9999 SCT043 17/04 Q1026 NOSIG RMK PP000 TMAX 21.6= 
SPZO 242300Z 10007KT 080V170 9999 BKN043 15/04 Q1027 NOSIG RMK PP000= 
SPZO 250000Z 06006KT 360V110 9999 SCT040 13/04 Q1028 RMK PP000= 
SPZO 250100Z 08005KT 9999 SCT040 12/04 Q1029 RMK PP000= 
SPZO 250200Z VRB03KT 9999 SCT040 11/04 Q1030 RMK PP000= 
SPZO 250300Z 00000KT 9999 SCT040 11/04 Q1030 RMK PP000= 
SPZO 250400Z 00000KT 9999 SCT040 09/04 Q1031 RMK PP000= 
SPZO 250500Z 00000KT 9999 SCT040 07/03 Q1030 RMK PP000= 
SPZO 250600Z 00000KT 9999 SCT040 07/03 Q1030 RMK PP000= 
SPZO 250700Z 00000KT 9999 SCT040 06/03 Q1030 RMK PP000= 
SPZO 250800Z 00000KT 9999 SCT040 07/03 Q1029 RMK PP000= 
SPZO 250500Z 00000KT 9999 SCT040 07/03 Q1030 RMK PP000= 
SPZO 250600Z 00000KT 9999 SCT040 07/03 Q1030 RMK PP000= 
SPZO 250700Z 00000KT 9999 SCT040 06/03 Q1030 RMK PP000= 
SPZO 250800Z 00000KT 9999 SCT040 07/03 Q1029 RMK PP000= 
SPZO 250900Z 00000KT 9999 SCT040 07/03 Q1029 RMK PP000= 
SPZO 251000Z 09003KT 9999 BKN040 07/03 Q1029 RMK PP000= 
SPZO 251100Z 00000KT 9999 BKN040 07/04 Q1030 RMK PP000= 
SPZO 251130Z 00000KT 9999 FEW043 08/04 Q1030= 
SPZO 251200Z 00000KT 9999 FEW043 10/04 Q1031 NOSIG RMK PP000= 
SPZO 251300Z VRB02KT 9999 FEW043 13/05 Q1031 NOSIG RMK PP000= 
SPZO 251400Z VRB03KT 9999 SCT043 16/03 Q1031 NOSIG RMK PP000= 
SPZO 251500Z VRB05KT 9999 SCT043 18/01 Q1030 NOSIG RMK PP000= 
SPZO 251600Z VRB03KT 9999 BKN043 20/01 Q1029 NOSIG RMK BIRDS HAZARD RWY 10/28 PP000= 
SPZO 251700Z VRB07KT 9999 FEW040 SCT047 21/M02 Q1028 NOSIG RMK PP000= 
SPZO 251800Z VRB04KT 9999 FEW040 SCT047 22/M03 Q1026 NOSIG RMK PP000= 
SPZO 251900Z 19005KT 160V270 9999 SCT060 22/M03 Q1025 NOSIG RMK PP000 RWY10 25011KT 180V360= 
SPZO 252000Z 24008KT 190V300 9999 SCT050 23/M04 Q1023 NOSIG RMK PP000 RWY10 31017KT 250V360= 
SPZO 252100Z 30010KT 260V340 9999 BKN050 21/M03 Q1023 NOSIG RMK PP000 RWY10 32015KT 250V030= 
SPZO 252200Z 01012KT 300V050 9999 SCT050 21/M03 Q1023 NOSIG RMK PP000 RWY10 02020KT = 
SPZO 252200Z 01012KT 300V050 9999 SCT050 21/M03 Q1023 NOSIG PP000 RWY10 02020KT TMX:23.6 = 
SPZO 252300Z VRB03KT 9999 FEW050 17/02 Q1025 NOSIG RMK PP000= 
SPZO 260000Z VRB02KT 9999 SKC 14/04 Q1027 RMK PP000= 
SPZO 260100Z 10007KT 060V120 9999 SKC 13/05 Q1028 RMK PP000= 
SPZO 260200Z 08005KT 360V100 9999 SKC 13/05 Q1029 RMK PP000= 
SPZO 260300Z 10007KT 020V160 9999 FEW040 13/M01 Q1031 RMK PP000= 
SPZO 260400Z 25004KT 170V290 9999 SCT040 12/M00 Q1030 RMK PP000= 
SPZO 260500Z 00000KT 9999 SCT040 11/01 Q1030 RMK PP000= 
SPZO 260600Z 00000KT 9999 SCT040 09/M00 Q1030 RMK PP000= 
SPZO 260700Z 00000KT 9999 SCT040 06/M01 Q1030 RMK PP000= 
SPZO 260800Z 00000KT 9999 SCT040 04/M01 Q1030 RMK PP000= 
SPZO 260900Z 00000KT 9999 SCT040 04/M01 Q1030 RMK PP000= 
SPZO 261000Z 00000KT 9999 SCT040 04/M02 Q1030 RMK PP000= 
SPZO 261100Z 00000KT 9999 SCT040 03/M04 Q1031 RMK PP000= 
SPZO 261200Z 00000KT 9999 SCT200 08/M02 Q1033 NOSIG RMK PP000= 
SPZO 261300Z 00000KT 9999 SCT200 13/M05 Q1033 NOSIG RMK PP000= 
SPZO 261400Z VRB03KT 9999 SCT200 15/M12 Q1033 NOSIG RMK PP000= 
SPZO 261400Z VRB03KT 9999 SCT200 15/M12 Q1033 NOSIG RMK PP000= 
SPZO 261500Z VRB03KT 9999 SCT200 17/M12 Q1032 NOSIG RMK PP000 RWY10 32004KT= 
SPZO 261500Z VRB03KT 9999 SCT200 17/M12 Q1032 NOSIG RMK PP000 RWY10 32004KT HAZARD BIRD OVER RWY== 
SPZO 261500Z VRB03KT 9999 SCT200 17/M12 Q1032 NOSIG RMK PP000 RWY10 32004KT HAZARD BIRD OVER RWY= 
SPZO 261600Z VRB03KT 9999 SCT200 19/M12 Q1031 NOSIG RMK PP000 RWY10 03012KT= 
SPZO 261700Z VRB04KT 9999 FEW200 21/M13 Q1029 NOSIG RMK PP000 RWY10 36005KT= 
SPZO 261800Z 09006KT 030V160 9999 SCT200 21/M13 Q1027 NOSIG RMK PP000 RWY10 33007KT= 
SPZO 261900Z 21006KT 150V280 9999 FEW060 22/M15 Q1025 NOSIG RMK PP000 RWY10 02009G19KT= 
SPZO 262000Z VRB03KT 9999 FEW060 23/M15 Q1024 NOSIG RMK PP000 
SPZO 262100Z 01014KT 340V060 9999 FEW060 21/M03 Q1024 NOSIG RMK PP000 RWY10 01024G42KT= 
SPZO 262200Z 03013KT 340V080 9999 SKC 19/M05 Q1025 NOSIG RMK PP000 RWY10 04014KT TMX:23.8= 
SPZO 262300Z 03013KT 340V100 9999 SKC 16/M06 Q1026 NOSIG RMK PP000 RWY10 04013KT= 
SPZO 270000Z 10006KT 9999 SKC 15/M09 Q1028 RMK PP000= 
SPZO 270100Z 20004KT 9999 SKC 13/M07 Q1029 RMK PP000= 
SPZO 270200Z VRB02KT 9999 SKC 09/M06 Q1030 RMK PP000= 
SPZO 270300Z 00000KT 9999 SKC 09/M07 Q1031 RMK PP000= 
SPZO 270400Z 00000KT 9999 SKC 07/M08 Q1032 RMK PP000= 
SPZO 270500Z 00000KT 9999 SKC 07/M08 Q1032 RMK PP000= 
SPZO 270600Z 00000KT 9999 SKC 05/M08 Q1031 RMK PP000= 
SPZO 270700Z 00000KT 9999 SKC 05/M07 Q1031 RMK PP000= 
SPZO 270800Z 00000KT 9999 SCT100 04/M08 Q1030 RMK PP000= 
SPZO 270900Z 00000KT 9999 SKC 03/M05 Q1030 RMK PP000= 
SPZO 271000Z 00000KT 9999 SKC 03/M07 Q1031 RMK PP000= 
SPZO 271100Z 00000KT 9999 SKC 01/M07 Q1032 RMK PP000= 
SPZO 271200Z 00000KT 9999 SKC 08/M07 Q1033 NOSIG RMK PP000= 
SPZO 271300Z VRB03KT 999 SKC 11/M08 Q1033 NOSIG RMK PP000 HAZARD BIRD OVER RWY RWY10 12005KT= 
SPZO 271400Z VRB03KT 9999 SKC 15/M07 Q1032 NOSIG RMK PP000 RWY10 04005KT= 
SPZO 271500Z VRB03KT 9999 SKC 18/M04 Q1031 NOSIG RMK PP000 RWY10 01005KT= 
SPZO 271600Z VRB03KT 9999 FEW060 20/M05 Q1030 NOSIG RMK PP000 RWY10 28008KT 240V020= 
SPZO 271624Z VRB04KT 9999 FEW060 22/M10 Q1029 RMK HAZARD BIRD OVER RWY= 
SPZO 271700Z VRB04KT 9999 SCT050 21/M10 Q1028 NOSIG RMK PP000 
SPZO 271800Z 31008KT 250V350 9999 SCT046 SCT060 21/M10 Q1026 NOSIG RMK PP000 RWY10 29011KT 200V340 RA CDT SW= 
SPZO 271826Z 28012KT 260V360 9999 FEW043TCU SCT047 BKN100 20/M09 Q1026 RMK RWY10 30024G42KT 250V030= 
SPZO 271900Z 30017KT 270V330 9999 SCT043TCU SCT047 BKN100 19/M07 Q1026 NOSIG RMK RWY10 32021G34KT 270V070 PP000= 
SPZO 272000Z 28015KT 250V310 9999 SCT043 BKN300 21/M06 Q1025 NOSIG RMK RWY10 30027G39KT 240V350 PP000= 
SPZO 272100Z 29011KT 250V340 9999 SCT043 BKN300 18/M05 Q1025 NOSIG RMK RWY10 29026G47KT 240V340 PP000= 
SPZO 272200Z 33006KT 240V030 9999 SCT080 BKN300 17/M03 Q1026 NOSIG RMK PP000 TMAX 22.1= 
SPZO 272300Z 26007KT 210V300 9999 FEW080 SCT300 15/M02 Q1027 NOSIG RMK PP000= 
SPZO 280000Z VRB03KT 9999 FEW300 11/M02 Q1028 RMK PP000= 
SPZO 280100Z 28004KT 9999 FEW300 11/M02 Q1029 RMK PP000= 
SPZO 280200Z VRB02KT 9999 FEW300 10/M02 Q1030 RMK PP000= 
SPZO 280300Z VRB02KT 9999 SKC 09/M02 Q1030 RMK PP000= 
SPZO 280400Z 00000KT 9999 SKC 06/M02 Q1030 RMK PP000= 
SPZO 280500Z 00000KT 9999 SKC 02/M03 Q1030 RMK PP000= 
SPZO 280600Z 00000KT 9999 SKC 06/M02 Q1030 RMK PP000= 
SPZO 280700Z 00000KT 9999 FEW080 05/M02 Q1029 RMK PP000= 
SPZO 280800Z 00000KT 9999 SKC 03/M02 Q1029 RMK PP000= 
SPZO 280900Z 00000KT 9999 SKC 02/M02 Q1029 RMK PP000= 
SPZO 281000Z 00000KT 9999 SKC 02/M01 Q1030 RMK PP000= 
SPZO 281100Z 00000KT 9999 SKC 03/M02 Q1030 RMK PP000= 
SPZO 281200Z 00000KT 9000E SKC 07/M01 Q1031 BECMG 9999 RMK HZ PP000= 
SPZO 281300Z VRB02KT 9999 SKC 12/M01 Q1031 NOSIG RMK PP000= 
SPZO 281400Z VRB02KT 9999 SKC 15/M03 Q1031 NOSIG RMK PP000= 
SPZO 281500Z VRB04KT 9999 SKC 18/M07 Q1030 TEMPO FEW043 RMK PP000= 
SPZO 281600Z VRB05KT 9999 FEW043 20/M09 Q1028 NOSIG RMK PP000= 
SPZO 281700Z VRB05KT 9999 FEW043 23/M08 Q1027 NOSIG RKM PP000= 
SPZO 281700Z VRB05KT 9999 FEW043 23/M08 Q1027 NOSIG RMK PP000= 
SPZO 281800Z 11006KT 070V190 9999 FEW040 SCT043 22/M08 Q1025 NOSIG RMK RWY10 29011G21KT 210V360 PP000= 
SPZO 281900Z 01017KT 340V080 9999 FEW040 BKN043 21/M03 Q1024 NOSIG RMK PP000= 
SPZO 282000Z 02016KT 330V070 9999 FEW040 SCT043 19/M02 Q1024 NOSIG RMK PP000= 
SPZO 282100Z 02013KT 340V080 9999 SCT043 SCT080 18/M05 Q1024 NOSIG RMK PP000= 
SPZO 282200Z 03009KT 320V080 9999 FEW043 17/M04 Q1025 NOSIG RMK PP000 TMAX 23.8= 
SPZO 282300Z 01009KT 340V090 9999 FEW043 16/M01 Q1026 NOSIG RMK PP000= 
SPZO 290000Z 28009KT 260V350 9999 SKC 13/03 Q1027 RMK PP000= 
SPZO 290100Z 01004KT 340V100 9999 SKC 11/01 Q1029 RMK PP000= 
SPZO 290200Z 09006KT 9999 SKC 11/03 Q1030 RMK PP000= 
SPZO 290300Z 25002KT 9999 SKC 10/02 Q1030 RMK PP000= 
SPZO 290400Z 30002KT 9999 SKC 08/01 Q1030 RMK PP000= 
SPZO 290500Z 00000KT 9999 SKC 07/01 Q1031 RMK PP000= 
SPZO 290600Z 28002KT 9999 SKC 06/01 Q1030 RMK PP000= 
SPZO 290700Z 00000KT 9999 SKC 06/01 Q1030 RMK PP000= 
SPZO 290800Z 00000KT 9999 SKC 05/01 Q1030 RMK PP000= 
SPZO 290900Z 00000KT 9999 SKC 05/00 Q1030 RMK PP000= 
SPZO 291000Z 00000KT 9999 FEW040 05/01 Q1030 RMK PP000= 
SPZO 291100Z 00000KT 9999 BKN040 06/01 Q1031 RMK PP000= 
SPZO 291200Z 00000KT 9999 SCT043 SCT080 09/02 Q1032 NOSIG RMK PP000= 
SPZO 291209Z 00000KT 9999 FEW060 10/02 Q1032= 
SPZO 291300Z VRB03KT 9999 FEW060 12/03 Q1032 NOSIG RMK PP000= 
SPZO 291400Z VRB05KT 9999 FEW043 14/02 Q1032 NOSIG RMK BIRDS HAZARD RWY 10/28 PP000= 
SPZO 291500Z VRB04KT 9999 SCT043 18/01 Q1031 NOSIG RMK PP000= 
SPZO 291600Z VRB04KT 9999 FEW040 SCT043 19/M01 Q1030 NOSIG RMK PP000= 
SPZO 291700Z VRB05KT 9999 FEW040 BKN043 21/M01 Q1028 NOSIG RMK PP000= 
SPZO 291800Z VRB04KT 9999 FEW040 SCT047 21/M01 Q1026 NOSIG RMK PP000= 
SPZO 291900Z VRB05KT 9999 BKN060 21/M02 Q1025 NOSIG RMK PP000 RWY10 01008KT= 
SPZO 292000Z VRB05KT 9999 FEW043TCU SCT060 21/M03 Q1024 TEMPO VCRA RWY10 22007KT= 
SPZO 292100Z 34004KT 270V050 9999 SCT050 22/M02 Q1023 NOSIG RMK PP000 RWY10 03021G34KT 350V100= 
SPZO 292200Z 01013KT 340V080 9999 FEW050 18/03 Q1024 NOSIG RMK PP000 RWY10 02022G37= 
SPZO 292200Z 01013KT 340V080 9999 FEW050 18/03 Q1024 NOSIG RMK PP000 RWY10 02022G37KT TMX:23.1= 
SPZO 292300Z VRB05KT 9999 FEW046 16/04 Q1026 NOSIG RMK PP000 RWY10 07012KT= 
SPZO 300000Z 12003KT 9999 SKC 14/04 Q1027 RMK PP000= 
SPZO 300100Z 16005KT 9999 SKC 14/04 Q1029 RMK PP000= 
SPZO 300200Z 34004KT 9999 SKC 14/04 Q1030 RMK PP000= 
SPZO 300300Z 10009KT 9999 FEW040 11/04 Q1031 RMK PP000= 
SPZO 300400Z 07003KT 9999 FEW040 12/04 Q1031 RMK PP000= 
SPZO 300500Z 00000KT 9999 FEW040 11/04 Q1031 RMK PP000= 
SPZO 300600Z 00000KT 9999 SCT040 10/04 Q1031 RMK PP000= 
SPZO 300700Z 00000KT 9999 SCT040 11/02 Q1031 RMK PP000= 
SPZO 300800Z 00000KT 9999 SCT040 10/03 Q1031 RMK PP000= 
SPZO 300900Z 33005KT 270V360 9999 BKN040 10/03 Q1031 
SPZO 301000Z 28004KT 260V350 9999 BKN040 08/02 Q1031 RMK PP000= 
SPZO 301030Z 35002KT 9999 SCT040 07/02 Q1032= 
SPZO 301100Z 00000KT 9999 SCT040 07/02 Q1032 RMK PP000= 
SPZO 301200Z VRB02KT 9999 SCT043 SCT050 10/03 Q1033 NOSIG RMK PP000 RWY10 29006KT= 
SPZO 301300Z VRB03KT 9999 SCT060 13/02 Q1033 NOSIG RMK PP000= 
SPZO 301400Z VRB04KT 9999 SCT060 15/02 Q1033 NOSIG RMK PP000= 
SPZO 301500Z VRB04KT 9999 FEW060 18/01 Q1032 NOSIG RMK PP000 RWY10 VRB06KT= 
SPZO 301600Z VRB02KT 9999 FEW060 20/M01 Q1031 NOSIG RMK PP000 RWY10 16010KT= 
SPZO 301700Z VRB04KT 9999 SCT060 21/M01 Q1029 NOSIG RMK PP000 RWY10 22006KT= 
SPZO 301800Z 10009KT 070V170 9999 SCT046 20/M01 Q1027 TEMPO VCRA RMK PP000 RWY10 10012KT= 
SPZO 301900Z 01012KT 340V080 9999 FEW043 SCT090 22/M03 Q1027 NOSIG RMK PP000 RA CDTE SW= 
SPZO 302000Z 34010KT 290V030 9999 SCT043 SCT060 18/M02 Q1027 NOSIG RMK PP000 RWY10 32018G31KT RA CDTE S/SW= 
SPZO 302100Z 35008KT 310V050 9999 SCT046 SCT080 17/M02 Q1028 NOSIG RMK PP000 RWY10 32015G29KT= 
SPZO 302200Z VRB02KT 9999 FEW050 17/M02 Q1028 NOSIG RMK PP000 RWY10 36009G22KT 340V060 TMX:22.9= 
